[{"AddressLine1": "6808 Granby St", "City": "BETHESDA", "PostalCode": "20817", "State": "MD"}, {"AddressLine1": "4678 Mews Dr", "City": "OWINGS MILLS", "PostalCode": "21117", "State": "MD"}, {"AddressLine1": "825 WESTERN-CHAPEL RD", "City": "WESTMINSTER", "PostalCode": "21157", "State": "MD"}, {"AddressLine1": "1625 Watervale Rd", "City": "FALLSTON", "PostalCode": "21047", "State": "MD"}, {"AddressLine1": "4806 Lackawanna St", "City": "COLLEGE PARK", "PostalCode": "20740", "State": "MD"}, {"AddressLine1": "2232 OLD-EMMORTON RD", "City": "BEL AIR", "PostalCode": "21015", "State": "MD"}, {"AddressLine1": "108 Sandgate Ct", "City": "MILLERSVILLE", "PostalCode": "21108", "State": "MD"}, {"AddressLine1": "18 WHITE-WILLOW CT", "City": "OWINGS MILLS", "PostalCode": "21117", "State": "MD"}, {"AddressLine1": "212 Church Rd", "City": "REISTERSTOWN", "PostalCode": "21136", "State": "MD"}, {"AddressLine1": "6104 Crossover Ln", "City": "ROCKVILLE", "PostalCode": "20852", "State": "MD"}, {"AddressLine1": "9309 Bellbeck Rd", "City": "BALTIMORE", "PostalCode": "21234", "State": "MD"}, {"AddressLine1": "3816 Philadelphia Rd", "City": "ABINGDON", "PostalCode": "21009", "State": "MD"}, {"AddressLine1": "1302 SANDWORT CT APT 103", "City": "BELCAMP", "PostalCode": "21017", "State": "MD"}, {"AddressLine1": "17314 York Rd", "City": "PARKTON", "PostalCode": "21120", "State": "MD"}, {"AddressLine1": "11308 Bedfordshire Ave", "City": "POTOMAC", "PostalCode": "20854", "State": "MD"}, {"AddressLine1": "133 SNOW-CHIEF DR", "City": "HAVRE DE GRACE", "PostalCode": "21078", "State": "MD"}, {"AddressLine1": "906 HAMBURG", "City": "ABINGDON", "PostalCode": "21009", "State": "MD"}, {"AddressLine1": "14 Sunday Ct", "City": "REISTERSTOWN", "PostalCode": "21136", "State": "MD"}, {"AddressLine1": "602 Seaweed Ln # 2", "City": "OCEAN CITY", "PostalCode": "21842", "State": "MD"}, {"AddressLine1": "1207 Addison Rd S Apt 333", "City": "CAPITOL HEIGHTS", "PostalCode": "20743", "State": "MD"}, {"AddressLine1": "8201 Reppy Ln", "City": "FORT WASHINGTON", "PostalCode": "20744", "State": "MD"}, {"AddressLine1": "5731 Goldfinch Ct", "City": "ELLICOTT CITY", "PostalCode": "21043", "State": "MD"}, {"AddressLine1": "2721 Weatherstone Dr", "City": "ELLICOTT CITY", "PostalCode": "21042", "State": "MD"}, {"AddressLine1": "9415 Decatur Rd", "City": "LAUREL", "PostalCode": "20723", "State": "MD"}, {"AddressLine1": "8771 LENOX DR", "City": "DELMAR", "PostalCode": "21875", "State": "MD"}, {"AddressLine1": "3901 Barnsley Ln", "City": "OLNEY", "PostalCode": "20832", "State": "MD"}, {"AddressLine1": "2531 SANDY-RUN CT", "City": "ANNAPOLIS", "PostalCode": "21401", "State": "MD"}, {"AddressLine1": "813 W Padonia Rd", "City": "COCKEYSVILLE", "PostalCode": "21030", "State": "MD"}, {"AddressLine1": "6156 WAITING-SPRING", "City": "COLUMBIA", "PostalCode": "21045", "State": "MD"}, {"AddressLine1": "10718 TWIN-OVERLOOK PL", "City": "LAUREL", "PostalCode": "20723", "State": "MD"}, {"AddressLine1": "9026 Hines Rd", "City": "BALTIMORE", "PostalCode": "21234", "State": "MD"}, {"AddressLine1": "3312 HARRELL ST", "City": "SILVER SPRING", "PostalCode": "20906", "State": "MD"}, {"AddressLine1": "11006 WOOD-ELVES WAY", "City": "COLUMBIA", "PostalCode": "21044", "State": "MD"}, {"AddressLine1": "3730 BEACH-DRIVE BLVD", "City": "EDGEWATER", "PostalCode": "21037", "State": "MD"}, {"AddressLine1": "734 Cherry Hill Rd", "City": "STREET", "PostalCode": "21154", "State": "MD"}, {"AddressLine1": "102 Glenburn Ave", "City": "CAMBRIDGE", "PostalCode": "21613", "State": "MD"}, {"AddressLine1": "14425 Parkvale Rd Apt 3", "City": "ROCKVILLE", "PostalCode": "20853", "State": "MD"}, {"AddressLine1": "3332 Texas Ave", "City": "BALTIMORE", "PostalCode": "21234", "State": "MD"}, {"AddressLine1": "3316 Beall Dr", "City": "DAVIDSONVILLE", "PostalCode": "21035", "State": "MD"}, {"AddressLine1": "1931 Hilltop Rd", "City": "PASADENA", "PostalCode": "21122", "State": "MD"}, {"AddressLine1": "13013 Cloverly Dr", "City": "UPPER MARLBORO", "PostalCode": "20774", "State": "MD"}, {"AddressLine1": "9025 FATHERS-LEGACY", "City": "ELLICOTT CITY", "PostalCode": "21042", "State": "MD"}, {"AddressLine1": "7330 Manchester Rd", "City": "BALTIMORE", "PostalCode": "21222", "State": "MD"}, {"AddressLine1": "9131 Sperl Ave", "City": "BALTIMORE", "PostalCode": "21234", "State": "MD"}, {"AddressLine1": "1803 Plainvue Way", "City": "FALLSTON", "PostalCode": "21047", "State": "MD"}, {"AddressLine1": "211 Ambleside Dr", "City": "SEVERNA PARK", "PostalCode": "21146", "State": "MD"}, {"AddressLine1": "204 S CHERRY-GROVE AVE", "City": "ANNAPOLIS", "PostalCode": "21401", "State": "MD"}, {"AddressLine1": "5408 21st Pl", "City": "HYATTSVILLE", "PostalCode": "20782", "State": "MD"}, {"AddressLine1": "212 WOODLAND-GREEN WAY", "City": "ABERDEEN", "PostalCode": "21001", "State": "MD"}, {"AddressLine1": "2050 Putnam Rd", "City": "BALTIMORE", "PostalCode": "21227", "State": "MD"}, {"AddressLine1": "4820 Ilchester Rd", "City": "ELLICOTT CITY", "PostalCode": "21043", "State": "MD"}, {"AddressLine1": "306 S Main St", "City": "FEDERALSBURG", "PostalCode": "21632", "State": "MD"}, {"AddressLine1": "9705 BERNARD-LEWIS CT", "City": "PERRY HALL", "PostalCode": "21128", "State": "MD"}, {"AddressLine1": "213 West St", "City": "ANNAPOLIS", "PostalCode": "21401", "State": "MD"}, {"AddressLine1": "5521 Sykesville Rd", "City": "SYKESVILLE", "PostalCode": "21784", "State": "MD"}, {"AddressLine1": "8002 Brynmor Ct Unit 502", "City": "BALTIMORE", "PostalCode": "21208", "State": "MD"}, {"AddressLine1": "10005 VANWINKLE LN", "City": "BALTIMORE", "PostalCode": "21220", "State": "MD"}, {"AddressLine1": "12236 SUMMER-SKY PATH", "City": "CLARKSVILLE", "PostalCode": "21029", "State": "MD"}, {"AddressLine1": "7103 Sunnyside Ln", "City": "FORT WASHINGTON", "PostalCode": "20744", "State": "MD"}, {"AddressLine1": "3532 Greenpoint Rd", "City": "EAST NEW MARKET", "PostalCode": "21631", "State": "MD"}, {"AddressLine1": "21 Harvard Rd", "City": "GLEN BURNIE", "PostalCode": "21060", "State": "MD"}, {"AddressLine1": "832 Revolution St", "City": "HAVRE DE GRACE", "PostalCode": "21078", "State": "MD"}, {"AddressLine1": "409 Blacksnake Rd", "City": "ELKTON", "PostalCode": "21921", "State": "MD"}, {"AddressLine1": "1231 Leeds Ter", "City": "BALTIMORE", "PostalCode": "21227", "State": "MD"}, {"AddressLine1": "4118 Sampson Rd", "City": "SILVER SPRING", "PostalCode": "20906", "State": "MD"}, {"AddressLine1": "2417 Kelford Ln", "City": "BOWIE", "PostalCode": "20715", "State": "MD"}, {"AddressLine1": "108 Allgate Rd", "City": "OWINGS MILLS", "PostalCode": "21117", "State": "MD"}, {"AddressLine1": "7857 CYPRESS-LANDING RD", "City": "SEVERN", "PostalCode": "21144", "State": "MD"}, {"AddressLine1": "617 Cedar Ln", "City": "BEL AIR", "PostalCode": "21015", "State": "MD"}, {"AddressLine1": "1405 Doewood Ln Apt 202", "City": "CAPITOL HEIGHTS", "PostalCode": "20743", "State": "MD"}, {"AddressLine1": "2098 Lavinda Dr", "City": "WESTMINSTER", "PostalCode": "21157", "State": "MD"}, {"AddressLine1": "584 STOCKETTS-RUN RD", "City": "DAVIDSONVILLE", "PostalCode": "21035", "State": "MD"}, {"AddressLine1": "12246 Roundwood Rd Unit 104", "City": "LUTHRVIL-TIMONIUM", "PostalCode": "21093", "State": "MD"}, {"AddressLine1": "607 CARLTON-OTTO LN APT 20", "City": "ODENTON", "PostalCode": "21113", "State": "MD"}, {"AddressLine1": "1304 Breezeway Dr", "City": "ANNAPOLIS", "PostalCode": "21409", "State": "MD"}, {"AddressLine1": "7309 Beech Ave", "City": "BALTIMORE", "PostalCode": "21206", "State": "MD"}, {"AddressLine1": "11316 RED-LION RD", "City": "WHITE MARSH", "PostalCode": "21162", "State": "MD"}, {"AddressLine1": "11316 RED-LION RD", "City": "WHITE MARSH", "PostalCode": "21162", "State": "MD"}, {"AddressLine1": "14118 Chesterfield Rd", "City": "ROCKVILLE", "PostalCode": "20853", "State": "MD"}, {"AddressLine1": "4606 WHITE AVE 1FL", "City": "BALTIMORE", "PostalCode": "21206", "State": "MD"}, {"AddressLine1": "311 Tecumseh Way", "City": "HAVRE DE GRACE", "PostalCode": "21078", "State": "MD"}, {"AddressLine1": "5209 Chandler St", "City": "BETHESDA", "PostalCode": "20814", "State": "MD"}, {"AddressLine1": "694 Merrimac Ct", "City": "DAVIDSONVILLE", "PostalCode": "21035", "State": "MD"}, {"AddressLine1": "205 BALTO-ANNAP BLVD", "City": "SEVERNA PARK", "PostalCode": "21146", "State": "MD"}, {"AddressLine1": "18 Wineberry Ct", "City": "GLEN ARM", "PostalCode": "21057", "State": "MD"}, {"AddressLine1": "6106 KIRBY RD", "City": "BETHESDA", "PostalCode": "20817", "State": "MD"}, {"AddressLine1": "812 Price Rd", "City": "SALISBURY", "PostalCode": "21801", "State": "MD"}, {"AddressLine1": "5515 Cornish Rd", "City": "BETHESDA", "PostalCode": "20814", "State": "MD"}, {"AddressLine1": "2710 Patapsco Rd", "City": "FINKSBURG", "PostalCode": "21048", "State": "MD"}, {"AddressLine1": "1721 OLD-GENERALS HWY", "City": "ANNAPOLIS", "PostalCode": "21401", "State": "MD"}, {"AddressLine1": "6124 Ebenezer Rd", "City": "BALTIMORE", "PostalCode": "21220", "State": "MD"}, {"AddressLine1": "1 Webster St", "City": "WESTMINSTER", "PostalCode": "21157", "State": "MD"}, {"AddressLine1": "3305 Ambra Ct", "City": "ELLICOTT CITY", "PostalCode": "21042", "State": "MD"}, {"AddressLine1": "5511 Decatur St", "City": "BLADENSBURG", "PostalCode": "20710", "State": "MD"}, {"AddressLine1": "8 ROSANNE LN", "City": "ROCKVILLE", "PostalCode": "20851", "State": "MD"}, {"AddressLine1": "4910 71ST AVE", "City": "HYATTSVILLE", "PostalCode": "20784", "State": "MD"}, {"AddressLine1": "7 Brigantine Ct", "City": "BALTIMORE", "PostalCode": "21236", "State": "MD"}, {"AddressLine1": "501 E BALTIMORE ST 2FL", "City": "BALTIMORE", "PostalCode": "21202", "State": "MD"}, {"AddressLine1": "2 Paradise Ave", "City": "BALTIMORE", "PostalCode": "21228", "State": "MD"}, {"AddressLine1": "12740 Triple Crown Rd", "City": "NORTH POTOMAC", "PostalCode": "20878", "State": "MD"}, {"AddressLine1": "4710 Harvard Rd", "City": "COLLEGE PARK", "PostalCode": "20740", "State": "MD"}, {"AddressLine1": "8094 Ventnor Rd", "City": "PASADENA", "PostalCode": "21122", "State": "MD"}, {"AddressLine1": "2 PARADISE AVE", "City": "BALTIMORE", "PostalCode": "21228", "State": "MD"}, {"AddressLine1": "2 PARADISE AVE", "City": "BALTIMORE", "PostalCode": "21228", "State": "MD"}, {"AddressLine1": "2 PARADISE AVE", "City": "BALTIMORE", "PostalCode": "21228", "State": "MD"}, {"AddressLine1": "816 Olmstead Rd", "City": "BALTIMORE", "PostalCode": "21208", "State": "MD"}, {"AddressLine1": "8222 Timeless Ct", "City": "FULTON", "PostalCode": "20759", "State": "MD"}, {"AddressLine1": "1322 Ava Rd", "City": "SEVERN", "PostalCode": "21144", "State": "MD"}, {"AddressLine1": "7205 Dower House Rd", "City": "UPPR MARLBORO", "PostalCode": "20772", "State": "MD"}, {"AddressLine1": "732 S Ellwood Ave", "City": "BALTIMORE", "PostalCode": "21224", "State": "MD"}, {"AddressLine1": "201 Ferndale Ave", "City": "GLEN BURNIE", "PostalCode": "21061", "State": "MD"}, {"AddressLine1": "2130 Weber Dr", "City": "DISTRICT HEIGHTS", "PostalCode": "20747", "State": "MD"}, {"AddressLine1": "307 Amherst Rd", "City": "SALISBURY", "PostalCode": "21801", "State": "MD"}, {"AddressLine1": "1323 Sienna Trl", "City": "DAVIDSONVILLE", "PostalCode": "21035", "State": "MD"}, {"AddressLine1": "8220 PUMPKIN-HILL CT", "City": "BALTIMORE", "PostalCode": "21208", "State": "MD"}, {"AddressLine1": "2705 QUAY AVE", "City": "DISTRICT HEIGHTS", "PostalCode": "20747", "State": "MD"}, {"AddressLine1": "8809 Old Branch Ave", "City": "CLINTON", "PostalCode": "20735", "State": "MD"}, {"AddressLine1": "4340 OLD-WASHINGTON RD", "City": "SYKESVILLE", "PostalCode": "21784", "State": "MD"}, {"AddressLine1": "721 Magothy Rd", "City": "ARNOLD", "PostalCode": "21012", "State": "MD"}, {"AddressLine1": "7005 Stratford Dr", "City": "SYKESVILLE", "PostalCode": "21784", "State": "MD"}, {"AddressLine1": "8207 Alston Rd", "City": "BALTIMORE", "PostalCode": "21204", "State": "MD"}, {"AddressLine1": "4815 TAYLOR RD", "City": "SNOW HILL", "PostalCode": "21863", "State": "MD"}, {"AddressLine1": "2801 ASHFIELD DR APT 101", "City": "BALTIMORE", "PostalCode": "21244", "State": "MD"}, {"AddressLine1": "8501 Bayside Rd Unit 707", "City": "CHESAPEAKE BEACH", "PostalCode": "20732", "State": "MD"}, {"AddressLine1": "1 VALLEY-GLEN CT", "City": "REISTERSTOWN", "PostalCode": "21136", "State": "MD"}, {"AddressLine1": "5249 RISING-SUN LN", "City": "ELLICOTT CITY", "PostalCode": "21043", "State": "MD"}, {"AddressLine1": "6428 WESTERN-STAR RUN", "City": "CLARKSVILLE", "PostalCode": "21029", "State": "MD"}, {"AddressLine1": "611 Carolyn Rd", "City": "GLEN BURNIE", "PostalCode": "21061", "State": "MD"}, {"AddressLine1": "9509 VALLEY-MEDE CT", "City": "ELLICOTT CITY", "PostalCode": "21042", "State": "MD"}, {"AddressLine1": "200 West End Ave", "City": "CAMBRIDGE", "PostalCode": "21613", "State": "MD"}, {"AddressLine1": "5822 SHADY-SPRING AVE", "City": "BALTIMORE", "PostalCode": "21237", "State": "MD"}, {"AddressLine1": "3990 ROBIN-HOOD WAY", "City": "SYKESVILLE", "PostalCode": "21784", "State": "MD"}, {"AddressLine1": "4934 BATTERY LN # 2", "City": "BETHESDA", "PostalCode": "20814", "State": "MD"}, {"AddressLine1": "802 S SCHUMAKER DR # 2C", "City": "SALISBURY", "PostalCode": "21804", "State": "MD"}, {"AddressLine1": "7 Thomasson Ct", "City": "CAPITOL HEIGHTS", "PostalCode": "20743", "State": "MD"}, {"AddressLine1": "172 E GREEN ST 1FL", "City": "WESTMINSTER", "PostalCode": "21157", "State": "MD"}, {"AddressLine1": "4115 Aspen St", "City": "CHEVY CHASE", "PostalCode": "20815", "State": "MD"}, {"AddressLine1": "914 Felicia Ct", "City": "BEL AIR", "PostalCode": "21014", "State": "MD"}, {"AddressLine1": "813 Corbett Rd", "City": "MONKTON", "PostalCode": "21111", "State": "MD"}, {"AddressLine1": "3529 Falling Green Rd", "City": "OLNEY", "PostalCode": "20832", "State": "MD"}, {"AddressLine1": "114 Augustine Rd", "City": "NORTH EAST", "PostalCode": "21901", "State": "MD"}, {"AddressLine1": "7934 Starburst Dr", "City": "BALTIMORE", "PostalCode": "21208", "State": "MD"}, {"AddressLine1": "1406 Exmoor Ln", "City": "BEL AIR", "PostalCode": "21015", "State": "MD"}, {"AddressLine1": "3306 Clyde St", "City": "BALTIMORE", "PostalCode": "21224", "State": "MD"}, {"AddressLine1": "3116 REGINA DR", "City": "SILVER SPRING", "PostalCode": "20906", "State": "MD"}, {"AddressLine1": "173 BROWNS-WOODS RD APT 4", "City": "ANNAPOLIS", "PostalCode": "21409", "State": "MD"}, {"AddressLine1": "4938 OLD-COURT RD", "City": "RANDALLSTOWN", "PostalCode": "21133", "State": "MD"}, {"AddressLine1": "8420 Carlynn Dr", "City": "BETHESDA", "PostalCode": "20817", "State": "MD"}, {"AddressLine1": "1509 Bayview Dr", "City": "HAVRE DE GRACE", "PostalCode": "21078", "State": "MD"}, {"AddressLine1": "4927 THOMAS DR", "City": "SHADY SIDE", "PostalCode": "20764", "State": "MD"}, {"AddressLine1": "87 Stewart Dr Unit 208", "City": "EDGEWATER", "PostalCode": "21037", "State": "MD"}, {"AddressLine1": "16311 Bawtry Ct", "City": "BOWIE", "PostalCode": "20715", "State": "MD"}, {"AddressLine1": "3048 Forum Pl", "City": "ELLICOTT CITY", "PostalCode": "21042", "State": "MD"}, {"AddressLine1": "12670 TWIN-LAKES DR", "City": "DUNKIRK", "PostalCode": "20754", "State": "MD"}, {"AddressLine1": "402 Dellcrest Dr", "City": "FOREST HILL", "PostalCode": "21050", "State": "MD"}, {"AddressLine1": "710 Douglass Ave", "City": "ROCKVILLE", "PostalCode": "20850", "State": "MD"}, {"AddressLine1": "3104 WHITEFIELD RD", "City": "CHURCHVILLE", "PostalCode": "21028", "State": "MD"}, {"AddressLine1": "6603 PARK-HEIGHTS AVE APT 2B", "City": "BALTIMORE", "PostalCode": "21215", "State": "MD"}, {"AddressLine1": "8260 STONE-CROP DR UNIT E", "City": "ELLICOTT CITY", "PostalCode": "21043", "State": "MD"}, {"AddressLine1": "447 NEW-YORK AVE", "City": "PASADENA", "PostalCode": "21122", "State": "MD"}, {"AddressLine1": "2934 Sylvan Hill Ct", "City": "ELLICOTT CITY", "PostalCode": "21043", "State": "MD"}, {"AddressLine1": "8155 Cyprus Cedar Ln Apt K", "City": "ELLICOTT CITY", "PostalCode": "21043", "State": "MD"}, {"AddressLine1": "229 S Exeter St", "City": "BALTIMORE", "PostalCode": "21202", "State": "MD"}, {"AddressLine1": "9310 Farewell Rd", "City": "COLUMBIA", "PostalCode": "21045", "State": "MD"}, {"AddressLine1": "122 Greenbrier Rd", "City": "BALTIMORE", "PostalCode": "21286", "State": "MD"}, {"AddressLine1": "7012 97th Ave", "City": "LANHAM", "PostalCode": "20706", "State": "MD"}, {"AddressLine1": "12125 Remington Dr", "City": "SILVER SPRING", "PostalCode": "20902", "State": "MD"}, {"AddressLine1": "6610 61ST PL", "City": "RIVERDALE", "PostalCode": "20737", "State": "MD"}, {"AddressLine1": "116 Denison St", "City": "BALTIMORE", "PostalCode": "21229", "State": "MD"}]
