[{"AddressLine1": "218 Locust Ln", "City": "DANVILLE", "PostalCode": "17821", "State": "PA"}, {"AddressLine1": "344 W Main St", "City": "EVANS CITY", "PostalCode": "16033", "State": "PA"}, {"AddressLine1": "219 Double Rd", "City": "RENFREW", "PostalCode": "16053", "State": "PA"}, {"AddressLine1": "109 Cole St", "City": "SAYRE", "PostalCode": "18840", "State": "PA"}, {"AddressLine1": "302 Mapeat Ln", "City": "NEW CASTLE", "PostalCode": "16101", "State": "PA"}, {"AddressLine1": "121 Cedar Ln", "City": "ROARING SPRING", "PostalCode": "16673", "State": "PA"}, {"AddressLine1": "414 Schubert Rd", "City": "BETHEL", "PostalCode": "19507", "State": "PA"}, {"AddressLine1": "524 MOUNT AIR RD", "City": "NEW CASTLE", "PostalCode": "16102", "State": "PA"}, {"AddressLine1": "1735 Stevensan Dr", "City": "SEWICKLEY", "PostalCode": "15143", "State": "PA"}, {"AddressLine1": "206 E Fairfield Ave", "City": "NEW CASTLE", "PostalCode": "16105", "State": "PA"}, {"AddressLine1": "1767 Furniss Rd", "City": "DRUMORE", "PostalCode": "17518", "State": "PA"}, {"AddressLine1": "9323 State Rd", "City": "PHILADELPHIA", "PostalCode": "19114", "State": "PA"}, {"AddressLine1": "2063 Flint Hill Rd", "City": "COOPERSBURG", "PostalCode": "18036", "State": "PA"}, {"AddressLine1": "918 SYCAMORE DR", "City": "DENVER", "PostalCode": "17517", "State": "PA"}, {"AddressLine1": "306 Olivia St Apt 8", "City": "MCKEES ROCKS", "PostalCode": "15136", "State": "PA"}, {"AddressLine1": "837 Newville Rd", "City": "CARLISLE", "PostalCode": "17013", "State": "PA"}, {"AddressLine1": "221 LANCASTER AVE L4", "City": "STRASBURG", "PostalCode": "17579", "State": "PA"}, {"AddressLine1": "1429 Detweiler Ave", "City": "HELLERTOWN", "PostalCode": "18055", "State": "PA"}, {"AddressLine1": "333 W Court St Apt 203", "City": "ALLENTOWN", "PostalCode": "18101", "State": "PA"}, {"AddressLine1": "3523 SCHWABEN CREEK RD", "City": "REBUCK", "PostalCode": "17867", "State": "PA"}, {"AddressLine1": "3075 WILLIAM PENN AVE", "City": "JOHNSTOWN", "PostalCode": "15909", "State": "PA"}, {"AddressLine1": "224 Robinson St", "City": "EDINBURG", "PostalCode": "16116", "State": "PA"}, {"AddressLine1": "155 Lime Kiln Rd", "City": "DARLINGTON", "PostalCode": "16115", "State": "PA"}, {"AddressLine1": "238 Parkway Dr", "City": "PITTSBURGH", "PostalCode": "15228", "State": "PA"}, {"AddressLine1": "28 STONE BARN RD UNIT 443", "City": "MECHANICSBURG", "PostalCode": "17050", "State": "PA"}, {"AddressLine1": "8163 Skyhigh Ln", "City": "CANADENSIS", "PostalCode": "18325", "State": "PA"}, {"AddressLine1": "1303 Tall Trees Dr", "City": "SCRANTON", "PostalCode": "18505", "State": "PA"}, {"AddressLine1": "854 Blooming Glen Rd", "City": "PERKASIE", "PostalCode": "18944", "State": "PA"}, {"AddressLine1": "225 PIKE ST", "City": "PORT CARBON", "PostalCode": "17965", "State": "PA"}, {"AddressLine1": "2638 Jefferson St", "City": "HARRISBURG", "PostalCode": "17110", "State": "PA"}, {"AddressLine1": "501 Pittston Ave", "City": "DUPONT", "PostalCode": "18641", "State": "PA"}, {"AddressLine1": "924 W GODFREY AV     APT E", "City": " PHILADELPHIA", "PostalCode": "19141", "State": "PA"}, {"AddressLine1": "213 Coral St", "City": "LANCASTER", "PostalCode": "17603", "State": "PA"}, {"AddressLine1": "767 DEERWOOD LN, RR-4", "City": "QUAKERTOWN", "PostalCode": "18951", "State": "PA"}, {"AddressLine1": "12 PANORAMA CIR", "City": "KUNKLETOWN", "PostalCode": "18058", "State": "PA"}, {"AddressLine1": "520 Glenwyn Dr", "City": "LITTLESTOWN", "PostalCode": "17340", "State": "PA"}, {"AddressLine1": "3035 Amy Dr", "City": "SOUTH PARK", "PostalCode": "15129", "State": "PA"}, {"AddressLine1": "238 Watters Station Rd", "City": "EVANS CITY", "PostalCode": "16033", "State": "PA"}, {"AddressLine1": "4485 State Route 18", "City": "NEW CASTLE", "PostalCode": "16102", "State": "PA"}, {"AddressLine1": "589 Rattlin Run Rd", "City": "RINGTOWN", "PostalCode": "17967", "State": "PA"}, {"AddressLine1": "512 FOX HOLLOW RD, HOUSE", "City": "TURBOTVILLE", "PostalCode": "17772", "State": "PA"}, {"AddressLine1": "2316 N Lawrence St", "City": " PHILADELPHIA", "PostalCode": "19133", "State": "PA"}, {"AddressLine1": "231 SPENCER AVENUE", "City": "LEOLA", "PostalCode": "17540", "State": "PA"}, {"AddressLine1": "1048 Hearthstone Way", "City": "LEWISBURG", "PostalCode": "17837", "State": "PA"}, {"AddressLine1": "FL 1ST     168 W TABOR RD", "City": " PHILADELPHIA", "PostalCode": "19120", "State": "PA"}, {"AddressLine1": "1190 Grange Rd Trlr A7", "City": "ALLENTOWN", "PostalCode": "18106", "State": "PA"}, {"AddressLine1": "164 N Harrity Rd", "City": "PALMERTON", "PostalCode": "18071", "State": "PA"}, {"AddressLine1": "512 Ridgeview Dr", "City": "BARTONSVILLE", "PostalCode": "18321", "State": "PA"}, {"AddressLine1": "1005 Bedillion Rd", "City": " WASHINGTON", "PostalCode": "15301", "State": "PA"}, {"AddressLine1": "6506 Vandike St", "City": "PHILADELPHIA", "PostalCode": "19135", "State": "PA"}, {"AddressLine1": "1109 Bells Hl", "City": "LANDISBURG", "PostalCode": "17040", "State": "PA"}, {"AddressLine1": "103 Hershey Rd", "City": "HALIFAX", "PostalCode": "17032", "State": "PA"}, {"AddressLine1": "443 Hilltop Cir", "City": "ELIZABETHTOWN", "PostalCode": "17022", "State": "PA"}, {"AddressLine1": "1370 Cambell Way", "City": "TOBYHANNA", "PostalCode": "18466", "State": "PA"}, {"AddressLine1": "175 W Main St", "City": "NORTH EAST", "PostalCode": "16428", "State": "PA"}, {"AddressLine1": "450 Schupp Dr", "City": "LUCINDA", "PostalCode": "16235", "State": "PA"}, {"AddressLine1": "1551 W Leesport Rd", "City": "LEESPORT", "PostalCode": "19533", "State": "PA"}, {"AddressLine1": "280 Gearhart Rd", "City": "PULASKI", "PostalCode": "16143", "State": "PA"}, {"AddressLine1": "174 Harvey Rd", "City": "SARVER", "PostalCode": "16055", "State": "PA"}, {"AddressLine1": "133 MAIN ST", "City": "RICES LANDING", "PostalCode": "15357", "State": "PA"}, {"AddressLine1": "743 Pine Valley Dr", "City": "PITTSBURGH", "PostalCode": "15239", "State": "PA"}, {"AddressLine1": "403 GEORGETOWN RD", "City": "MECHANICSBURG", "PostalCode": "17050", "State": "PA"}, {"AddressLine1": "APT E11     1801 WINCHESTER AVE", "City": " PHILADELPHIA", "PostalCode": "19115", "State": "PA"}, {"AddressLine1": "400 LISA DR", "City": "WEST MIFFLIN", "PostalCode": "15122", "State": "PA"}, {"AddressLine1": "109 LOWER MIDDLE CREEK RD", "City": "KUNKLETOWN", "PostalCode": "18058", "State": "PA"}, {"AddressLine1": "5776 Catherine St", "City": "HARRISBURG", "PostalCode": "17112", "State": "PA"}, {"AddressLine1": "289 Frieden Mnr", "City": "SCHUYLKILL HAVEN", "PostalCode": "17972", "State": "PA"}, {"AddressLine1": "2 Pine St", "City": "MCADOO", "PostalCode": "18237", "State": "PA"}, {"AddressLine1": "3001 21st Ave", "City": "BEAVER FALLS", "PostalCode": "15010", "State": "PA"}, {"AddressLine1": "83 McLean St", "City": "WILKES BARRE", "PostalCode": "18702", "State": "PA"}, {"AddressLine1": "5 CONNELL STREET", "City": "OLD FORGE", "PostalCode": "18518", "State": "PA"}, {"AddressLine1": "180 Adams Park Rd", "City": "SHAMOKIN", "PostalCode": "17872", "State": "PA"}, {"AddressLine1": "502 BOSTON CT", "City": "MECHANICSBURG", "PostalCode": "17050", "State": "PA"}, {"AddressLine1": "471 Huckleberry Ln", "City": "TOBYHANNA", "PostalCode": "18466", "State": "PA"}, {"AddressLine1": "580 Shippensburg Rd", "City": "NEWVILLE", "PostalCode": "17241", "State": "PA"}, {"AddressLine1": "357 Main St", "City": "DENVER", "PostalCode": "17517", "State": "PA"}, {"AddressLine1": "3270 BINGEN RD", "City": "BETHLEHEM", "PostalCode": "18015", "State": "PA"}, {"AddressLine1": "678 Stock Farm Rd", "City": "LAKE ARIEL", "PostalCode": "18436", "State": "PA"}, {"AddressLine1": "887 Flemington St", "City": "PITTSBURGH", "PostalCode": "15217", "State": "PA"}, {"AddressLine1": "824 N Lincoln Ave", "City": "SCRANTON", "PostalCode": "18504", "State": "PA"}, {"AddressLine1": "1831 WALNUT ST", "City": "CARNEGIE", "PostalCode": "15106", "State": "PA"}, {"AddressLine1": "290 Red Shale Ln", "City": "LEWISTOWN", "PostalCode": "17044", "State": "PA"}, {"AddressLine1": "716 Braddock Ct", "City": "MARS", "PostalCode": "16046", "State": "PA"}, {"AddressLine1": "704 Broodway Ave", "City": "NEW CASTLE", "PostalCode": "16101", "State": "PA"}, {"AddressLine1": "1035 Knox Ave", "City": "MONESSEN", "PostalCode": "15062", "State": "PA"}, {"AddressLine1": "400 11TH ST", "City": "NEW KENSINGTON", "PostalCode": "15068", "State": "PA"}, {"AddressLine1": "208 Karen Dr", "City": "APOLLO", "PostalCode": "15613", "State": "PA"}, {"AddressLine1": "357 N Summit Rd", "City": "JAMESTOWN", "PostalCode": "16134", "State": "PA"}, {"AddressLine1": "535 Locust St", "City": "LEECHBURG", "PostalCode": "15656", "State": "PA"}, {"AddressLine1": "1841 LEEDUM LN", "City": "QUAKERTOWN", "PostalCode": "18951", "State": "PA"}, {"AddressLine1": "535 N 64th St", "City": " PHILADELPHIA", "PostalCode": "19151", "State": "PA"}, {"AddressLine1": "UNIT 2     24 N LINDENWOOD ST", "City": " PHILADELPHIA", "PostalCode": "19139", "State": "PA"}, {"AddressLine1": "1242 Wilson Ave", "City": "LANCASTER", "PostalCode": "17603", "State": "PA"}, {"AddressLine1": "37 W Cottage Ave", "City": "MILLERSVILLE", "PostalCode": "17551", "State": "PA"}, {"AddressLine1": "1322 W Central Ave", "City": "WILLIAMSPORT", "PostalCode": "17702", "State": "PA"}, {"AddressLine1": "42 CHURCH ST APT 1", "City": "PITTSTON", "PostalCode": "18640", "State": "PA"}, {"AddressLine1": "6659 Saltsburg Rd", "City": "PITTSBURGH", "PostalCode": "15235", "State": "PA"}, {"AddressLine1": "213 Geneva Dr", "City": "ALIQUIPPA", "PostalCode": "15001", "State": "PA"}, {"AddressLine1": "80 High Ridge Rd", "City": "FOREST CITY", "PostalCode": "18421", "State": "PA"}, {"AddressLine1": "408 W MAIN ST", "City": "SHEFFIELD", "PostalCode": "16347", "State": "PA"}, {"AddressLine1": "1001 WILLOW ST", "City": "LEBANON", "PostalCode": "17046", "State": "PA"}, {"AddressLine1": "654 State St", "City": "MERTZTOWN", "PostalCode": "19539", "State": "PA"}, {"AddressLine1": "6475 Centre Ave", "City": "PITTSBURGH", "PostalCode": "15206", "State": "PA"}, {"AddressLine1": "2802 Avon Ave", "City": "READING", "PostalCode": "19608", "State": "PA"}, {"AddressLine1": "1198 6th St", "City": "BEAVER", "PostalCode": "15009", "State": "PA"}, {"AddressLine1": "429 Engle Rd", "City": "INDUSTRY", "PostalCode": "15052", "State": "PA"}, {"AddressLine1": "3220 Mosser Dr", "City": "ALLENTOWN", "PostalCode": "18103", "State": "PA"}, {"AddressLine1": "3715 ELDER RD", "City": "HARRISBURG", "PostalCode": "17111", "State": "PA"}, {"AddressLine1": "465 GLENDA DR", "City": "BEAVER FALLS", "PostalCode": "15010", "State": "PA"}, {"AddressLine1": "12064 CENTER ST", "City": "NORTH HUNTINGDON", "PostalCode": "15642", "State": "PA"}, {"AddressLine1": "5 Monmouth Dr", "City": "CRANBERRY TWP", "PostalCode": "16066", "State": "PA"}, {"AddressLine1": "474 GEARHART RD", "City": "MUNCY", "PostalCode": "17756", "State": "PA"}, {"AddressLine1": "627 Walnut St", "City": "COLUMBIA", "PostalCode": "17512", "State": "PA"}, {"AddressLine1": "1011 S IRVING AVE REAR, .", "City": "SCRANTON", "PostalCode": "18505", "State": "PA"}, {"AddressLine1": "467 Woodland Rd", "City": "PITTSBURGH", "PostalCode": "15237", "State": "PA"}, {"AddressLine1": "114 Shawnee Rd", "City": "SHOHOLA", "PostalCode": "18458", "State": "PA"}, {"AddressLine1": "118 Falling Brook Dr.", "City": "HAWLEY", "PostalCode": "18428", "State": "PA"}, {"AddressLine1": "171 W North St", "City": "CARLISLE", "PostalCode": "17013", "State": "PA"}, {"AddressLine1": "520 SHADY RD", "City": "KIRKWOOD", "PostalCode": "17536", "State": "PA"}, {"AddressLine1": "212 SUMMERFIELD DR", "City": "BADEN", "PostalCode": "15005", "State": "PA"}, {"AddressLine1": "130 11th St", "City": "NORTHUMBERLAND", "PostalCode": "17857", "State": "PA"}, {"AddressLine1": "860 Camp Hebron Rd", "City": "HALIFAX", "PostalCode": "17032", "State": "PA"}, {"AddressLine1": "649 Lawrence St", "City": "OLD FORGE", "PostalCode": "18518", "State": "PA"}, {"AddressLine1": "122 E Locust St", "City": "MECHANICSBURG", "PostalCode": "17055", "State": "PA"}, {"AddressLine1": "3102 WESTWOOD ESTATES DR", "City": "ERIE", "PostalCode": "16506", "State": "PA"}, {"AddressLine1": "16 Walker Rd", "City": "OLEY", "PostalCode": "19547", "State": "PA"}, {"AddressLine1": "5119 US HIGHWAY 322", "City": "JAMESTOWN", "PostalCode": "16134", "State": "PA"}, {"AddressLine1": "51 Falcon Cir", "City": "LEBANON", "PostalCode": "17042", "State": "PA"}, {"AddressLine1": "3069 Main St", "City": "WEST MIDDLESEX", "PostalCode": "16159", "State": "PA"}, {"AddressLine1": "6652 Library Rd", "City": "SOUTH PARK", "PostalCode": "15129", "State": "PA"}, {"AddressLine1": "145 Nadine Blvd", "City": "POCONO SUMMIT", "PostalCode": "18346", "State": "PA"}, {"AddressLine1": "6295 Whitetail Dr", "City": "COOPERSBURG", "PostalCode": "18036", "State": "PA"}, {"AddressLine1": "4229 N Reese St", "City": "PHILADELPHIA", "PostalCode": "19140", "State": "PA"}, {"AddressLine1": "125 WEIDLER LA", "City": "LITITZ", "PostalCode": "17543", "State": "PA"}, {"AddressLine1": "241 Nadine Blvd", "City": "POCONO SUMMIT", "PostalCode": "18346", "State": "PA"}, {"AddressLine1": "393 W PALETOWN RD", "City": "QUAKERTOWN", "PostalCode": "18951", "State": "PA"}, {"AddressLine1": "214 Copeland St", "City": "MCKEES ROCKS", "PostalCode": "15136", "State": "PA"}, {"AddressLine1": "223 Baker Hill Rd", "City": "DAMASCUS", "PostalCode": "18415", "State": "PA"}, {"AddressLine1": "4530 LONDONDERRY RDAPT A121", "City": "HARRISBURG", "PostalCode": "17109", "State": "PA"}, {"AddressLine1": "219 2nd St", "City": "WERNERSVILLE", "PostalCode": "19565", "State": "PA"}, {"AddressLine1": "107 English Ivy Ct", "City": "LONG POND", "PostalCode": "18334", "State": "PA"}, {"AddressLine1": "200 MCELHATTAN AVE", "City": "LOCK HAVEN", "PostalCode": "17745", "State": "PA"}, {"AddressLine1": "61 Lee Ave", "City": "MOUNTAIN TOP", "PostalCode": "18707", "State": "PA"}, {"AddressLine1": "6907 Penn Ave", "City": "PITTSBURGH", "PostalCode": "15208", "State": "PA"}, {"AddressLine1": "37 S 6TH AV     APT 7", "City": "COATESVILLE", "PostalCode": "19320", "State": "PA"}, {"AddressLine1": "2065 Trolley Bridge Rd", "City": "QUAKERTOWN", "PostalCode": "18951", "State": "PA"}, {"AddressLine1": "208 Merrimac St", "City": "PITTSBURGH", "PostalCode": "15211", "State": "PA"}, {"AddressLine1": "2723 Housels Run Rd", "City": "MILTON", "PostalCode": "17847", "State": "PA"}, {"AddressLine1": "15 SILVERCREEK RD", "City": "NEW PHILADELPHIA", "PostalCode": "17959", "State": "PA"}, {"AddressLine1": "3306 JONAGOLD DR LOT 72", "City": "HARRISBURG", "PostalCode": "17110", "State": "PA"}, {"AddressLine1": "114 SANDY BEACH LN", "City": "ALIQUIPPA", "PostalCode": "15001", "State": "PA"}, {"AddressLine1": "979 Quaker Hill Rd", "City": "WARREN", "PostalCode": "16365", "State": "PA"}, {"AddressLine1": "233 Stoup Rd", "City": "MARS", "PostalCode": "16046", "State": "PA"}, {"AddressLine1": "3466 Carmela Dr", "City": "NEW CASTLE", "PostalCode": "16105", "State": "PA"}, {"AddressLine1": "350 N Darby Rd", "City": "HERMITAGE", "PostalCode": "16148", "State": "PA"}, {"AddressLine1": "12680 Ridge Rd", "City": "WEST SPRINGFIELD", "PostalCode": "16443", "State": "PA"}, {"AddressLine1": "112 Saint Marys St", "City": "BUTLER", "PostalCode": "16001", "State": "PA"}, {"AddressLine1": "128 E Edgewood Dr", "City": "MC MURRAY", "PostalCode": "15317", "State": "PA"}, {"AddressLine1": "1543 FORT ROBINSON RD", "City": "LOYSVILLE", "PostalCode": "17047", "State": "PA"}, {"AddressLine1": "106 W VINE ST", "City": "SHIREMANSTOWN", "PostalCode": "17011", "State": "PA"}, {"AddressLine1": "1414 E SUSQUEHANNA L21", "City": "ALLENTOWN", "PostalCode": "18103", "State": "PA"}, {"AddressLine1": "426 Reynolds Ave", "City": "LANCASTER", "PostalCode": "17602", "State": "PA"}, {"AddressLine1": "2906 KLEIN ST", "City": "ALLENTOWN", "PostalCode": "18103", "State": "PA"}, {"AddressLine1": "624 N LIME ST 2FR", "City": "LANCASTER", "PostalCode": "17602", "State": "PA"}, {"AddressLine1": "154 Hanover St", "City": "NORTHUMBERLAND", "PostalCode": "17857", "State": "PA"}, {"AddressLine1": "1805 Squire Ct", "City": "READING", "PostalCode": "19610", "State": "PA"}, {"AddressLine1": "12 Frank Way", "City": "SCRANTON", "PostalCode": "18504", "State": "PA"}, {"AddressLine1": "1561 E TULPEHOCKEN ST     1ST 2ND", "City": " PHILADELPHIA", "PostalCode": "19138", "State": "PA"}, {"AddressLine1": "158 Gemini Ln", "City": "MONTOURSVILLE", "PostalCode": "17754", "State": "PA"}, {"AddressLine1": "1318 E Howell St Apt B", "City": "PHILADELPHIA", "PostalCode": "19149", "State": "PA"}, {"AddressLine1": "1050 Sparrow Way", "City": "BREINIGSVILLE", "PostalCode": "18031", "State": "PA"}, {"AddressLine1": "FL 2ND     2825 W ALLEGHENY AVE", "City": " PHILADELPHIA", "PostalCode": "19132", "State": "PA"}, {"AddressLine1": "63 E 6th St", "City": "BLOOMSBURG", "PostalCode": "17815", "State": "PA"}, {"AddressLine1": "950 LINCOLN ST REAR", "City": "DICKSON CITY", "PostalCode": "18519", "State": "PA"}, {"AddressLine1": "133 ELM ST", "City": "CARLISLE", "PostalCode": "17013", "State": "PA"}, {"AddressLine1": "252 S COLLEGE ST", "City": "CARLISLE", "PostalCode": "17013", "State": "PA"}, {"AddressLine1": "3418 Stag Ln", "City": "TOBYHANNA", "PostalCode": "18466", "State": "PA"}, {"AddressLine1": "4118 Danor Dr", "City": "READING", "PostalCode": "19605", "State": "PA"}, {"AddressLine1": "126 Hawthorne Dr", "City": "MILFORD", "PostalCode": "18337", "State": "PA"}, {"AddressLine1": "6600 Harmony Grove Rd", "City": "DOVER", "PostalCode": "17315", "State": "PA"}, {"AddressLine1": "79 ROSE HILL RD", "City": "LAKE COMO", "PostalCode": "18437", "State": "PA"}, {"AddressLine1": "33 Dogwood Dr", "City": "WASHINGTON", "PostalCode": "15301", "State": "PA"}, {"AddressLine1": "112 Easy St", "City": "CRESSON", "PostalCode": "16630", "State": "PA"}, {"AddressLine1": "1543 FORT ROBINSON RD,STAFF & UPPER BUNK", "City": "LOYSVILLE", "PostalCode": "17047", "State": "PA"}, {"AddressLine1": "636 S Linden Ave", "City": "PITTSBURGH", "PostalCode": "15208", "State": "PA"}, {"AddressLine1": "44 E NORTH ST", "City": "CARLISLE", "PostalCode": "17013", "State": "PA"}, {"AddressLine1": "5930 FAITH CIRCLE", "City": "HARRISBURG", "PostalCode": "17112", "State": "PA"}, {"AddressLine1": "3800 KENTON LN", "City": "HARRISBURG", "PostalCode": "17110", "State": "PA"}, {"AddressLine1": "726 Gault Rd", "City": "NARVON", "PostalCode": "17555", "State": "PA"}, {"AddressLine1": "7 Kengrey Dr", "City": "CARLISLE", "PostalCode": "17013", "State": "PA"}, {"AddressLine1": "428 HUMMEL ST, 2FL", "City": "HARRISBURG", "PostalCode": "17104", "State": "PA"}, {"AddressLine1": "1543 FORT ROBINSON RD,LOWER BUNK", "City": "LOYSVILLE", "PostalCode": "17047", "State": "PA"}, {"AddressLine1": "1726 Wright St", "City": "PITTSBURGH", "PostalCode": "15221", "State": "PA"}, {"AddressLine1": "22 Bonnywick Dr", "City": "HARRISBURG", "PostalCode": "17111", "State": "PA"}, {"AddressLine1": "611 Edgewood Rd", "City": "PITTSBURGH", "PostalCode": "15221", "State": "PA"}, {"AddressLine1": "522 River St Apt 4", "City": "SCRANTON", "PostalCode": "18505", "State": "PA"}, {"AddressLine1": "167 Grandview Ave", "City": "MONACA", "PostalCode": "15061", "State": "PA"}, {"AddressLine1": "109 Terrace St", "City": "NORTHUMBERLAND", "PostalCode": "17857", "State": "PA"}, {"AddressLine1": "1731 Mountain Rd", "City": "DAUPHIN", "PostalCode": "17018", "State": "PA"}, {"AddressLine1": "200 E POMFRET ST", "City": "CARLISLE", "PostalCode": "17013", "State": "PA"}, {"AddressLine1": "PO Box 207", "City": "BEAVERTOWN", "PostalCode": "17813", "State": "PA"}, {"AddressLine1": "414 TOUCHSTONE DR", "City": "CARLISLE", "PostalCode": "17015", "State": "PA"}, {"AddressLine1": "2 RUSH DR APT 306", "City": "CARLISLE", "PostalCode": "17013", "State": "PA"}, {"AddressLine1": "203 E POMFRET ST", "City": "CARLISLE", "PostalCode": "17013", "State": "PA"}, {"AddressLine1": "1709 Old Leechburg Rd", "City": "NEW KENSINGTON", "PostalCode": "15068", "State": "PA"}, {"AddressLine1": "923 Broadway", "City": "BETHLEHEM", "PostalCode": "18015", "State": "PA"}, {"AddressLine1": "435 5th St", "City": "WHITEHALL", "PostalCode": "18052", "State": "PA"}, {"AddressLine1": "407 Yellow Creek Rd", "City": "HARMONY", "PostalCode": "16037", "State": "PA"}, {"AddressLine1": "118 Preserve Valley Rd", "City": "CRANBERRY TOWNSHIP", "PostalCode": "16066", "State": "PA"}, {"AddressLine1": "411 Old Philadelphia Pike", "City": "DOUGLASSVILLE", "PostalCode": "19518", "State": "PA"}, {"AddressLine1": "128 W 4th St", "City": "LEWISTOWN", "PostalCode": "17044", "State": "PA"}, {"AddressLine1": "464 E Main St", "City": "BLAIN", "PostalCode": "17006", "State": "PA"}, {"AddressLine1": "11 Daily Ave", "City": "CHARLEROI", "PostalCode": "15022", "State": "PA"}, {"AddressLine1": "90 Hart St", "City": "HOUSTON", "PostalCode": "15342", "State": "PA"}, {"AddressLine1": "430 Hunting Creek Rd", "City": "CANONSBURG", "PostalCode": "15317", "State": "PA"}, {"AddressLine1": "2058 Maple Ave Apt H1-2", "City": "HATFIELD", "PostalCode": "19440", "State": "PA"}, {"AddressLine1": "5220 N Marshall St", "City": " PHILADELPHIA", "PostalCode": "19120", "State": "PA"}, {"AddressLine1": "2281 Dubonnet Dr", "City": "MACUNGIE", "PostalCode": "18062", "State": "PA"}, {"AddressLine1": "4511 Unruh Ave", "City": " PHILADELPHIA", "PostalCode": "19135", "State": "PA"}, {"AddressLine1": "204 Chestnut St", "City": "PORT CARBON", "PostalCode": "17965", "State": "PA"}, {"AddressLine1": "516 OLYMPIA PARK PLZ APT D", "City": "MCKEESPORT", "PostalCode": "15132", "State": "PA"}, {"AddressLine1": "902 WYOMING ST", "City": "ALLENTOWN", "PostalCode": "18103", "State": "PA"}, {"AddressLine1": "1181 Edgemoor Ct", "City": "LANCASTER", "PostalCode": "17601", "State": "PA"}, {"AddressLine1": "26 Ridge Rd", "City": "LITITZ", "PostalCode": "17543", "State": "PA"}, {"AddressLine1": "55 Bloomfield Dr", "City": "EPHRATA", "PostalCode": "17522", "State": "PA"}, {"AddressLine1": "88 hugo dr", "City": "ALBRIGHTSVILLE", "PostalCode": "18210", "State": "PA"}, {"AddressLine1": "1515 Livingston St", "City": "BETHLEHEM", "PostalCode": "18017", "State": "PA"}, {"AddressLine1": "243 Yeager Rd", "City": "CLARKS MILLS", "PostalCode": "16114", "State": "PA"}, {"AddressLine1": "689 BARNESVILLE DR", "City": "BARNESVILLE", "PostalCode": "18214", "State": "PA"}, {"AddressLine1": "8009 Thouron Ave", "City": " PHILADELPHIA", "PostalCode": "19150", "State": "PA"}, {"AddressLine1": "916 Hamil Rd", "City": "VERONA", "PostalCode": "15147", "State": "PA"}, {"AddressLine1": "124 Mountain Top Rd", "City": "WERNERSVILLE", "PostalCode": "19565", "State": "PA"}, {"AddressLine1": "610 Jenny Lynn Ct", "City": "PITTSBURGH", "PostalCode": "15239", "State": "PA"}, {"AddressLine1": "53 Iroquois Dr", "City": "PITTSBURGH", "PostalCode": "15228", "State": "PA"}, {"AddressLine1": "6264 VENTURE CT UNIT 27", "City": "SLATINGTON", "PostalCode": "18080", "State": "PA"}, {"AddressLine1": "206 Orono Dr", "City": "POCONO LAKE", "PostalCode": "18347", "State": "PA"}, {"AddressLine1": "16 Twilight Ln", "City": "CATAWISSA", "PostalCode": "17820", "State": "PA"}, {"AddressLine1": "FL 1ST     7213 HAVERFORD AVE", "City": " PHILADELPHIA", "PostalCode": "19151", "State": "PA"}, {"AddressLine1": "303 McMasters Dr", "City": "MONROEVILLE", "PostalCode": "15146", "State": "PA"}, {"AddressLine1": "184 Crest St", "City": "BARNESVILLE", "PostalCode": "18214", "State": "PA"}, {"AddressLine1": "5109 Caste Dr", "City": "PITTSBURGH", "PostalCode": "15236", "State": "PA"}, {"AddressLine1": "305 Orchard Dr", "City": "CRANBERRY TOWNSHIP", "PostalCode": "16066", "State": "PA"}, {"AddressLine1": "258 Oak St", "City": "WIND GAP", "PostalCode": "18091", "State": "PA"}, {"AddressLine1": "612 Stambaugh Ave", "City": "SHARON", "PostalCode": "16146", "State": "PA"}, {"AddressLine1": "1619 Millers Run Rd", "City": "MC DONALD", "PostalCode": "15057", "State": "PA"}, {"AddressLine1": "5445 GREENVILLAGE RD", "City": "CHAMBERSBURG", "PostalCode": "17202", "State": "PA"}, {"AddressLine1": "1350 E Cherry St", "City": "PALMYRA", "PostalCode": "17078", "State": "PA"}, {"AddressLine1": "272 Wyalusing Dr", "City": "POCONO LAKE", "PostalCode": "18347", "State": "PA"}, {"AddressLine1": "2203 Deerfield Way", "City": "SCOTRUN", "PostalCode": "18355", "State": "PA"}, {"AddressLine1": "905 E CAMPBELL LA", "City": "WYNDMOOR", "PostalCode": "19038", "State": "PA"}, {"AddressLine1": "124 Grammer Rd", "City": "WILLIAMSPORT", "PostalCode": "17701", "State": "PA"}, {"AddressLine1": "1361 FOXCROFT DR", "City": "LANCASTER", "PostalCode": "17601", "State": "PA"}, {"AddressLine1": "796 MOHN ST APT A", "City": "STEELTON", "PostalCode": "17113", "State": "PA"}, {"AddressLine1": "117 Weaver Rd", "City": "LANCASTER", "PostalCode": "17603", "State": "PA"}, {"AddressLine1": "425 Canoebrook Dr", "City": "HAWLEY", "PostalCode": "18428", "State": "PA"}, {"AddressLine1": "6 Woodlyn Ct", "City": "LANCASTER", "PostalCode": "17602", "State": "PA"}, {"AddressLine1": "174 Janet Dr", "City": "ASHLEY", "PostalCode": "18706", "State": "PA"}, {"AddressLine1": "58 Briargate Pl", "City": "MILLERSVILLE", "PostalCode": "17551", "State": "PA"}, {"AddressLine1": "607 Centerville Rd", "City": "LANCASTER", "PostalCode": "17601", "State": "PA"}, {"AddressLine1": "1027 OLD FORGE XING,     KING-345", "City": "DEVON", "PostalCode": "19333", "State": "PA"}, {"AddressLine1": "211 RIDGEHILL RD", "City": "MECHANICSBURG", "PostalCode": "17050", "State": "PA"}, {"AddressLine1": "112 MAPLE RIDGE DR", "City": "HAWLEY", "PostalCode": "18428", "State": "PA"}, {"AddressLine1": "101 S BROAD ST APT 3, 3FL", "City": "LITITZ", "PostalCode": "17543", "State": "PA"}, {"AddressLine1": "112 BARTLESON DEER TRL", "City": "GREENTOWN", "PostalCode": "18426", "State": "PA"}, {"AddressLine1": "9449 Route 18", "City": "CRANESVILLE", "PostalCode": "16410", "State": "PA"}, {"AddressLine1": "651 Arrowhead Lake Rd", "City": "BRACKNEY", "PostalCode": "18812", "State": "PA"}, {"AddressLine1": "221 E 21st Ave", "City": "ALTOONA", "PostalCode": "16601", "State": "PA"}, {"AddressLine1": "5121 Adamsville Rd", "City": "JAMESTOWN", "PostalCode": "16134", "State": "PA"}, {"AddressLine1": "5261 Ralston Rd", "City": "JAMESTOWN", "PostalCode": "16134", "State": "PA"}, {"AddressLine1": "2288 Powell Rd", "City": "CRANBERRY TWP", "PostalCode": "16066", "State": "PA"}, {"AddressLine1": "9833 Old 22", "City": "BREINIGSVILLE", "PostalCode": "18031", "State": "PA"}, {"AddressLine1": "427 OAK ST", "City": "SAINT MARYS", "PostalCode": "15857", "State": "PA"}, {"AddressLine1": "1339 Country Club Rd", "City": "MONONGAHELA", "PostalCode": "15063", "State": "PA"}, {"AddressLine1": "5712 Stockbridge Ct", "City": "MC DONALD", "PostalCode": "15057", "State": "PA"}, {"AddressLine1": "23 Route 21 Mhp", "City": "CARMICHAELS", "PostalCode": "15320", "State": "PA"}, {"AddressLine1": "55 Chapel Ridge Pl", "City": "PITTSBURGH", "PostalCode": "15238", "State": "PA"}, {"AddressLine1": "115 E Saucon St # 2FL", "City": "HELLERTOWN", "PostalCode": "18055", "State": "PA"}, {"AddressLine1": "508 CLERMONT DR", "City": "HARRISBURG", "PostalCode": "17112", "State": "PA"}, {"AddressLine1": "9645 Buffalo Rd", "City": "MIFFLINBURG", "PostalCode": "17844", "State": "PA"}, {"AddressLine1": "393 Scotrun Ave", "City": "SCOTRUN", "PostalCode": "18355", "State": "PA"}, {"AddressLine1": "1615 Elm St", "City": "NEW CUMBERLD", "PostalCode": "17070", "State": "PA"}, {"AddressLine1": "119 Arlene Ave", "City": "NORTH VERSAILLES", "PostalCode": "15137", "State": "PA"}, {"AddressLine1": "3 LAKESHORE RD", "City": "SPRING BROOK TWP", "PostalCode": "18444", "State": "PA"}, {"AddressLine1": "215 BRIDGE ST", "City": "JESSUP", "PostalCode": "18434", "State": "PA"}, {"AddressLine1": "618 Deana Way", "City": "ROCHESTER", "PostalCode": "15074", "State": "PA"}, {"AddressLine1": "537 Shoemaker Ave", "City": "SHOEMAKERSVILLE", "PostalCode": "19555", "State": "PA"}, {"AddressLine1": "9052 Audubon Dr", "City": "GIBSONIA", "PostalCode": "15044", "State": "PA"}, {"AddressLine1": "3975 Park Ave", "City": "PROSPERITY", "PostalCode": "15329", "State": "PA"}, {"AddressLine1": "420 Ridge Rd", "City": "ORWIGSBURG", "PostalCode": "17961", "State": "PA"}, {"AddressLine1": "1806 W Main St", "City": "STROUDSBURG", "PostalCode": "18360", "State": "PA"}, {"AddressLine1": "1405 E Broad St", "City": "HAZLETON", "PostalCode": "18201", "State": "PA"}, {"AddressLine1": "217 Roberta Ave", "City": "COLLINGDALE", "PostalCode": "19023", "State": "PA"}, {"AddressLine1": "575 Red Rock Rd", "City": "CRESCO", "PostalCode": "18326", "State": "PA"}, {"AddressLine1": "609 Walnut St", "City": "FREELAND", "PostalCode": "18224", "State": "PA"}, {"AddressLine1": "315 Morgan Ave", "City": "POTTSVILLE", "PostalCode": "17901", "State": "PA"}, {"AddressLine1": "537 Peacock St", "City": "POTTSVILLE", "PostalCode": "17901", "State": "PA"}, {"AddressLine1": "3140 Whitehall Ave", "City": "BETHLEHEM", "PostalCode": "18020", "State": "PA"}, {"AddressLine1": "109 Diller Rd", "City": "NEW CUMBERLAND", "PostalCode": "17070", "State": "PA"}, {"AddressLine1": "17 LEXI RD", "City": "DANVILLE", "PostalCode": "17821", "State": "PA"}, {"AddressLine1": "2419 N 16th St", "City": " PHILADELPHIA", "PostalCode": "19132", "State": "PA"}]
