[{"AddressLine1": "31 Hartley Ln", "City": "BASKING RIDGE", "PostalCode": "07920", "State": "NJ"}, {"AddressLine1": "20 Lenape Ln", "City": "COLTS NECK", "PostalCode": "07722", "State": "NJ"}, {"AddressLine1": "6 Dancer Dr", "City": "BUDD LAKE", "PostalCode": "07828", "State": "NJ"}, {"AddressLine1": "105 Anthony Ave", "City": "TOMS RIVER", "PostalCode": "08753", "State": "NJ"}, {"AddressLine1": "5 Farber Hill Rd", "City": "BOONTON", "PostalCode": "07005", "State": "NJ"}, {"AddressLine1": "31 Pippins Way", "City": "MORRISTOWN", "PostalCode": "07960", "State": "NJ"}, {"AddressLine1": "972 SIGSBEE AVEXST WEST BLVD", "City": "ALPHA", "PostalCode": "08865", "State": "NJ"}, {"AddressLine1": "RAMSHORN AT WALL1571 HORSESHOE DR", "City": "MANASQUAN", "PostalCode": "08736", "State": "NJ"}, {"AddressLine1": "53 STONEHENGE DRXST: WILSHIRE & ENGLISH", "City": "LINCROFT", "PostalCode": "07738", "State": "NJ"}, {"AddressLine1": "45 Harvard Rd", "City": "PARLIN", "PostalCode": "08859", "State": "NJ"}, {"AddressLine1": "WHITE MEADOW LK56 SEMINOLE AVE", "City": "ROCKAWAY", "PostalCode": "07866", "State": "NJ"}, {"AddressLine1": "305 FRANCIS DR", "City": "LAFAYETTE", "PostalCode": "07848", "State": "NJ"}, {"AddressLine1": "42 FEATHERBED LNNEAR XST: OLD CROTON RD", "City": "FLEMINGTON", "PostalCode": "08822", "State": "NJ"}, {"AddressLine1": "21 Hope Ln", "City": "LONG BRANCH", "PostalCode": "07740", "State": "NJ"}, {"AddressLine1": "82 WOODSIDE DRXST RT 35", "City": "RED BANK", "PostalCode": "07701", "State": "NJ"}, {"AddressLine1": "221 Garfield Ave", "City": "AVON BY THE SEA", "PostalCode": "07717", "State": "NJ"}, {"AddressLine1": "18 Judith Way", "City": "JACKSON", "PostalCode": "08527", "State": "NJ"}, {"AddressLine1": "3 Laysbeth Ct", "City": "OLD BRIDGE", "PostalCode": "08857", "State": "NJ"}, {"AddressLine1": "575 11th Ave", "City": "PATERSON", "PostalCode": "07514", "State": "NJ"}, {"AddressLine1": "MARLBORO EST79 WYNCREST RD", "City": "MARLBORO", "PostalCode": "07746", "State": "NJ"}, {"AddressLine1": "37 CARLOW WAYXST CRESCI BLVD", "City": "HAZLET", "PostalCode": "07730", "State": "NJ"}, {"AddressLine1": "PO Box 163", "City": "FLEMINGTON", "PostalCode": "08822", "State": "NJ"}, {"AddressLine1": "265 Chandler Rd", "City": "JACKSON", "PostalCode": "08527", "State": "NJ"}, {"AddressLine1": "602 Stonewall Ct", "City": "WYCKOFF", "PostalCode": "07481", "State": "NJ"}, {"AddressLine1": "51 Hunters Ln", "City": "SPARTA", "PostalCode": "07871", "State": "NJ"}, {"AddressLine1": "67 Wichser Ln", "City": "WARREN", "PostalCode": "07059", "State": "NJ"}, {"AddressLine1": "LA MER28 FELA DR", "City": "PARLIN", "PostalCode": "08859", "State": "NJ"}, {"AddressLine1": "618 WAYSIDE RDX ST W/BANGS & PALMER", "City": "NEPTUNE", "PostalCode": "07753", "State": "NJ"}, {"AddressLine1": "19 Park St", "City": "TOMS RIVER", "PostalCode": "08753", "State": "NJ"}, {"AddressLine1": "22 PHEASANT DRXST RT 9, LOON PL C1972", "City": "BAYVILLE", "PostalCode": "08721", "State": "NJ"}, {"AddressLine1": "8 STERLING AVEXST DEAN", "City": "MENDHAM", "PostalCode": "07945", "State": "NJ"}, {"AddressLine1": "130 Lazarus Dr", "City": "LEDGEWOOD", "PostalCode": "07852", "State": "NJ"}, {"AddressLine1": "22 Franklin Rd", "City": "MENDHAM", "PostalCode": "07945", "State": "NJ"}, {"AddressLine1": "WESTLAKE II33 KINGS NORTH RD", "City": "JACKSON", "PostalCode": "08527", "State": "NJ"}, {"AddressLine1": "23 Cherry Ln", "City": "NEWTON", "PostalCode": "07860", "State": "NJ"}, {"AddressLine1": "243 Smith St", "City": "NEWARK", "PostalCode": "07106", "State": "NJ"}, {"AddressLine1": "213 Emerson St", "City": "WOODBURY", "PostalCode": "08096", "State": "NJ"}, {"AddressLine1": "37 Ridge Rd", "City": "RANDOLPH", "PostalCode": "07869", "State": "NJ"}, {"AddressLine1": "25 Harriman Ave", "City": "DENVILLE", "PostalCode": "07834", "State": "NJ"}, {"AddressLine1": "943 Cedar Dr", "City": "NEWTON", "PostalCode": "07860", "State": "NJ"}, {"AddressLine1": "17 Durol Dr", "City": "MONTAGUE", "PostalCode": "07827", "State": "NJ"}, {"AddressLine1": "938 Birch Dr", "City": "BRIELLE", "PostalCode": "08730", "State": "NJ"}, {"AddressLine1": "312 COOKS LN", "City": "POINT PLEASANT BEACH", "PostalCode": "08742", "State": "NJ"}, {"AddressLine1": "8 Wyoming Dr", "City": "HAZLET", "PostalCode": "07730", "State": "NJ"}, {"AddressLine1": "17 Oakwood Ter", "City": "ROCKAWAY", "PostalCode": "07866", "State": "NJ"}, {"AddressLine1": "10 Harbor Town Way", "City": "MONROE TOWNSHIP", "PostalCode": "08831", "State": "NJ"}, {"AddressLine1": "90 Narberth Way", "City": "TOMS RIVER", "PostalCode": "08757", "State": "NJ"}, {"AddressLine1": "22 Rittner Ln", "City": "OLD BRIDGE", "PostalCode": "08857", "State": "NJ"}, {"AddressLine1": "144 Liberty St", "City": "LONG BRANCH", "PostalCode": "07740", "State": "NJ"}, {"AddressLine1": "91 Springbrook Rd", "City": "LIVINGSTON", "PostalCode": "07039", "State": "NJ"}, {"AddressLine1": "433 Maple Ave", "City": "HADDON TOWNSHIP", "PostalCode": "08108", "State": "NJ"}, {"AddressLine1": "35 Calais Rd", "City": "MENDHAM", "PostalCode": "07945", "State": "NJ"}, {"AddressLine1": "34 Sheffield Rd", "City": "SUMMIT", "PostalCode": "07901", "State": "NJ"}, {"AddressLine1": "507 Fairfield Rd", "City": "EAST WINDSOR", "PostalCode": "08520", "State": "NJ"}, {"AddressLine1": "430 Grace Hill Rd", "City": "MONROE TOWNSHIP", "PostalCode": "08831", "State": "NJ"}, {"AddressLine1": "42 LENNOX AVEX ST LAKESIDE", "City": "RUMSON", "PostalCode": "07760", "State": "NJ"}, {"AddressLine1": "65 BRANCHPORT AVE", "City": "LONG BRANCH", "PostalCode": "07740", "State": "NJ"}, {"AddressLine1": "41 Grand Tour", "City": "HIGHLANDS", "PostalCode": "07732", "State": "NJ"}, {"AddressLine1": "2101 Meadowlands Ct", "City": "TOMS RIVER", "PostalCode": "08755", "State": "NJ"}, {"AddressLine1": "14 Lane Ave", "City": "PEMBERTON", "PostalCode": "08068", "State": "NJ"}, {"AddressLine1": "70 High Point Dr", "City": "SPRINGFIELD", "PostalCode": "07081", "State": "NJ"}, {"AddressLine1": "10 Valley View Ave", "City": "SUMMIT", "PostalCode": "07901", "State": "NJ"}, {"AddressLine1": "29 STATION RDXST LACKAWANNA AVE", "City": "DENVILLE", "PostalCode": "07834", "State": "NJ"}, {"AddressLine1": "16 Rochford Dr", "City": "MANCHESTER", "PostalCode": "08759", "State": "NJ"}, {"AddressLine1": "34 Scudder St Fl 2", "City": "GARFIELD", "PostalCode": "07026", "State": "NJ"}, {"AddressLine1": "31 Sylvan Lake Blvd", "City": "BAYVILLE", "PostalCode": "08721", "State": "NJ"}, {"AddressLine1": "36 Coldspring Rd", "City": "FREEHOLD", "PostalCode": "07728", "State": "NJ"}, {"AddressLine1": "3231 Bordentown Ave", "City": "PARLIN", "PostalCode": "08859", "State": "NJ"}, {"AddressLine1": "1 MAPLE DRXST RT 130", "City": "HIGHTSTOWN", "PostalCode": "08520", "State": "NJ"}, {"AddressLine1": "24 WOODLAND RDXST MONDAY", "City": "SPOTSWOOD", "PostalCode": "08884", "State": "NJ"}, {"AddressLine1": "12 MEAD PL", "City": "POMPTON PLAINS", "PostalCode": "07444", "State": "NJ"}, {"AddressLine1": "7 Kelso Pl", "City": "ENGLISHTOWN", "PostalCode": "07726", "State": "NJ"}, {"AddressLine1": "110 BUCKLEY RDX ST MOORE RD", "City": "MARLBORO", "PostalCode": "07746", "State": "NJ"}, {"AddressLine1": "5 SUNSET CTXST: DID NOT KNOW", "City": "BELVIDERE", "PostalCode": "07823", "State": "NJ"}, {"AddressLine1": "124 Radtke Rd", "City": "RANDOLPH", "PostalCode": "07869", "State": "NJ"}, {"AddressLine1": "912 ATLANTIC AVEXST: RUE & BAY", "City": "POINT PLEASANT BEACH", "PostalCode": "08742", "State": "NJ"}, {"AddressLine1": "33 Geranium St", "City": "BROWNS MILLS", "PostalCode": "08015", "State": "NJ"}, {"AddressLine1": "16 Wintons Way", "City": "MONROE TOWNSHIP", "PostalCode": "08831", "State": "NJ"}, {"AddressLine1": "20 Woodland Dr", "City": "WARREN", "PostalCode": "07059", "State": "NJ"}, {"AddressLine1": "57 Sterling St", "City": "FRANKLIN", "PostalCode": "07416", "State": "NJ"}, {"AddressLine1": "108 Howard St", "City": "IRVINGTON", "PostalCode": "07111", "State": "NJ"}, {"AddressLine1": "169 22nd St Apt 7", "City": "IRVINGTON", "PostalCode": "07111", "State": "NJ"}, {"AddressLine1": "786 18th Ave Fl 2", "City": "IRVINGTON", "PostalCode": "07111", "State": "NJ"}, {"AddressLine1": "4 Woodvale Rd", "City": "GLEN ROCK", "PostalCode": "07452", "State": "NJ"}, {"AddressLine1": "9 Princeton Rd", "City": "PARLIN", "PostalCode": "08859", "State": "NJ"}, {"AddressLine1": "29 Samantha Dr", "City": "JAMESBURG", "PostalCode": "08831", "State": "NJ"}, {"AddressLine1": "147 Jefferson Dr", "City": "OCEAN", "PostalCode": "07712", "State": "NJ"}, {"AddressLine1": "36 Cranmer Rd", "City": "BAYVILLE", "PostalCode": "08721", "State": "NJ"}, {"AddressLine1": "610 Windermere Ave", "City": "ASBURY PARK", "PostalCode": "07712", "State": "NJ"}, {"AddressLine1": "106 Chesterfield Ln", "City": "TOMS RIVER", "PostalCode": "08757", "State": "NJ"}, {"AddressLine1": "191 LIBERTA DRXST VERA CRUZ CT", "City": "TOMS RIVER", "PostalCode": "08757", "State": "NJ"}, {"AddressLine1": "1104 N 33rd St", "City": "CAMDEN", "PostalCode": "08105", "State": "NJ"}, {"AddressLine1": "18 Bush St", "City": "OXFORD", "PostalCode": "07863", "State": "NJ"}, {"AddressLine1": "2 MAGNOLIA DRXST DELAWARE RD", "City": "COLUMBIA", "PostalCode": "07832", "State": "NJ"}, {"AddressLine1": "403 Sussex St", "City": "PHILLIPSBURG", "PostalCode": "08865", "State": "NJ"}, {"AddressLine1": "300 Winchester Dr", "City": "BRICK", "PostalCode": "08724", "State": "NJ"}, {"AddressLine1": "1601 Lincoln Blvd", "City": "WHITING", "PostalCode": "08759", "State": "NJ"}, {"AddressLine1": "9 Delaware Rd", "City": "LAMBERTVILLE", "PostalCode": "08530", "State": "NJ"}, {"AddressLine1": "17 Long Bay Rd", "City": "JACKSON", "PostalCode": "08527", "State": "NJ"}, {"AddressLine1": "4107 Wynbrook Dr", "City": "RANDOLPH", "PostalCode": "07869", "State": "NJ"}, {"AddressLine1": "372 Fairview Ave", "City": "DUNELLEN", "PostalCode": "08812", "State": "NJ"}, {"AddressLine1": "571 GREENPOND RD", "City": "ROCKAWAY", "PostalCode": "07866", "State": "NJ"}, {"AddressLine1": "24 OLDWICK RDXST RT 22/ RT 78", "City": "WHITEHOUSE STATION", "PostalCode": "08889", "State": "NJ"}, {"AddressLine1": "314 Spring St", "City": "RED BANK", "PostalCode": "07701", "State": "NJ"}, {"AddressLine1": "20 Allaire Dr", "City": "TOMS RIVER", "PostalCode": "08753", "State": "NJ"}, {"AddressLine1": "57 Hunterdon Blvd", "City": "NEW PROVIDENCE", "PostalCode": "07974", "State": "NJ"}, {"AddressLine1": "20 New Freedom Rd", "City": "MEDFORD", "PostalCode": "08055", "State": "NJ"}, {"AddressLine1": "508 Audubon Ave", "City": "WEST DEPTFORD", "PostalCode": "08086", "State": "NJ"}, {"AddressLine1": "33 W Flagge St", "City": "ROCKAWAY", "PostalCode": "07866", "State": "NJ"}, {"AddressLine1": "377 W Dewey Ave", "City": "WHARTON", "PostalCode": "07885", "State": "NJ"}, {"AddressLine1": "70 Mount Airy Rd", "City": "BERNARDSVILLE", "PostalCode": "07924", "State": "NJ"}, {"AddressLine1": "38 Riviera Dr", "City": "MONROE TOWNSHIP", "PostalCode": "08831", "State": "NJ"}, {"AddressLine1": "18 Surrey Ct", "City": "TOMS RIVER", "PostalCode": "08757", "State": "NJ"}, {"AddressLine1": "55 Foxwood Run", "City": " MIDDLETOWN", "PostalCode": "07748", "State": "NJ"}, {"AddressLine1": "14 VILLANOVA DRX ST = COUNTY LINE RD", "City": "JACKSON", "PostalCode": "08527", "State": "NJ"}, {"AddressLine1": "354 MARYLAND AVE", "City": "BAYVILLE", "PostalCode": "08721", "State": "NJ"}, {"AddressLine1": "55 Jane Rd", "City": "NEW PROVIDENCE", "PostalCode": "07974", "State": "NJ"}, {"AddressLine1": "669 MARLBORO RDXST: MAPLE", "City": "OLD BRIDGE", "PostalCode": "08857", "State": "NJ"}, {"AddressLine1": "4024 Hermitage Dr", "City": "VOORHEES", "PostalCode": "08043", "State": "NJ"}, {"AddressLine1": "1811 Quail Ridge Dr", "City": "PLAINSBORO", "PostalCode": "08536", "State": "NJ"}, {"AddressLine1": "109 Pearl St", "City": "DUMONT", "PostalCode": "07628", "State": "NJ"}, {"AddressLine1": "43 Essex Ave", "City": "MONTCLAIR", "PostalCode": "07042", "State": "NJ"}, {"AddressLine1": "27 Springfield Rd", "City": "NORTH BRUNSWICK", "PostalCode": "08902", "State": "NJ"}, {"AddressLine1": "24 KIMBLE CTXST WREN PL", "City": "POMPTON PLAINS", "PostalCode": "07444", "State": "NJ"}, {"AddressLine1": "29 COTTAGE PLXST MOUNTAIN AVE", "City": "GILLETTE", "PostalCode": "07933", "State": "NJ"}, {"AddressLine1": "114 Orleans Rd", "City": "MONROE TOWNSHIP", "PostalCode": "08831", "State": "NJ"}, {"AddressLine1": "11 Stone Harbor Dr", "City": "WARETOWN", "PostalCode": "08758", "State": "NJ"}, {"AddressLine1": "400 Broadway", "City": "PATERSON", "PostalCode": "07501", "State": "NJ"}, {"AddressLine1": "11 River Ct", "City": "PORT MURRAY", "PostalCode": "07865", "State": "NJ"}, {"AddressLine1": "202 Evergreen Blvd", "City": "BROWNS MILLS", "PostalCode": "08015", "State": "NJ"}, {"AddressLine1": "310 Kenwood Ct", "City": "WHITING", "PostalCode": "08759", "State": "NJ"}, {"AddressLine1": "103 Dillon Dr", "City": "STEWARTSVILLE", "PostalCode": "08886", "State": "NJ"}, {"AddressLine1": "59 Oak Knoll Dr", "City": "MATAWAN", "PostalCode": "07747", "State": "NJ"}, {"AddressLine1": "158 Gladstone Dr", "City": "PARSIPPANY", "PostalCode": "07054", "State": "NJ"}, {"AddressLine1": "1 Sturbridge Dr E", "City": "PISCATAWAY", "PostalCode": "08854", "State": "NJ"}, {"AddressLine1": "108 Princeton Rd", "City": "PARLIN", "PostalCode": "08859", "State": "NJ"}, {"AddressLine1": "6 JOCKEY CT", "City": "MARLBORO", "PostalCode": "07746", "State": "NJ"}, {"AddressLine1": "5 GARRYFORD DRXST: STAVOLA RD", "City": " MIDDLETOWN", "PostalCode": "07748", "State": "NJ"}, {"AddressLine1": "16 APPLE ORCHARD DRXST SWIMMING RIVER", "City": "TINTON FALLS", "PostalCode": "07724", "State": "NJ"}, {"AddressLine1": "124 Willow Grove St", "City": "HACKETTSTOWN", "PostalCode": "07840", "State": "NJ"}, {"AddressLine1": "18 Day Lilly Nook", "City": "TOMS RIVER", "PostalCode": "08755", "State": "NJ"}, {"AddressLine1": "116 Hillside Ter", "City": "PARSIPPANY", "PostalCode": "07054", "State": "NJ"}, {"AddressLine1": "3 Unkel Ct", "City": "SAYREVILLE", "PostalCode": "08872", "State": "NJ"}, {"AddressLine1": "227 Washington Rd", "City": "PRINCETON", "PostalCode": "08540", "State": "NJ"}, {"AddressLine1": "77 MCGREGOR AVEXST: HOWARD BLVD", "City": "MOUNT ARLINGTON", "PostalCode": "07856", "State": "NJ"}, {"AddressLine1": "64 Monroe Ave", "City": "DOVER", "PostalCode": "07801", "State": "NJ"}, {"AddressLine1": "89 Walnut Pl", "City": "ROCKAWAY", "PostalCode": "07866", "State": "NJ"}, {"AddressLine1": "18 Fernwood Trl", "City": "DENVILLE", "PostalCode": "07834", "State": "NJ"}, {"AddressLine1": "66 BUTTERMILK BRIDGE RDXST: RT 57", "City": " WASHINGTON", "PostalCode": "07882", "State": "NJ"}, {"AddressLine1": "135 BELL AVEXST=CRESCENT RD", "City": "HOPATCONG", "PostalCode": "07843", "State": "NJ"}, {"AddressLine1": "9 Inverness Ct", "City": "HOLMDEL", "PostalCode": "07733", "State": "NJ"}, {"AddressLine1": "17 Chamber Ln", "City": "ENGLISHTOWN", "PostalCode": "07726", "State": "NJ"}, {"AddressLine1": "769 HOLLY BERRY LNX ST- THEILE RD", "City": "BRICK", "PostalCode": "08724", "State": "NJ"}, {"AddressLine1": "334 Daniele Dr", "City": "OCEAN", "PostalCode": "07712", "State": "NJ"}, {"AddressLine1": "3000 Clayton Dr", "City": "WALL", "PostalCode": "07719", "State": "NJ"}, {"AddressLine1": "1516 Juliette Dr", "City": "WALL", "PostalCode": "07719", "State": "NJ"}, {"AddressLine1": "37 Woodbine Cir", "City": "NEW PROVIDENCE", "PostalCode": "07974", "State": "NJ"}, {"AddressLine1": "10 Pillar Dr", "City": "SOUTH AMBOY", "PostalCode": "08879", "State": "NJ"}, {"AddressLine1": "20 Parkview Dr", "City": "HACKETTSTOWN", "PostalCode": "07840", "State": "NJ"}, {"AddressLine1": "705 BERKELEY LNXST=EDGEWERE", "City": "NEPTUNE", "PostalCode": "07753", "State": "NJ"}, {"AddressLine1": "6 Vassar Rd", "City": "GREAT MEADOWS", "PostalCode": "07838", "State": "NJ"}, {"AddressLine1": "2 Mountain Ash Ct", "City": "MONROE TOWNSHIP", "PostalCode": "08831", "State": "NJ"}, {"AddressLine1": "16 Glen Lake Rd", "City": "SPARTA", "PostalCode": "07871", "State": "NJ"}, {"AddressLine1": "18 Dibert Rd", "City": "ANDOVER", "PostalCode": "07821", "State": "NJ"}, {"AddressLine1": "550 RIVER RDXST FAIRMOUNT RD", "City": "CHATHAM", "PostalCode": "07928", "State": "NJ"}, {"AddressLine1": "15 Westgate Dr", "City": "EDISON", "PostalCode": "08820", "State": "NJ"}, {"AddressLine1": "1501 Roosevelt Ave Trlr A3", "City": "CARTERET", "PostalCode": "07008", "State": "NJ"}, {"AddressLine1": "824 Paterson Ave", "City": "EAST RUTHERFORD", "PostalCode": "07073", "State": "NJ"}, {"AddressLine1": "3 Hampshire Ln", "City": "WILLINGBORO", "PostalCode": "08046", "State": "NJ"}, {"AddressLine1": "171 Sherwood Pl", "City": "ENGLEWOOD", "PostalCode": "07631", "State": "NJ"}, {"AddressLine1": "221 Sumner Ave", "City": "PLAINFIELD", "PostalCode": "07062", "State": "NJ"}, {"AddressLine1": "208 Pleasant Run Rd", "City": "NESHANIC STATION", "PostalCode": "08853", "State": "NJ"}, {"AddressLine1": "2 EDEN CTXST POSSUM HOLLOW RD", "City": "MONROE TOWNSHIP", "PostalCode": "08831", "State": "NJ"}, {"AddressLine1": "9 Starwinds Ct", "City": "LAKEWOOD", "PostalCode": "08701", "State": "NJ"}, {"AddressLine1": "43 Essex Dr", "City": "LITTLE SILVER", "PostalCode": "07739", "State": "NJ"}, {"AddressLine1": "10 Cortlandt Dr", "City": "TOMS RIVER", "PostalCode": "08757", "State": "NJ"}, {"AddressLine1": "296 COUNTY RD 537", "City": "COLTS NECK", "PostalCode": "07722", "State": "NJ"}, {"AddressLine1": "15 Scherer Ct", "City": "LAWRENCE TOWNSHIP", "PostalCode": "08648", "State": "NJ"}, {"AddressLine1": "202 Howard Blvd", "City": "MOUNT ARLINGTON", "PostalCode": "07856", "State": "NJ"}, {"AddressLine1": "513 Water St", "City": "BELVIDERE", "PostalCode": "07823", "State": "NJ"}, {"AddressLine1": "307 BIRCH DRX ST:SCHOOL HOUSE/RT 33", "City": "NEPTUNE", "PostalCode": "07753", "State": "NJ"}, {"AddressLine1": "168 Preston Dr", "City": "GILLETTE", "PostalCode": "07933", "State": "NJ"}, {"AddressLine1": "144 Waughaw Rd", "City": "TOWACO", "PostalCode": "07082", "State": "NJ"}, {"AddressLine1": "98 Larrison Rd", "City": "WRIGHTSTOWN", "PostalCode": "08562", "State": "NJ"}, {"AddressLine1": "19 Crescent Dr", "City": "MORRISTOWN", "PostalCode": "07960", "State": "NJ"}, {"AddressLine1": "19 LIBBY AVEXST JACKSONVILLE AVE", "City": "POMPTON PLAINS", "PostalCode": "07444", "State": "NJ"}, {"AddressLine1": "20 Country Club Dr", "City": "MONROE TOWNSHIP", "PostalCode": "08831", "State": "NJ"}, {"AddressLine1": "124 Whitmore Dr", "City": "TOMS RIVER", "PostalCode": "08757", "State": "NJ"}, {"AddressLine1": "18 Meadowbrook Rd", "City": "BOONTON", "PostalCode": "07005", "State": "NJ"}, {"AddressLine1": "19 Northfield Rd", "City": "MILLINGTON", "PostalCode": "07946", "State": "NJ"}, {"AddressLine1": "114 High St", "City": "MONTCLAIR", "PostalCode": "07042", "State": "NJ"}, {"AddressLine1": "115 Wilson Ave", "City": "EDISON", "PostalCode": "08817", "State": "NJ"}, {"AddressLine1": "410 Rancocas Ave", "City": "RIVERSIDE", "PostalCode": "08075", "State": "NJ"}, {"AddressLine1": "148 Chestnut Ter", "City": "ROCKAWAY", "PostalCode": "07866", "State": "NJ"}, {"AddressLine1": "6 Hannah Ln", "City": "WANAQUE", "PostalCode": "07465", "State": "NJ"}, {"AddressLine1": "1 ANTHONY CIR N", "City": "MANCHESTER", "PostalCode": "08759", "State": "NJ"}, {"AddressLine1": "10 GINTER STXST AUCHE", "City": "FRANKLIN", "PostalCode": "07416", "State": "NJ"}, {"AddressLine1": "624 PEMBERTON BLVDX ST: TRENTON RD", "City": "BROWNS MILLS", "PostalCode": "08015", "State": "NJ"}, {"AddressLine1": "23 Oakland Rd", "City": "JAMESBURG", "PostalCode": "08831", "State": "NJ"}, {"AddressLine1": "215 N Main St", "City": "LAMBERTVILLE", "PostalCode": "08530", "State": "NJ"}, {"AddressLine1": "14 Underhill Ct", "City": "NUTLEY", "PostalCode": "07110", "State": "NJ"}, {"AddressLine1": "190 Normandy Rd", "City": "CLIFTON", "PostalCode": "07013", "State": "NJ"}, {"AddressLine1": "17 Andre Dr", "City": "SUCCASUNNA", "PostalCode": "07876", "State": "NJ"}, {"AddressLine1": "144 George St", "City": "LAMBERTVILLE", "PostalCode": "08530", "State": "NJ"}, {"AddressLine1": "41 Hansom Rd", "City": "BASKING RIDGE", "PostalCode": "07920", "State": "NJ"}, {"AddressLine1": "11 Abraham Lincoln Ct", "City": "MONROE TOWNSHIP", "PostalCode": "08831", "State": "NJ"}, {"AddressLine1": "116 Hudson Ave", "City": "RED BANK", "PostalCode": "07701", "State": "NJ"}, {"AddressLine1": "2 Greenfields Dr", "City": "LAKEWOOD", "PostalCode": "08701", "State": "NJ"}, {"AddressLine1": "944 Genesee St Apt 1", "City": "TRENTON", "PostalCode": "08610", "State": "NJ"}, {"AddressLine1": "128 COLTS NECK RDXST: CRANBURY RD", "City": "FARMINGDALE", "PostalCode": "07727", "State": "NJ"}, {"AddressLine1": "1107 Franklin Ave", "City": "OCEAN", "PostalCode": "07712", "State": "NJ"}, {"AddressLine1": "GREENBRIAR OCEANAIRE SEC 27 LAVALLETTE LN", "City": "WARETOWN", "PostalCode": "08758", "State": "NJ"}, {"AddressLine1": "193 PINE BROOK RDXST HORSE NECK RD", "City": "MONTVILLE", "PostalCode": "07045", "State": "NJ"}, {"AddressLine1": "263 MEADOWBROOK RDXST RT 130", "City": "ROBBINSVILLE", "PostalCode": "08691", "State": "NJ"}, {"AddressLine1": "RT 71", "City": "BELMAR", "PostalCode": "07719", "State": "NJ"}, {"AddressLine1": "226 Community Cir", "City": "OLD BRIDGE", "PostalCode": "08857", "State": "NJ"}, {"AddressLine1": "17 SEAVIEW AVE UNIT 8", "City": "OCEAN GROVE", "PostalCode": "07756", "State": "NJ"}, {"AddressLine1": "228 Montgomery St", "City": "HIGHLAND PARK", "PostalCode": "08904", "State": "NJ"}, {"AddressLine1": "11 Large Ave", "City": "HILLSDALE", "PostalCode": "07642", "State": "NJ"}, {"AddressLine1": "1 MARSTON RDX ST- LEDGEWOOD", "City": "FLANDERS", "PostalCode": "07836", "State": "NJ"}, {"AddressLine1": "44 NORWOOD DR", "City": "GILLETTE", "PostalCode": "07933", "State": "NJ"}, {"AddressLine1": "28 Rockwell Cir", "City": "MARLBORO", "PostalCode": "07746", "State": "NJ"}, {"AddressLine1": "404 PARK AVEXST SOUTH ST", "City": "FREEHOLD", "PostalCode": "07728", "State": "NJ"}, {"AddressLine1": "45 Barrington Rd", "City": "PARSIPPANY", "PostalCode": "07054", "State": "NJ"}, {"AddressLine1": "61 Eagle Ridge Cir", "City": "LAKEWOOD", "PostalCode": "08701", "State": "NJ"}, {"AddressLine1": "276 Hamilton St Apt 2D", "City": "NEW BRUNSWICK", "PostalCode": "08901", "State": "NJ"}, {"AddressLine1": "211 Lilac Ln", "City": "DELANCO", "PostalCode": "08075", "State": "NJ"}, {"AddressLine1": "290 River Rd", "City": "MILLINGTON", "PostalCode": "07946", "State": "NJ"}, {"AddressLine1": "24 Templar Rd", "City": "ENGLISHTOWN", "PostalCode": "07726", "State": "NJ"}, {"AddressLine1": "11 WHITMAN BLVDX ST BROWNING", "City": "ENGLISHTOWN", "PostalCode": "07726", "State": "NJ"}, {"AddressLine1": "19 Iroquois Rd", "City": "MANASQUAN", "PostalCode": "08736", "State": "NJ"}, {"AddressLine1": "431 MAGNOLIA RDXST MAGNOLIA", "City": "PEMBERTON", "PostalCode": "08068", "State": "NJ"}, {"AddressLine1": "19 GLEN RD", "City": "SPARTA", "PostalCode": "07871", "State": "NJ"}, {"AddressLine1": "301 Shades of Death Rd", "City": "GREAT MEADOWS", "PostalCode": "07838", "State": "NJ"}, {"AddressLine1": "81 Pancoast Rd", "City": "WARETOWN", "PostalCode": "08758", "State": "NJ"}, {"AddressLine1": "830 Center St", "City": "UNION BEACH", "PostalCode": "07735", "State": "NJ"}, {"AddressLine1": "46 Pearce Ave", "City": "MANASQUAN", "PostalCode": "08736", "State": "NJ"}, {"AddressLine1": "6 Green Meadows Rd", "City": "FAIRFIELD", "PostalCode": "07004", "State": "NJ"}, {"AddressLine1": "906 Somerdale Rd", "City": "VOORHEES", "PostalCode": "08043", "State": "NJ"}, {"AddressLine1": "80 E Milton Ave Apt 1208", "City": "RAHWAY", "PostalCode": "07065", "State": "NJ"}, {"AddressLine1": "268 Center St", "City": "LANDING", "PostalCode": "07850", "State": "NJ"}, {"AddressLine1": "15 Statesir Pl", "City": "RED BANK", "PostalCode": "07701", "State": "NJ"}, {"AddressLine1": "363 Lakehurst Rd", "City": "TOMS RIVER", "PostalCode": "08755", "State": "NJ"}, {"AddressLine1": "33 Northbridge Pl", "City": "MORRISTOWN", "PostalCode": "07960", "State": "NJ"}, {"AddressLine1": "8 Mansfield Ct", "City": "MENDHAM", "PostalCode": "07945", "State": "NJ"}, {"AddressLine1": "24 Prince Charles Dr", "City": "TOMS RIVER", "PostalCode": "08757", "State": "NJ"}, {"AddressLine1": "239 HIGH ST APT 2", "City": "BURLINGTON CITY", "PostalCode": "08016", "State": "NJ"}, {"AddressLine1": "67 Thistle Dr", "City": "PARAMUS", "PostalCode": "07652", "State": "NJ"}, {"AddressLine1": "104 Ramble Rd", "City": "CHERRY HILL", "PostalCode": "08034", "State": "NJ"}, {"AddressLine1": "607 10th Ave", "City": "BELMAR", "PostalCode": "07719", "State": "NJ"}, {"AddressLine1": "6 BRENTFORD STXST SEDGFIELD DR", "City": "MORRIS PLAINS", "PostalCode": "07950", "State": "NJ"}, {"AddressLine1": "381 Park Ave", "City": "LEONIA", "PostalCode": "07605", "State": "NJ"}, {"AddressLine1": "36 Green Meadow Dr", "City": "TINTON FALLS", "PostalCode": "07724", "State": "NJ"}, {"AddressLine1": "15 MARIA DRCHURCH BROOK*ESTS C2001", "City": "NEW EGYPT", "PostalCode": "08533", "State": "NJ"}, {"AddressLine1": "96 Chichester Rd", "City": "JAMESBURG", "PostalCode": "08831", "State": "NJ"}, {"AddressLine1": "354 Howard Blvd", "City": "MOUNT ARLINGTON", "PostalCode": "07856", "State": "NJ"}, {"AddressLine1": "2292 Tomera Pl", "City": "TOMS RIVER", "PostalCode": "08755", "State": "NJ"}, {"AddressLine1": "726 Walden Cir", "City": "ROBBINSVILLE", "PostalCode": "08691", "State": "NJ"}, {"AddressLine1": "389 MT AIRY HARBOURTON RD", "City": "LAMBERTVILLE", "PostalCode": "08530", "State": "NJ"}, {"AddressLine1": "803 ROSEWOOD AVEX-ST JERSEY AVE", "City": "POINT PLEASANT", "PostalCode": "08742", "State": "NJ"}, {"AddressLine1": "999 MT BENEVOLENCE RD", "City": "NEWTON", "PostalCode": "07860", "State": "NJ"}, {"AddressLine1": "363 Valleyscent Ave", "City": "SCOTCH PLAINS", "PostalCode": "07076", "State": "NJ"}, {"AddressLine1": "1 Daisy Way", "City": "PARAMUS", "PostalCode": "07652", "State": "NJ"}, {"AddressLine1": "10 Covered Bridge Rd", "City": "NESHANIC STATION", "PostalCode": "08853", "State": "NJ"}, {"AddressLine1": "363 Buckalew Rd", "City": "FREEHOLD", "PostalCode": "07728", "State": "NJ"}, {"AddressLine1": "8 Ryan Ct", "City": "LONG VALLEY", "PostalCode": "07853", "State": "NJ"}, {"AddressLine1": "19 Penn Pl", "City": "FORKED RIVER", "PostalCode": "08731", "State": "NJ"}, {"AddressLine1": "20 Westminster Pl", "City": "SADDLE BROOK", "PostalCode": "07663", "State": "NJ"}, {"AddressLine1": "23 Dehart Dr", "City": "BELLE MEAD", "PostalCode": "08502", "State": "NJ"}, {"AddressLine1": "6 HANNE DRXST HOSFORD AVE", "City": "LEONARDO", "PostalCode": "07737", "State": "NJ"}, {"AddressLine1": "70 MORNING GLORY LNXST: GARDENA", "City": "WHITING", "PostalCode": "08759", "State": "NJ"}, {"AddressLine1": "727 Grand Central Dr", "City": "TRENTON", "PostalCode": "08619", "State": "NJ"}, {"AddressLine1": "24 Sunrise Ter", "City": " WASHINGTON", "PostalCode": "07882", "State": "NJ"}, {"AddressLine1": "195 Franklin St", "City": "MORRISTOWN", "PostalCode": "07960", "State": "NJ"}, {"AddressLine1": "2 Pond Rd", "City": "PARSIPPANY", "PostalCode": "07054", "State": "NJ"}, {"AddressLine1": "6 Argyle Ct", "City": "PARSIPPANY", "PostalCode": "07054", "State": "NJ"}, {"AddressLine1": "966 Van Court Ave", "City": "ELBERON", "PostalCode": "07740", "State": "NJ"}, {"AddressLine1": "100 MONMOUTH RDXST GRAVEL HILL RD", "City": "FREEHOLD", "PostalCode": "07728", "State": "NJ"}, {"AddressLine1": "209 Sunset Ave", "City": "PORT MONMOUTH", "PostalCode": "07758", "State": "NJ"}, {"AddressLine1": "18 ELMWOOD LNX ST HILLCREST", "City": "FAIR HAVEN", "PostalCode": "07704", "State": "NJ"}, {"AddressLine1": "7 CENTER ST UNIT 2108", "City": "OCEAN", "PostalCode": "07712", "State": "NJ"}, {"AddressLine1": "1826 Laurel Ter", "City": "BELMAR", "PostalCode": "07719", "State": "NJ"}, {"AddressLine1": "8 Independence Ct", "City": "JACKSON", "PostalCode": "08527", "State": "NJ"}, {"AddressLine1": "454 Jamaica Blvd", "City": "TOMS RIVER", "PostalCode": "08757", "State": "NJ"}, {"AddressLine1": "100 CLAREMONT AVE FL 2", "City": "JERSEY CITY", "PostalCode": "07305", "State": "NJ"}, {"AddressLine1": "26 Brown Ter", "City": "CRANFORD", "PostalCode": "07016", "State": "NJ"}, {"AddressLine1": "37 2nd St Fl 2", "City": "SOMERVILLE", "PostalCode": "08876", "State": "NJ"}, {"AddressLine1": "20 Acorn Dr", "City": "WATCHUNG", "PostalCode": "07069", "State": "NJ"}, {"AddressLine1": "22 Jay Rd", "City": "CHATHAM", "PostalCode": "07928", "State": "NJ"}, {"AddressLine1": "524 MIDDLE LNX-ST SUNSET LA", "City": "HOWELL", "PostalCode": "07731", "State": "NJ"}, {"AddressLine1": "1079A Buckingham Dr", "City": "MANCHESTER", "PostalCode": "08759", "State": "NJ"}, {"AddressLine1": "14 Arch St", "City": "OGDENSBURG", "PostalCode": "07439", "State": "NJ"}, {"AddressLine1": "1512 89th St", "City": "NORTH BERGEN", "PostalCode": "07047", "State": "NJ"}, {"AddressLine1": "217 Memorial Ave", "City": "HADDONFIELD", "PostalCode": "08033", "State": "NJ"}, {"AddressLine1": "10 Lexington Ave", "City": "MONTCLAIR", "PostalCode": "07042", "State": "NJ"}, {"AddressLine1": "804 S 13th St", "City": "NEWARK", "PostalCode": "07108", "State": "NJ"}, {"AddressLine1": "8 Duncan Dr", "City": "HAMILTON", "PostalCode": "08690", "State": "NJ"}, {"AddressLine1": "72 3rd Ave", "City": "WESTWOOD", "PostalCode": "07675", "State": "NJ"}, {"AddressLine1": "388 Irving Ave", "City": "SOUTH ORANGE", "PostalCode": "07079", "State": "NJ"}, {"AddressLine1": "250 River Rd", "City": "MILLINGTON", "PostalCode": "07946", "State": "NJ"}]
