[{"AddressLine1": "2318 COUNTY ROAD 60", "City": "BERGHOLZ", "PostalCode": "43908", "State": "OH"}, {"AddressLine1": "17 Hilltop Dr", "City": "MOUNT VERNON", "PostalCode": "43050", "State": "OH"}, {"AddressLine1": "2316 County Road 60", "City": "BERGHOLZ", "PostalCode": "43908", "State": "OH"}, {"AddressLine1": "1417 Pershing Ave", "City": "MIDDLETOWN", "PostalCode": "45044", "State": "OH"}, {"AddressLine1": "1211 Case Ave", "City": "MIAMISBG", "PostalCode": "45342", "State": "OH"}, {"AddressLine1": "6838 LIBERTY FAIRFIELD RD", "City": "HAMILTON", "PostalCode": "45011", "State": "OH"}, {"AddressLine1": "360 Oak Park Rd", "City": "CADIZ", "PostalCode": "43907", "State": "OH"}, {"AddressLine1": "531 Toomey Ave", "City": "DELPHOS", "PostalCode": "45833", "State": "OH"}, {"AddressLine1": "1717 Alona Dr Apt 1", "City": "COLUMBUS", "PostalCode": "43224", "State": "OH"}, {"AddressLine1": "96 Lockhart St", "City": "BELPRE", "PostalCode": "45714", "State": "OH"}, {"AddressLine1": "2144 Riverdale Sq W", "City": "COLUMBUS", "PostalCode": "43232", "State": "OH"}, {"AddressLine1": "1492 REPUBLIC AVE", "City": "COLUMBUS", "PostalCode": "43211", "State": "OH"}, {"AddressLine1": "4120 Pleasant Ave", "City": "PORTSMOUTH", "PostalCode": "45662", "State": "OH"}, {"AddressLine1": "2845 Fostoria Rd", "City": "FOSTORIA", "PostalCode": "44830", "State": "OH"}, {"AddressLine1": "259 Wentz St", "City": "TIFFIN", "PostalCode": "44883", "State": "OH"}, {"AddressLine1": "3450 Bellevue Rd", "City": "TOLEDO", "PostalCode": "43606", "State": "OH"}, {"AddressLine1": "4042 Jamesway Dr", "City": "TOLEDO", "PostalCode": "43606", "State": "OH"}, {"AddressLine1": "3145 Maher St", "City": "TOLEDO", "PostalCode": "43608", "State": "OH"}, {"AddressLine1": "3170 Seven Bridges Rd", "City": "MEDINA", "PostalCode": "44256", "State": "OH"}, {"AddressLine1": "2025 Hamilton Ave", "City": "LORAIN", "PostalCode": "44052", "State": "OH"}, {"AddressLine1": "1362 Eastridge Dr", "City": "WATERVILLE", "PostalCode": "43566", "State": "OH"}, {"AddressLine1": "830 W Jefferson St", "City": "SPRINGFIELD", "PostalCode": "45506", "State": "OH"}, {"AddressLine1": "1049 W 9th St", "City": "LORAIN", "PostalCode": "44052", "State": "OH"}, {"AddressLine1": "3461 E 149th St", "City": "CLEVELAND", "PostalCode": "44120", "State": "OH"}, {"AddressLine1": "8904 Falcon Dr", "City": "STREETSBORO", "PostalCode": "44241", "State": "OH"}, {"AddressLine1": "336 Knox Ave", "City": "DAYTON", "PostalCode": "45417", "State": "OH"}, {"AddressLine1": "5611 Willow Twig Ln", "City": "DAYTON", "PostalCode": "45459", "State": "OH"}, {"AddressLine1": "4761 BRAIDEN DRLOT 7594 SHEFFIELD PARK S", "City": "GALENA", "PostalCode": "43021", "State": "OH"}, {"AddressLine1": "621 Front St", "City": "MARIETTA", "PostalCode": "45750", "State": "OH"}, {"AddressLine1": "203 Linden Ave Apt A", "City": "SOUTH POINT", "PostalCode": "45680", "State": "OH"}, {"AddressLine1": "99 LINMAR AVE", "City": "STEUBENVILLE", "PostalCode": "43953", "State": "OH"}, {"AddressLine1": "2157 Aspen Dr", "City": "LIMA", "PostalCode": "45805", "State": "OH"}, {"AddressLine1": "509 S Metcalf St", "City": "LIMA", "PostalCode": "45801", "State": "OH"}, {"AddressLine1": "400 S Mumaugh Rd Apt 7-1", "City": "LIMA", "PostalCode": "45804", "State": "OH"}, {"AddressLine1": "2105 ALPENA AVE", "City": "DAYTON", "PostalCode": "45406", "State": "OH"}, {"AddressLine1": "2260 PAR LN", "City": "WILLOUGHBY", "PostalCode": "44094", "State": "OH"}, {"AddressLine1": "26912 Westwood Ln", "City": "OLMSTED FALLS", "PostalCode": "44138", "State": "OH"}, {"AddressLine1": "511 Madison St", "City": "CONNEAUT", "PostalCode": "44030", "State": "OH"}, {"AddressLine1": "913 Longview Ave", "City": "AKRON", "PostalCode": "44307", "State": "OH"}, {"AddressLine1": "854 Stiles Ave", "City": "YOUNGSTOWN", "PostalCode": "44505", "State": "OH"}, {"AddressLine1": "1583 Oakwood Ave", "City": "AKRON", "PostalCode": "44301", "State": "OH"}, {"AddressLine1": "1218 Catalpa Dr", "City": "DAYTON", "PostalCode": "45402", "State": "OH"}, {"AddressLine1": "137 Potomac Dr", "City": "EATON", "PostalCode": "45320", "State": "OH"}, {"AddressLine1": "3840 WINNING STAKES WAY", "City": "MASON", "PostalCode": "45040", "State": "OH"}, {"AddressLine1": "693 N Dawson Ave", "City": "COLUMBUS", "PostalCode": "43219", "State": "OH"}, {"AddressLine1": "209 E Montgomery St", "City": "MARIETTA", "PostalCode": "45750", "State": "OH"}, {"AddressLine1": "10308 S Jefferson Rd", "City": "SHREVE", "PostalCode": "44676", "State": "OH"}, {"AddressLine1": "1150 Western Ave SW", "City": " CANTON", "PostalCode": "44710", "State": "OH"}, {"AddressLine1": "311 W Washington St", "City": "DUNKIRK", "PostalCode": "45836", "State": "OH"}, {"AddressLine1": "624 Westbrook Dr", "City": "LIMA", "PostalCode": "45801", "State": "OH"}, {"AddressLine1": "1110 Earl St", "City": "TOLEDO", "PostalCode": "43605", "State": "OH"}, {"AddressLine1": "935 S GREEN RD", "City": "SOUTH EUCLID", "PostalCode": "44121", "State": "OH"}, {"AddressLine1": "4832 COTTONWOOD LNXX STRA. 4832", "City": "BRUNSWICK", "PostalCode": "44212", "State": "OH"}, {"AddressLine1": "606 Bowman St", "City": "MANSFIELD", "PostalCode": "44903", "State": "OH"}, {"AddressLine1": "5343 Clement Ave", "City": "MAPLE HEIGHTS", "PostalCode": "44137", "State": "OH"}, {"AddressLine1": "304 Scott St NE", "City": "WARREN", "PostalCode": "44483", "State": "OH"}, {"AddressLine1": "40 E Maplewood Ave", "City": "DAYTON", "PostalCode": "45405", "State": "OH"}, {"AddressLine1": "1723 STEVENS AVE", "City": "CINCINNATI", "PostalCode": "45231", "State": "OH"}, {"AddressLine1": "9001 State Route 503 S", "City": "CAMDEN", "PostalCode": "45311", "State": "OH"}, {"AddressLine1": "755 Stelzer Rd Lot 1229", "City": "COLUMBUS", "PostalCode": "43219", "State": "OH"}, {"AddressLine1": "6322 CENTURY CITY S APT 5", "City": "REYNOLDSBURG", "PostalCode": "43068", "State": "OH"}, {"AddressLine1": "117 E 4th St", "City": "UHRICHSVILLE", "PostalCode": "44683", "State": "OH"}, {"AddressLine1": "126 CLARENDON AVE NW APT A-1FL", "City": " CANTON", "PostalCode": "44708", "State": "OH"}, {"AddressLine1": "715 6th St SW", "City": " CANTON", "PostalCode": "44707", "State": "OH"}, {"AddressLine1": "834 7th St NW", "City": "NORTH CANTON", "PostalCode": "44720", "State": "OH"}, {"AddressLine1": "19103 PAWNEE AVE", "City": "CLEVELAND", "PostalCode": "44119", "State": "OH"}, {"AddressLine1": "11994 Firefly Dr", "City": "NORTH ROYALTON", "PostalCode": "44133", "State": "OH"}, {"AddressLine1": "918 Inman St", "City": "AKRON", "PostalCode": "44306", "State": "OH"}, {"AddressLine1": "304 Lakewick Ln", "City": "WILLOWICK", "PostalCode": "44095", "State": "OH"}, {"AddressLine1": "294 Fairport Nursery Rd", "City": "PAINESVILLE", "PostalCode": "44077", "State": "OH"}, {"AddressLine1": "4004 W ERIE AVE", "City": "LORAIN", "PostalCode": "44053", "State": "OH"}, {"AddressLine1": "PO Box 294", "City": "WILBERFORCE", "PostalCode": "45384", "State": "OH"}, {"AddressLine1": "735 Allison Rd", "City": "BELLEFONTN", "PostalCode": "43311", "State": "OH"}, {"AddressLine1": "5342 INDIAN MOUND AVE", "City": "CINCINNATI", "PostalCode": "45212", "State": "OH"}, {"AddressLine1": "6182 TULANE RD", "City": "CINCINNATI", "PostalCode": "45212", "State": "OH"}, {"AddressLine1": "5751 Red Carnation Dr", "City": "GALLOWAY", "PostalCode": "43119", "State": "OH"}, {"AddressLine1": "3228 BENHAM CT", "City": "COLUMBUS", "PostalCode": "43232", "State": "OH"}, {"AddressLine1": "4440 Franshire S", "City": "COLUMBUS", "PostalCode": "43228", "State": "OH"}, {"AddressLine1": "489 OLDE IRISH DR", "City": "GALLOWAY", "PostalCode": "43119", "State": "OH"}, {"AddressLine1": "6729 Ardwell Dr", "City": "CANAL WINCHESTER", "PostalCode": "43110", "State": "OH"}, {"AddressLine1": "5307 Mardela Dr", "City": "WESTERVILLE", "PostalCode": "43081", "State": "OH"}, {"AddressLine1": "42275 Rumley Rd E", "City": "JEWETT", "PostalCode": "43986", "State": "OH"}, {"AddressLine1": "6075 Schloneger Dr", "City": "LOUISVILLE", "PostalCode": "44641", "State": "OH"}, {"AddressLine1": "2611 Chestnut St", "City": "TOLEDO", "PostalCode": "43608", "State": "OH"}, {"AddressLine1": "3851 Stannard Dr", "City": "TOLEDO", "PostalCode": "43613", "State": "OH"}, {"AddressLine1": "7806 Haralson Ct", "City": "HOLLAND", "PostalCode": "43528", "State": "OH"}, {"AddressLine1": "761 E 92ND ST", "City": "CLEVELAND", "PostalCode": "44108", "State": "OH"}, {"AddressLine1": "505 Oberlin Ave", "City": "LORAIN", "PostalCode": "44052", "State": "OH"}, {"AddressLine1": "82 Leppo Ln", "City": "MANSFIELD", "PostalCode": "44907", "State": "OH"}, {"AddressLine1": "146 W Pleasant St", "City": "CATAWBA", "PostalCode": "43010", "State": "OH"}, {"AddressLine1": "1340 Hird Ave", "City": "LAKEWOOD", "PostalCode": "44107", "State": "OH"}, {"AddressLine1": "799 State Route 88 NE", "City": "BRISTOLVILLE", "PostalCode": "44402", "State": "OH"}, {"AddressLine1": "736 Eastland Ave", "City": "AKRON", "PostalCode": "44305", "State": "OH"}, {"AddressLine1": "38311 Terrell Dr", "City": "NORTH RIDGEVILLE", "PostalCode": "44039", "State": "OH"}, {"AddressLine1": "4121 Meadowdale Dr", "City": "DAYTON", "PostalCode": "45416", "State": "OH"}, {"AddressLine1": "3143 Taggart St", "City": "DAYTON", "PostalCode": "45420", "State": "OH"}, {"AddressLine1": "9814 DARTMOUTH WAY", "City": "LOVELAND", "PostalCode": "45140", "State": "OH"}, {"AddressLine1": "1944 KENTUCKY AVE", "City": "CINCINNATI", "PostalCode": "45223", "State": "OH"}, {"AddressLine1": "1310 Dixon Rd", "City": "CUTLER", "PostalCode": "45724", "State": "OH"}, {"AddressLine1": "1918 Gridley Ave NE", "City": " CANTON", "PostalCode": "44705", "State": "OH"}, {"AddressLine1": "9200 Elsmere Dr", "City": "PARMA", "PostalCode": "44130", "State": "OH"}, {"AddressLine1": "2656 Tributary Ln", "City": "AKRON", "PostalCode": "44312", "State": "OH"}, {"AddressLine1": "1017 Johnson St", "City": "SANDUSKY", "PostalCode": "44870", "State": "OH"}, {"AddressLine1": "10376 Juillerat Rd", "City": "WINCHESTER", "PostalCode": "45697", "State": "OH"}, {"AddressLine1": "2480 QUEEN CITY AVE", "City": "CINCINNATI", "PostalCode": "45238", "State": "OH"}, {"AddressLine1": "144 CALAHAN RD", "City": "COLUMBUS", "PostalCode": "43207", "State": "OH"}, {"AddressLine1": "175 Applegrove St NE Apt C9", "City": "NORTH CANTON", "PostalCode": "44720", "State": "OH"}, {"AddressLine1": "425 E Weber St", "City": "TOLEDO", "PostalCode": "43608", "State": "OH"}, {"AddressLine1": "3148 CONEFLOWER DR", "City": "TIPP CITY", "PostalCode": "45371", "State": "OH"}, {"AddressLine1": "2060 Beery Rd", "City": "LIMA", "PostalCode": "45807", "State": "OH"}, {"AddressLine1": "18783 ELTON RD", "City": "DALTON", "PostalCode": "44618", "State": "OH"}, {"AddressLine1": "9123 W Ridgewood Dr", "City": "PARMA HEIGHTS", "PostalCode": "44130", "State": "OH"}, {"AddressLine1": "15410 Chatfield Ave", "City": "CLEVELAND", "PostalCode": "44111", "State": "OH"}, {"AddressLine1": "3461 MAYFAIR RD", "City": "AKRON", "PostalCode": "44312", "State": "OH"}, {"AddressLine1": "33 S Garden St", "City": "NORWALK", "PostalCode": "44857", "State": "OH"}, {"AddressLine1": "81 Woodhollow Dr", "City": "BRUNSWICK", "PostalCode": "44212", "State": "OH"}, {"AddressLine1": "4352 Marks Rd", "City": "MEDINA", "PostalCode": "44256", "State": "OH"}, {"AddressLine1": "9740 CHERRY HILL DR", "City": "CANFIELD", "PostalCode": "44406", "State": "OH"}, {"AddressLine1": "506 Geiger Ave SW", "City": "MASSILLON", "PostalCode": "44647", "State": "OH"}, {"AddressLine1": "5691 Chevrolet Blvd Apt D104", "City": "CLEVELAND", "PostalCode": "44130", "State": "OH"}, {"AddressLine1": "818 Mason St", "City": "TOLEDO", "PostalCode": "43605", "State": "OH"}, {"AddressLine1": "00005 LAKEVIEW DR E", "City": "CINCINNATI", "PostalCode": "45237", "State": "OH"}, {"AddressLine1": "2150 ELSMERE AVEAPT  C", "City": "DAYTON", "PostalCode": "45406", "State": "OH"}, {"AddressLine1": "6674 PAXTON GUINEA RD", "City": "LOVELAND", "PostalCode": "45140", "State": "OH"}, {"AddressLine1": "688 LANARK LN", "City": "LOVELAND", "PostalCode": "45140", "State": "OH"}, {"AddressLine1": "4946 Fuller Dr", "City": "COLUMBUS", "PostalCode": "43214", "State": "OH"}, {"AddressLine1": "470 E NORTH ST APT D", "City": "WORTHINGTON", "PostalCode": "43085", "State": "OH"}, {"AddressLine1": "4420 Ridgely Tract Rd", "City": "NEWARK", "PostalCode": "43056", "State": "OH"}, {"AddressLine1": "7521 Beverly Ave NE", "City": " CANTON", "PostalCode": "44721", "State": "OH"}, {"AddressLine1": "82989 State Route 258 SE", "City": "UHRICHSVILLE", "PostalCode": "44683", "State": "OH"}, {"AddressLine1": "876 Peerless Ave", "City": "AKRON", "PostalCode": "44320", "State": "OH"}, {"AddressLine1": "7826 S 2nd Ave", "City": "CLINTON", "PostalCode": "44216", "State": "OH"}, {"AddressLine1": "1447 Newton St", "City": "AKRON", "PostalCode": "44305", "State": "OH"}, {"AddressLine1": "16828 Gerard Ave", "City": "MAPLE HEIGHTS", "PostalCode": "44137", "State": "OH"}, {"AddressLine1": "668 PAGE ST", "City": "RAVENNA", "PostalCode": "44266", "State": "OH"}, {"AddressLine1": "580 Briarheath Dr", "City": "DEFIANCE", "PostalCode": "43512", "State": "OH"}, {"AddressLine1": "3108 Seton Hill Dr", "City": "BELLBROOK", "PostalCode": "45305", "State": "OH"}, {"AddressLine1": "2029 GOLDFINCH CT", "City": "MIDDLETOWN", "PostalCode": "45044", "State": "OH"}, {"AddressLine1": "101 E Circle Dr", "City": "MASON", "PostalCode": "45040", "State": "OH"}, {"AddressLine1": "1812 WAYLAND AVE", "City": "CINCINNATI", "PostalCode": "45212", "State": "OH"}, {"AddressLine1": " 2615 BATAVIA WILLIAMSBURG RD 350 SWEET BRIAR DR", "City": "BATAVIA", "PostalCode": "45103", "State": "OH"}, {"AddressLine1": "3681 W GALBRAITH RD", "City": "CINCINNATI", "PostalCode": "45247", "State": "OH"}, {"AddressLine1": "3830 Wood Trail Dr", "City": "MASON", "PostalCode": "45040", "State": "OH"}, {"AddressLine1": "938 Sunview Rd", "City": "REYNOLDSBURG", "PostalCode": "43068", "State": "OH"}, {"AddressLine1": "6425 Birchview Dr N", "City": "REYNOLDSBURG", "PostalCode": "43068", "State": "OH"}, {"AddressLine1": "39710 Lee Rd", "City": "POMEROY", "PostalCode": "45769", "State": "OH"}, {"AddressLine1": "117 Evesham Cir NE", "City": " CANTON", "PostalCode": "44721", "State": "OH"}, {"AddressLine1": "132 E Suthoff St", "City": "DELPHOS", "PostalCode": "45833", "State": "OH"}, {"AddressLine1": "525 Main St", "City": "WELLSVILLE", "PostalCode": "43968", "State": "OH"}, {"AddressLine1": "1229 Terrace Rd NW", "City": "NORTH CANTON", "PostalCode": "44720", "State": "OH"}, {"AddressLine1": "701 Holliday Rd SE", "City": "BREMEN", "PostalCode": "43107", "State": "OH"}, {"AddressLine1": "4203 W 58th St", "City": "CLEVELAND", "PostalCode": "44144", "State": "OH"}, {"AddressLine1": "9732 Tannery Way", "City": "OLMSTED FALLS", "PostalCode": "44138", "State": "OH"}, {"AddressLine1": "41575 HAZELWOOD STX ST.", "City": "ELYRIA", "PostalCode": "44035", "State": "OH"}, {"AddressLine1": "1238 Goldfinch Trl", "City": "STOW", "PostalCode": "44224", "State": "OH"}, {"AddressLine1": "155 E WALNUT STLOWR", "City": " ROCKFORD", "PostalCode": "45882", "State": "OH"}, {"AddressLine1": "6980 Andrew Hill Pl", "City": "COLUMBUS", "PostalCode": "43235", "State": "OH"}, {"AddressLine1": "3349 Belgreen Dr", "City": "GROVE CITY", "PostalCode": "43123", "State": "OH"}, {"AddressLine1": "5778 Autumn Hill Ct", "City": "COLUMBUS", "PostalCode": "43235", "State": "OH"}, {"AddressLine1": "2067 Sullivant Ave", "City": "COLUMBUS", "PostalCode": "43223", "State": "OH"}, {"AddressLine1": "1179 Snipe View Loop E", "City": "BLACKLICK", "PostalCode": "43004", "State": "OH"}, {"AddressLine1": "7990 SEVERHILL CT", "City": "DUBLIN", "PostalCode": "43016", "State": "OH"}, {"AddressLine1": "161 W 2nd St Apt 13", "City": "FRAZEYSBURG", "PostalCode": "43822", "State": "OH"}, {"AddressLine1": "3488 Cross Creek Cir", "City": "WOOSTER", "PostalCode": "44691", "State": "OH"}, {"AddressLine1": "1294 Kings Corners Rd E", "City": "LEXINGTON", "PostalCode": "44904", "State": "OH"}, {"AddressLine1": "10304 HONEYSUCKLE LN", "City": "BROADVIEW HEIGHTS", "PostalCode": "44147", "State": "OH"}, {"AddressLine1": "11235 Brentwood Ln", "City": "CHARDON", "PostalCode": "44024", "State": "OH"}, {"AddressLine1": "530 KLING ST", "City": "AKRON", "PostalCode": "44311", "State": "OH"}, {"AddressLine1": "1820 W 22nd St", "City": "LORAIN", "PostalCode": "44052", "State": "OH"}, {"AddressLine1": "13000 Grafton Rd", "City": "GRAFTON", "PostalCode": "44044", "State": "OH"}, {"AddressLine1": "12114 Bennington Ave", "City": "CLEVELAND", "PostalCode": "44135", "State": "OH"}, {"AddressLine1": "513 MARGARET DR", "City": "FAIRBORN", "PostalCode": "45324", "State": "OH"}, {"AddressLine1": "308 E MAIN ST", "City": "ST PARIS", "PostalCode": "43072", "State": "OH"}, {"AddressLine1": "6370 HILLSIDE AVE", "City": "CINCINNATI", "PostalCode": "45233", "State": "OH"}, {"AddressLine1": "833 Saint Margaret Rd", "City": "CHILLICOTHE", "PostalCode": "45601", "State": "OH"}, {"AddressLine1": "9421 Gibson Dr", "City": "POWELL", "PostalCode": "43065", "State": "OH"}, {"AddressLine1": "37931 State Route 143", "City": "POMEROY", "PostalCode": "45769", "State": "OH"}, {"AddressLine1": "3928 Appaloosa Ct", "City": "COLUMBUS", "PostalCode": "43221", "State": "OH"}, {"AddressLine1": "801 Scarlett Ln", "City": "COLUMBUS", "PostalCode": "43207", "State": "OH"}, {"AddressLine1": "1525 California Ave", "City": "LOUISVILLE", "PostalCode": "44641", "State": "OH"}, {"AddressLine1": "1711 W Wayne St", "City": "LIMA", "PostalCode": "45805", "State": "OH"}, {"AddressLine1": "1326 Wetsell Ave", "City": "LANCASTER", "PostalCode": "43130", "State": "OH"}, {"AddressLine1": "4487 GRAND LAKE DR", "City": "BRUNSWICK", "PostalCode": "44212", "State": "OH"}, {"AddressLine1": "691 E 92nd St", "City": "CLEVELAND", "PostalCode": "44108", "State": "OH"}, {"AddressLine1": "5420 Hollywood Ave", "City": "MAPLE HEIGHTS", "PostalCode": "44137", "State": "OH"}, {"AddressLine1": "9087 Reed Rd", "City": "NORTH RIDGEVILLE", "PostalCode": "44039", "State": "OH"}, {"AddressLine1": "124 Mendel Ct", "City": "ELYRIA", "PostalCode": "44035", "State": "OH"}, {"AddressLine1": "29 E Lake St", "City": "TOLEDO", "PostalCode": "43608", "State": "OH"}, {"AddressLine1": "05004 LAWRENCEBURG RD", "City": "HARRISON", "PostalCode": "45030", "State": "OH"}, {"AddressLine1": "4645 Kammer Ave", "City": "DAYTON", "PostalCode": "45417", "State": "OH"}, {"AddressLine1": "246 CHELTENHAM DR", "City": "DAYTON", "PostalCode": "45459", "State": "OH"}, {"AddressLine1": "332 SYCAMORE-GLN DR", "City": "MIAMISBG", "PostalCode": "45342", "State": "OH"}, {"AddressLine1": "7220 OSCEOLA DR", "City": "CINCINNATI", "PostalCode": "45243", "State": "OH"}, {"AddressLine1": "7769 CLEARWATER CT", "City": "MASON", "PostalCode": "45040", "State": "OH"}, {"AddressLine1": "10135 Meadowknoll Dr", "City": "LOVELAND", "PostalCode": "45140", "State": "OH"}, {"AddressLine1": "1509 US Highway 52", "City": "NEW RICHMOND", "PostalCode": "45157", "State": "OH"}, {"AddressLine1": "312 Quitman St", "City": "DAYTON", "PostalCode": "45410", "State": "OH"}, {"AddressLine1": "104 Mako Cir SE", "City": "NEW PHILADELPHIA", "PostalCode": "44663", "State": "OH"}, {"AddressLine1": "1039 SEBORN AVE", "City": "ZANESVILLE", "PostalCode": "43701", "State": "OH"}, {"AddressLine1": "528 Fink St", "City": "WILLARD", "PostalCode": "44890", "State": "OH"}, {"AddressLine1": "610 Hazel Ave", "City": "LIMA", "PostalCode": "45801", "State": "OH"}, {"AddressLine1": "809 Lincoln Ave NW", "City": "CARROLLTON", "PostalCode": "44615", "State": "OH"}, {"AddressLine1": "104 CLIFTON BLVD", "City": "TOLEDO", "PostalCode": "43607", "State": "OH"}, {"AddressLine1": "3363 Shiloh Springs Rd Apt D", "City": "TROTWOOD", "PostalCode": "45426", "State": "OH"}, {"AddressLine1": "3514 Dempsey Rd", "City": "WESTERVILLE", "PostalCode": "43081", "State": "OH"}, {"AddressLine1": "7121 Kirby Ave NE", "City": " CANTON", "PostalCode": "44721", "State": "OH"}, {"AddressLine1": "489 BELL HL", "City": "PORTSMOUTH", "PostalCode": "45662", "State": "OH"}, {"AddressLine1": "511 WALKER CT LOT 1575", "City": "NEWCOMERSTOWN", "PostalCode": "43832", "State": "OH"}, {"AddressLine1": "79640 Lamborn Rd", "City": "CADIZ", "PostalCode": "43907", "State": "OH"}, {"AddressLine1": "14452 Bass Lake Rd", "City": "NEWBURY", "PostalCode": "44065", "State": "OH"}, {"AddressLine1": "872 COLE AVE", "City": "AKRON", "PostalCode": "44306", "State": "OH"}, {"AddressLine1": "2725 Franklin Dr", "City": "MEDINA", "PostalCode": "44256", "State": "OH"}, {"AddressLine1": "1376 Country Club Dr", "City": "SALEM", "PostalCode": "44460", "State": "OH"}, {"AddressLine1": "2536 ATHENS SE DR", "City": "WARREN", "PostalCode": "44484", "State": "OH"}, {"AddressLine1": "817 ST-AGNES AVE", "City": "DAYTON", "PostalCode": "45402", "State": "OH"}, {"AddressLine1": "1821 Washington Blvd Lot 3", "City": "BELPRE", "PostalCode": "45714", "State": "OH"}, {"AddressLine1": "1297 E 18th Ave", "City": "COLUMBUS", "PostalCode": "43211", "State": "OH"}, {"AddressLine1": "2658 Ellis Ave NE", "City": " CANTON", "PostalCode": "44705", "State": "OH"}, {"AddressLine1": "516 Fairview Ave", "City": "COLUMBUS GROVE", "PostalCode": "45830", "State": "OH"}, {"AddressLine1": "23835 County Road M", "City": "FAYETTE", "PostalCode": "43521", "State": "OH"}, {"AddressLine1": "13726 State Route 66", "City": "FAYETTE", "PostalCode": "43521", "State": "OH"}, {"AddressLine1": "1329 Orrin St", "City": "AKRON", "PostalCode": "44320", "State": "OH"}, {"AddressLine1": "4230 Jackman Rd", "City": "TOLEDO", "PostalCode": "43612", "State": "OH"}, {"AddressLine1": "9002 Yale Ave", "City": "CLEVELAND", "PostalCode": "44108", "State": "OH"}, {"AddressLine1": "12334 Ashbury Ave", "City": "CLEVELAND", "PostalCode": "44106", "State": "OH"}, {"AddressLine1": "5125 Embassy Pl", "City": "DAYTON", "PostalCode": "45414", "State": "OH"}, {"AddressLine1": "1865 E SIEBENTHALER AVE", "City": "DAYTON", "PostalCode": "45414", "State": "OH"}, {"AddressLine1": "1211 ROSS AVE", "City": "CINCINNATI", "PostalCode": "45205", "State": "OH"}, {"AddressLine1": "78 Orchard Knoll Dr", "City": "CINCINNATI", "PostalCode": "45215", "State": "OH"}, {"AddressLine1": "1839 SCHROCK RD APT A", "City": "COLUMBUS", "PostalCode": "43229", "State": "OH"}, {"AddressLine1": "648 Beaker Pl", "City": "COLUMBUS", "PostalCode": "43213", "State": "OH"}, {"AddressLine1": "2310 CANYON TREE DR", "City": "COLUMBUS", "PostalCode": "43229", "State": "OH"}, {"AddressLine1": "592 BLENHEIM RD", "City": "COLUMBUS", "PostalCode": "43214", "State": "OH"}, {"AddressLine1": "171 Pine Ln", "City": "BARNESVILLE", "PostalCode": "43713", "State": "OH"}, {"AddressLine1": "9383 Sovereign Pl", "City": "THORNVILLE", "PostalCode": "43076", "State": "OH"}, {"AddressLine1": "307 Cleveland Ave NW Apt 302", "City": "CANTON", "PostalCode": "44702", "State": "OH"}, {"AddressLine1": "331 S Columbus St", "City": "LANCASTER", "PostalCode": "43130", "State": "OH"}, {"AddressLine1": "5744 Lyons Rd", "City": "CALEDONIA", "PostalCode": "43314", "State": "OH"}, {"AddressLine1": "611 Cynthia Dr", "City": "FAYETTE", "PostalCode": "43521", "State": "OH"}, {"AddressLine1": "13789 Arrowhead Trl", "City": "MIDDLEBURG HEIGHTS", "PostalCode": "44130", "State": "OH"}, {"AddressLine1": "223 E Main St", "City": "ORWELL", "PostalCode": "44076", "State": "OH"}, {"AddressLine1": "1972 Marsh Ln", "City": "PAINESVILLE", "PostalCode": "44077", "State": "OH"}, {"AddressLine1": "175 2nd St NE", "City": "BARBERTON", "PostalCode": "44203", "State": "OH"}, {"AddressLine1": "1807 S 12th St", "City": "BELOIT", "PostalCode": "44609", "State": "OH"}, {"AddressLine1": "3749 W WILLOW BCH", "City": "PORT CLINTON", "PostalCode": "43452", "State": "OH"}, {"AddressLine1": "09636 CONKLIN RD", "City": "CINCINNATI", "PostalCode": "45242", "State": "OH"}, {"AddressLine1": "03050 MICKEY", "City": "CINCINNATI", "PostalCode": "45204", "State": "OH"}, {"AddressLine1": "5804 STATE-RT-133", "City": "CLARKSVL", "PostalCode": "45113", "State": "OH"}, {"AddressLine1": "3341 RENAISSANCE BLVD", "City": "FRANKLIN", "PostalCode": "45005", "State": "OH"}, {"AddressLine1": "1816 LONDONDERRY DR", "City": "MIDDLETOWN", "PostalCode": "45042", "State": "OH"}, {"AddressLine1": "66 SHADOW LK", "City": "MASON", "PostalCode": "45040", "State": "OH"}, {"AddressLine1": "9195 CEDAR GATE DR", "City": "LOVELAND", "PostalCode": "45140", "State": "OH"}, {"AddressLine1": "3006 Hollybank Rd", "City": "REYNOLDSBURG", "PostalCode": "43068", "State": "OH"}, {"AddressLine1": "3156 Harshman Dr", "City": "REYNOLDSBURG", "PostalCode": "43068", "State": "OH"}, {"AddressLine1": "1884 E North Broadway St", "City": "COLUMBUS", "PostalCode": "43224", "State": "OH"}, {"AddressLine1": "3586 REED RD", "City": "UPPER ARLINGTON", "PostalCode": "43221", "State": "OH"}, {"AddressLine1": "111 Dillon St", "City": "IRONTON", "PostalCode": "45638", "State": "OH"}, {"AddressLine1": "1227 E Mansfield St", "City": "BUCYRUS", "PostalCode": "44820", "State": "OH"}, {"AddressLine1": "1091 Lanner St NW", "City": "NORTH CANTON", "PostalCode": "44720", "State": "OH"}, {"AddressLine1": "57 Dale Ave NW", "City": "STRASBURG", "PostalCode": "44680", "State": "OH"}, {"AddressLine1": "1662 Dundee Pl", "City": "COLUMBUS", "PostalCode": "43227", "State": "OH"}, {"AddressLine1": "1253 Diamond St NE", "City": " CANTON", "PostalCode": "44721", "State": "OH"}, {"AddressLine1": "907 WHEATLEY AVEAPT  5", "City": "DAYTON", "PostalCode": "45405", "State": "OH"}, {"AddressLine1": "853 PELLEY DR", "City": "CLEVELAND", "PostalCode": "44109", "State": "OH"}, {"AddressLine1": "1862 Beersford Rd", "City": "EAST CLEVELAND", "PostalCode": "44112", "State": "OH"}, {"AddressLine1": "12981 Clifton Blvd", "City": "LAKEWOOD", "PostalCode": "44107", "State": "OH"}, {"AddressLine1": "1323 Elmwood Ave", "City": "TOLEDO", "PostalCode": "43606", "State": "OH"}, {"AddressLine1": "4027 Gateway Dr", "City": "ENGLEWOOD", "PostalCode": "45322", "State": "OH"}, {"AddressLine1": "418 Woodland Dr", "City": "BELLEFONTN", "PostalCode": "43311", "State": "OH"}, {"AddressLine1": "320 Edwards Rd", "City": "CIRCLEVILLE", "PostalCode": "43113", "State": "OH"}, {"AddressLine1": "34575 Crew Rd", "City": "POMEROY", "PostalCode": "45769", "State": "OH"}, {"AddressLine1": "1040 Waycross Rd", "City": "CINCINNATI", "PostalCode": "45240", "State": "OH"}, {"AddressLine1": "1774 Linnet Ave", "City": "COLUMBUS", "PostalCode": "43223", "State": "OH"}, {"AddressLine1": "3260 E 7th Ave Apt C", "City": "COLUMBUS", "PostalCode": "43219", "State": "OH"}, {"AddressLine1": "362 Haymarket Rd", "City": "WEST JEFFERSON", "PostalCode": "43162", "State": "OH"}, {"AddressLine1": "26161 Rock St", "City": "COOLVILLE", "PostalCode": "45723", "State": "OH"}, {"AddressLine1": "31 Anna Marie Dr", "City": "LONDONDERRY", "PostalCode": "45647", "State": "OH"}, {"AddressLine1": "65 E WILLIAM ST APT 7", "City": "DELAWARE", "PostalCode": "43015", "State": "OH"}, {"AddressLine1": "8311 N County Road 31", "City": "TIFFIN", "PostalCode": "44883", "State": "OH"}, {"AddressLine1": "1027 Spring Ave NE", "City": " CANTON", "PostalCode": "44704", "State": "OH"}, {"AddressLine1": "545 N 5th St", "City": "TORONTO", "PostalCode": "43964", "State": "OH"}, {"AddressLine1": "623 Schneiders Crossing Rd NW Apt C", "City": "DOVER", "PostalCode": "44622", "State": "OH"}, {"AddressLine1": "484 Pleasant Grove Rd", "City": "ZANESVILLE", "PostalCode": "43701", "State": "OH"}, {"AddressLine1": "2050 Sara Lee Ave", "City": "CRIDERSVILLE", "PostalCode": "45806", "State": "OH"}, {"AddressLine1": "14920 HILLCREST DR", "City": "MOUNT ORAB", "PostalCode": "45154", "State": "OH"}, {"AddressLine1": "576 E 102ND STUPPER", "City": "CLEVELAND", "PostalCode": "44108", "State": "OH"}, {"AddressLine1": "4710 RUSSELL AVE", "City": "PARMA", "PostalCode": "44134", "State": "OH"}, {"AddressLine1": "428 Cary Jay Blvd", "City": "RICHMOND HEIGHTS", "PostalCode": "44143", "State": "OH"}, {"AddressLine1": "2516 Brantwood Dr", "City": "WESTLAKE", "PostalCode": "44145", "State": "OH"}, {"AddressLine1": "10226 Newton Falls Rd", "City": "NEWTON FALLS", "PostalCode": "44444", "State": "OH"}, {"AddressLine1": "616 N Murray St", "City": "SPRINGFIELD", "PostalCode": "45503", "State": "OH"}, {"AddressLine1": "567 NEALE SW AVE", "City": "MASSILLON", "PostalCode": "44647", "State": "OH"}, {"AddressLine1": "1756 Wheeler Ave", "City": "EAST CLEVELAND", "PostalCode": "44112", "State": "OH"}, {"AddressLine1": "68 S McGee St", "City": "DAYTON", "PostalCode": "45403", "State": "OH"}, {"AddressLine1": "10447 ALLEN RD", "City": "WASH   CH", "PostalCode": "43160", "State": "OH"}, {"AddressLine1": "1890 S Breiel Blvd", "City": "MIDDLETOWN", "PostalCode": "45044", "State": "OH"}, {"AddressLine1": "2323 OHIO AVE", "City": "CINCINNATI", "PostalCode": "45219", "State": "OH"}, {"AddressLine1": "869 Harwick Dr", "City": "CINCINNATI", "PostalCode": "45240", "State": "OH"}, {"AddressLine1": "1020 CHAPEL ST", "City": "CINCINNATI", "PostalCode": "45206", "State": "OH"}, {"AddressLine1": "4839 GEMSTONE CT", "City": "MASON", "PostalCode": "45040", "State": "OH"}]
