[{"AddressLine1": "44 Winslow Rd", "City": "QUINCY", "PostalCode": "02171", "State": "MA"}, {"AddressLine1": "50 Franklin St", "City": "NEWBURYPORT", "PostalCode": "01950", "State": "MA"}, {"AddressLine1": "97 Eagle Rock Rd", "City": "STOUGHTON", "PostalCode": "02072", "State": "MA"}, {"AddressLine1": "22 MONUMENT ST APT  2", "City": "MEDFORD", "PostalCode": "02155", "State": "MA"}, {"AddressLine1": "11104 CHESTNUT W", "City": "RANDOLPH", "PostalCode": "02368", "State": "MA"}, {"AddressLine1": "66 Birch Dr", "City": "RANDOLPH", "PostalCode": "02368", "State": "MA"}, {"AddressLine1": "61 HAWTHORNE ST APT  2", "City": "LYNN", "PostalCode": "01902", "State": "MA"}, {"AddressLine1": "88 Newfield St Apt 3", "City": "PLYMOUTH", "PostalCode": "02360", "State": "MA"}, {"AddressLine1": "24 Tiffany Dr", "City": "LOWELL", "PostalCode": "01852", "State": "MA"}, {"AddressLine1": "105 Mendon St", "City": "UPTON", "PostalCode": "01568", "State": "MA"}, {"AddressLine1": "158 Crawford St", "City": "LOWELL", "PostalCode": "01854", "State": "MA"}, {"AddressLine1": "15 Sinnott St", "City": "W BRIDGEWATER", "PostalCode": "02379", "State": "MA"}, {"AddressLine1": "47 PITMAN ST APT 3", "City": "FALL RIVER", "PostalCode": "02723", "State": "MA"}, {"AddressLine1": "990 Centre St", "City": "NEWTON CTR", "PostalCode": "02459", "State": "MA"}, {"AddressLine1": "78 Chester Ln", "City": "WALTHAM", "PostalCode": "02452", "State": "MA"}, {"AddressLine1": "72 Babson St", "City": "MATTAPAN", "PostalCode": "02126", "State": "MA"}, {"AddressLine1": "44 ROBERT-FORD RD C", "City": "WATERTOWN", "PostalCode": "02472", "State": "MA"}, {"AddressLine1": "63 Cottage St Apt 7", "City": "NEWTON UPPER FALLS", "PostalCode": "02464", "State": "MA"}, {"AddressLine1": "5 Thayer St", "City": "FRAMINGHAM", "PostalCode": "01702", "State": "MA"}, {"AddressLine1": "27 CROSS ST 2", "City": "WALTHAM", "PostalCode": "02453", "State": "MA"}, {"AddressLine1": "6 Lincoln Ct", "City": "SAUGUS", "PostalCode": "01906", "State": "MA"}, {"AddressLine1": "17 SUPERIOR RD APT 3", "City": "WORCESTER", "PostalCode": "01604", "State": "MA"}, {"AddressLine1": "16 WILDWOOD ST 2LT", "City": "DORCHESTER", "PostalCode": "02124", "State": "MA"}, {"AddressLine1": "41 PLEASANT ST APT 1", "City": "ATTLEBORO", "PostalCode": "02703", "State": "MA"}, {"AddressLine1": "3 Woodland St Apt 10", "City": "LAWRENCE", "PostalCode": "01841", "State": "MA"}, {"AddressLine1": "29 YOUNG RD LOT 73", "City": "FOXBORO", "PostalCode": "02035", "State": "MA"}, {"AddressLine1": "25 Champagne Rd", "City": "GARDNER", "PostalCode": "01440", "State": "MA"}, {"AddressLine1": "28 Woodvale St", "City": "BROCKTON", "PostalCode": "02301", "State": "MA"}, {"AddressLine1": "285 E Main St Apt 28", "City": "NORTON", "PostalCode": "02766", "State": "MA"}, {"AddressLine1": "6 Janet St", "City": "NORTON", "PostalCode": "02766", "State": "MA"}, {"AddressLine1": "21 MANSFIELD ST APT  2", "City": "GLOUCESTER", "PostalCode": "01930", "State": "MA"}, {"AddressLine1": "23 DEAN ST    COGEN", "City": "SEEKONK", "PostalCode": "02771", "State": "MA"}, {"AddressLine1": "739 Florence Rd", "City": "FLORENCE", "PostalCode": "01062", "State": "MA"}, {"AddressLine1": "12 Cabot St", "City": "BROCKTON", "PostalCode": "02302", "State": "MA"}, {"AddressLine1": "11 Sever St Apt 110", "City": "WORCESTER", "PostalCode": "01609", "State": "MA"}, {"AddressLine1": "11 Lakeshore Drive Ext", "City": "W BROOKFIELD", "PostalCode": "01585", "State": "MA"}, {"AddressLine1": "176 Lakeview St", "City": "N BILLERICA", "PostalCode": "01862", "State": "MA"}, {"AddressLine1": "6 WILSON TER APT 2R", "City": "LYNN", "PostalCode": "01902", "State": "MA"}, {"AddressLine1": "12 FRENIER AVE FL 2 2ND", "City": "ATTLEBORO", "PostalCode": "02703", "State": "MA"}, {"AddressLine1": "114 JEFFERSON AVE APT  3", "City": "EVERETT", "PostalCode": "02149", "State": "MA"}, {"AddressLine1": "48 George Hill Rd", "City": "GRAFTON", "PostalCode": "01519", "State": "MA"}, {"AddressLine1": "122 BROADMEADOW RD APT BBLDG 4", "City": "MARLBOROUGH", "PostalCode": "01752", "State": "MA"}, {"AddressLine1": "59  GARFIELD ST", "City": "GREENFIELD", "PostalCode": "01301", "State": "MA"}, {"AddressLine1": "34  GREENLEAVES DRAPT 8", "City": "HADLEY", "PostalCode": "01035", "State": "MA"}, {"AddressLine1": "112  SPADINA PKWY", "City": "PITTSFIELD", "PostalCode": "01201", "State": "MA"}, {"AddressLine1": "21 Patricia Ave", "City": "PITTSFIELD", "PostalCode": "01201", "State": "MA"}, {"AddressLine1": "32  LEHIGH ST", "City": "LUDLOW", "PostalCode": "01056", "State": "MA"}, {"AddressLine1": "65 OLD MEETING HSE ST BLDG 2", "City": "NORTON", "PostalCode": "02766", "State": "MA"}, {"AddressLine1": "88 Arch St Apt 2", "City": "FALL RIVER", "PostalCode": "02724", "State": "MA"}, {"AddressLine1": "144 BRANCH HILL RD POLE 2", "City": "HEATH", "PostalCode": "01346", "State": "MA"}, {"AddressLine1": "46 Park St Apt 3", "City": "LOWELL", "PostalCode": "01852", "State": "MA"}, {"AddressLine1": "45 Hilton Ave", "City": "WORCESTER", "PostalCode": "01604", "State": "MA"}, {"AddressLine1": "1193 FURNACE BROOK PKWYAPT 7", "City": "QUINCY", "PostalCode": "02169", "State": "MA"}, {"AddressLine1": "2 BEVERLY RD", "City": "MARLBOROUGH", "PostalCode": "01752", "State": "MA"}, {"AddressLine1": "210 South St", "City": "SOMERSET", "PostalCode": "02726", "State": "MA"}, {"AddressLine1": "84B CENTRAL AVE FL 1", "City": "SALISBURY BCH", "PostalCode": "01952", "State": "MA"}, {"AddressLine1": "22 Tucker Ave", "City": "PEPPERELL", "PostalCode": "01463", "State": "MA"}, {"AddressLine1": "34 Chickering Rd", "City": "SPENCER", "PostalCode": "01562", "State": "MA"}, {"AddressLine1": "5 GROUSE-RUN RD", "City": "TRURO", "PostalCode": "02666", "State": "MA"}, {"AddressLine1": "124  HOLY CROSS CIR", "City": "LUDLOW", "PostalCode": "01056", "State": "MA"}, {"AddressLine1": "38 Haskell St", "City": "FALL RIVER", "PostalCode": "02720", "State": "MA"}, {"AddressLine1": "81 S WALKER ST FL 1", "City": "LOWELL", "PostalCode": "01851", "State": "MA"}, {"AddressLine1": "32 Lander St Apt 3", "City": "LYNN", "PostalCode": "01902", "State": "MA"}, {"AddressLine1": "42 WATERS AVE APT  2", "City": "EVERETT", "PostalCode": "02149", "State": "MA"}, {"AddressLine1": "1422 Bridge St", "City": "DRACUT", "PostalCode": "01826", "State": "MA"}, {"AddressLine1": "80 Damon Rd Apt 6103", "City": "NORTHAMPTON", "PostalCode": "01060", "State": "MA"}, {"AddressLine1": "50 NICHOLS ST APT 1A POLE 4", "City": "GARDNER", "PostalCode": "01440", "State": "MA"}, {"AddressLine1": "33B NEW OCEAN ST", "City": "SWAMPSCOTT", "PostalCode": "01907", "State": "MA"}, {"AddressLine1": "104 Smith St # 1", "City": "NEW BEDFORD", "PostalCode": "02740", "State": "MA"}, {"AddressLine1": "35 RED-BROOK RD", "City": "WAREHAM", "PostalCode": "02571", "State": "MA"}, {"AddressLine1": "102 Glades Rd Apt 2", "City": "SCITUATE", "PostalCode": "02066", "State": "MA"}, {"AddressLine1": "375 MARY-CHASE RD", "City": "EASTHAM", "PostalCode": "02642", "State": "MA"}, {"AddressLine1": "86 Sunset Ave Apt 2", "City": "LAWRENCE", "PostalCode": "01841", "State": "MA"}, {"AddressLine1": "20 Riverside Dr", "City": "WRENTHAM", "PostalCode": "02093", "State": "MA"}, {"AddressLine1": "405 HOWARD ST FL 2", "City": "LAWRENCE", "PostalCode": "01841", "State": "MA"}, {"AddressLine1": "25 DANIEL DR", "City": "NORTH EASTON", "PostalCode": "02356", "State": "MA"}, {"AddressLine1": "3 SARAH-SHERMAN LN", "City": "MARION", "PostalCode": "02738", "State": "MA"}, {"AddressLine1": "3002 STEARNS-HILL RD", "City": "WALTHAM", "PostalCode": "02451", "State": "MA"}, {"AddressLine1": "8 Russell Cir", "City": "NATICK", "PostalCode": "01760", "State": "MA"}, {"AddressLine1": "19 High St", "City": "SHARON", "PostalCode": "02067", "State": "MA"}, {"AddressLine1": "273 Cambridge Rd Apt 511", "City": "WOBURN", "PostalCode": "01801", "State": "MA"}, {"AddressLine1": "3 OLD-COLONY LN", "City": "ACTON", "PostalCode": "01720", "State": "MA"}, {"AddressLine1": "16 Millbrook Rd", "City": "MEDFIELD", "PostalCode": "02052", "State": "MA"}, {"AddressLine1": "11 MAITLAND ST 1", "City": "MILTON", "PostalCode": "02186", "State": "MA"}, {"AddressLine1": "644 Adams St", "City": "MILTON", "PostalCode": "02186", "State": "MA"}, {"AddressLine1": "6 Post Ln", "City": "DEDHAM", "PostalCode": "02026", "State": "MA"}, {"AddressLine1": "273 Cambridge Rd Apt 511", "City": "WOBURN", "PostalCode": "01801", "State": "MA"}, {"AddressLine1": "52 RAYMOND ST 2", "City": "ALLSTON", "PostalCode": "02134", "State": "MA"}, {"AddressLine1": "22 COLBOURNE CST 2", "City": "BROOKLINE", "PostalCode": "02445", "State": "MA"}, {"AddressLine1": "95 DEERING RD 2", "City": "MATTAPAN", "PostalCode": "02126", "State": "MA"}, {"AddressLine1": "70 Hollingsworth St", "City": "MATTAPAN", "PostalCode": "02126", "State": "MA"}, {"AddressLine1": "37 Rector Rd", "City": "BOSTON", "PostalCode": "02126", "State": "MA"}, {"AddressLine1": "494 NORFOLK ST 2", "City": "MATTAPAN", "PostalCode": "02126", "State": "MA"}, {"AddressLine1": "34 GILMAN ST 1", "City": "SOMERVILLE", "PostalCode": "02145", "State": "MA"}, {"AddressLine1": "11 Palm St", "City": "FALL RIVER", "PostalCode": "02724", "State": "MA"}, {"AddressLine1": "21 Rice Rd", "City": "MAYNARD", "PostalCode": "01754", "State": "MA"}, {"AddressLine1": "441 BEACON ST 1F", "City": "BOSTON", "PostalCode": "02115", "State": "MA"}, {"AddressLine1": "408 STEVENS ST FL 1", "City": "LOWELL", "PostalCode": "01851", "State": "MA"}, {"AddressLine1": "78 W-CONCORD ST S-1", "City": "BOSTON", "PostalCode": "02118", "State": "MA"}, {"AddressLine1": "5 Bemis Rd", "City": "HUBBARDSTON", "PostalCode": "01452", "State": "MA"}, {"AddressLine1": "254 W 6TH ST APT 1", "City": "LOWELL", "PostalCode": "01850", "State": "MA"}, {"AddressLine1": "35 Winthrop St", "City": "REHOBOTH", "PostalCode": "02769", "State": "MA"}, {"AddressLine1": "86 INDIANRIDGE TER", "City": "WESTFORD", "PostalCode": "01886", "State": "MA"}, {"AddressLine1": "45 LOCUST ST APT 213 BW N", "City": "HAVERHILL", "PostalCode": "01830", "State": "MA"}, {"AddressLine1": "109 Prospect St", "City": "NEWBURYPORT", "PostalCode": "01950", "State": "MA"}, {"AddressLine1": "55 Miscoe Brook Dr Lot 33", "City": "WRENTHAM", "PostalCode": "02093", "State": "MA"}, {"AddressLine1": "213 Holmes St", "City": "HANSON", "PostalCode": "02341", "State": "MA"}, {"AddressLine1": "50 Earle St", "City": "FALL RIVER", "PostalCode": "02723", "State": "MA"}, {"AddressLine1": "39  LONG BOW LN   W", "City": "BECKET", "PostalCode": "01223", "State": "MA"}, {"AddressLine1": "137  BELLEVUE AVE", "City": "SPRINGFIELD", "PostalCode": "01108", "State": "MA"}, {"AddressLine1": "297  FOUNTAIN ST", "City": "SPRINGFIELD", "PostalCode": "01108", "State": "MA"}, {"AddressLine1": "12 Franklin St", "City": "SHELBURNE FALLS", "PostalCode": "01370", "State": "MA"}, {"AddressLine1": "48  DEPONTE DR", "City": "LUDLOW", "PostalCode": "01056", "State": "MA"}, {"AddressLine1": "44  CHAPEL RD", "City": "AMHERST", "PostalCode": "01002", "State": "MA"}, {"AddressLine1": "601  DALTON DIVISION RD", "City": "DALTON", "PostalCode": "01226", "State": "MA"}, {"AddressLine1": "187  SUMNER AVEFL 2", "City": "SPRINGFIELD", "PostalCode": "01108", "State": "MA"}, {"AddressLine1": "70  BELLEVUE AVE", "City": "SPRINGFIELD", "PostalCode": "01108", "State": "MA"}, {"AddressLine1": "655  BLANDFORD RD", "City": "GRANVILLE", "PostalCode": "01034", "State": "MA"}, {"AddressLine1": "145 Primrose Dr", "City": "LONGMEADOW", "PostalCode": "01106", "State": "MA"}, {"AddressLine1": "77  MOXON ST", "City": "INDIAN ORCHARD", "PostalCode": "01151", "State": "MA"}, {"AddressLine1": "181  PONDVIEW DR", "City": "AMHERST", "PostalCode": "01002", "State": "MA"}, {"AddressLine1": "247  DORSET ST", "City": "SPRINGFIELD", "PostalCode": "01108", "State": "MA"}, {"AddressLine1": "114  PRYNNWOOD RD", "City": "LONGMEADOW", "PostalCode": "01106", "State": "MA"}, {"AddressLine1": "11  LYMAN RD", "City": "WESTHAMPTON", "PostalCode": "01027", "State": "MA"}, {"AddressLine1": "202  ERIN LNLOT 32", "City": "LUDLOW", "PostalCode": "01056", "State": "MA"}, {"AddressLine1": "2108 Palmer Rd", "City": "THREE RIVERS", "PostalCode": "01080", "State": "MA"}, {"AddressLine1": "121 THOMPSON RD", "City": "WEBSTER", "PostalCode": "01570", "State": "MA"}, {"AddressLine1": "45 JACKSON ST APT S2", "City": "LYNN", "PostalCode": "01902", "State": "MA"}, {"AddressLine1": "67 NEWHALL ST    COGEN", "City": "MALDEN", "PostalCode": "02148", "State": "MA"}, {"AddressLine1": "219 JACKSON ST UNIT 311", "City": "LOWELL", "PostalCode": "01852", "State": "MA"}, {"AddressLine1": "12 MIDDLE ST APT 2", "City": "GLOUCESTER", "PostalCode": "01930", "State": "MA"}, {"AddressLine1": "138 Metzler Rd", "City": "E BRIDGEWATER", "PostalCode": "02333", "State": "MA"}, {"AddressLine1": "191 CRESTWOOD DR", "City": "GARDNER", "PostalCode": "01440", "State": "MA"}, {"AddressLine1": "435 Florence Rd", "City": "FLORENCE", "PostalCode": "01062", "State": "MA"}, {"AddressLine1": "28 Fountain Ln Apt 14", "City": "WEYMOUTH", "PostalCode": "02190", "State": "MA"}, {"AddressLine1": "24 VARNIAI ST POLE 6441", "City": "METHUEN", "PostalCode": "01844", "State": "MA"}, {"AddressLine1": "3 SAND PIPER LN LOT 3", "City": "OXFORD", "PostalCode": "01540", "State": "MA"}, {"AddressLine1": "28 BERRY ST", "City": "PLAINVILLE", "PostalCode": "02762", "State": "MA"}, {"AddressLine1": "19 Hearthstone Cir", "City": "WAYLAND", "PostalCode": "01778", "State": "MA"}, {"AddressLine1": "117 PLAIN RD", "City": "WESTFORD", "PostalCode": "01886", "State": "MA"}, {"AddressLine1": "94 MORNINGSIDE LN", "City": "NORTH ANDOVER", "PostalCode": "01845", "State": "MA"}, {"AddressLine1": "195 QUEQUECHAN STAPT 1", "City": "FALL RIVER", "PostalCode": "02723", "State": "MA"}, {"AddressLine1": "63 Railroad St", "City": "LAWRENCE", "PostalCode": "01841", "State": "MA"}, {"AddressLine1": "112  PINEWOOD DR", "City": "LONGMEADOW", "PostalCode": "01106", "State": "MA"}, {"AddressLine1": "122  MASSASOIT STFL 1", "City": "SPRINGFIELD", "PostalCode": "01107", "State": "MA"}, {"AddressLine1": "43 Bayberry Dr", "City": "GARDNER", "PostalCode": "01440", "State": "MA"}, {"AddressLine1": "213 Greenwich Rd", "City": "WARE", "PostalCode": "01082", "State": "MA"}, {"AddressLine1": "36 South St", "City": "THREE RIVERS", "PostalCode": "01080", "State": "MA"}, {"AddressLine1": "1251 MAIN ST   SOLAR", "City": "WILLIAMSTOWN", "PostalCode": "01267", "State": "MA"}, {"AddressLine1": "16 Wildewood Ter", "City": "FRAMINGHAM", "PostalCode": "01701", "State": "MA"}, {"AddressLine1": "38 Curtis St", "City": "WESTWOOD", "PostalCode": "02090", "State": "MA"}, {"AddressLine1": "34 Forge Rd", "City": "ASSONET", "PostalCode": "02702", "State": "MA"}, {"AddressLine1": "79 THOMPSON ST 1E", "City": "NEW BEDFRD", "PostalCode": "02740", "State": "MA"}, {"AddressLine1": "2 S Willow St", "City": "ADAMS", "PostalCode": "01220", "State": "MA"}, {"AddressLine1": "14 Liberty Rd", "City": "MARSHFIELD", "PostalCode": "02050", "State": "MA"}, {"AddressLine1": "37 Anne St", "City": "EAST LONGMEADOW", "PostalCode": "01028", "State": "MA"}, {"AddressLine1": "95 Chilton Ln", "City": "E BREWSTER", "PostalCode": "02631", "State": "MA"}, {"AddressLine1": "167 FERRY ST BSMT LEFT", "City": "EVERETT", "PostalCode": "02149", "State": "MA"}, {"AddressLine1": "74 MOZART ST 3", "City": "JAMAICA PL", "PostalCode": "02130", "State": "MA"}, {"AddressLine1": "6 Hartwell St Apt 1", "City": "DORCHESTER", "PostalCode": "02121", "State": "MA"}, {"AddressLine1": "18 OWEN ST 1", "City": "MATTAPAN", "PostalCode": "02126", "State": "MA"}, {"AddressLine1": "102 King St", "City": "NORFOLK", "PostalCode": "02056", "State": "MA"}, {"AddressLine1": "6 Newport St", "City": "ARLINGTON", "PostalCode": "02476", "State": "MA"}, {"AddressLine1": "169 Dickerman Rd", "City": "NEWTON HLD", "PostalCode": "02461", "State": "MA"}, {"AddressLine1": "11 HANSBOROUGH ST 2", "City": "DORCHESTER", "PostalCode": "02124", "State": "MA"}, {"AddressLine1": "1001 N MAIN ST APT 4", "City": "RANDOLPH", "PostalCode": "02368", "State": "MA"}, {"AddressLine1": "11 Edgewood Ter", "City": "METHUEN", "PostalCode": "01844", "State": "MA"}, {"AddressLine1": "16 Winthrop St", "City": "HOLLISTON", "PostalCode": "01746", "State": "MA"}, {"AddressLine1": "102 DELMONT AVE APT 4", "City": "LOWELL", "PostalCode": "01852", "State": "MA"}, {"AddressLine1": "830 Montello St", "City": "BROCKTON", "PostalCode": "02301", "State": "MA"}, {"AddressLine1": "67 Orchard Hill Dr Bldg E", "City": "OXFORD", "PostalCode": "01540", "State": "MA"}, {"AddressLine1": "1B SANDPIPER WAY", "City": "SALISBURY", "PostalCode": "01952", "State": "MA"}, {"AddressLine1": "39 Powell St", "City": "STOUGHTON", "PostalCode": "02072", "State": "MA"}, {"AddressLine1": "302 N Quincy St", "City": "BROCKTON", "PostalCode": "02302", "State": "MA"}, {"AddressLine1": "222 Perryville Rd", "City": "REHOBOTH", "PostalCode": "02769", "State": "MA"}, {"AddressLine1": "26 Lassonde St", "City": "WESTPORT", "PostalCode": "02790", "State": "MA"}, {"AddressLine1": "15  MARGERIE STAPT 6", "City": "LEE", "PostalCode": "01238", "State": "MA"}, {"AddressLine1": "25  FRANKLIN ST", "City": "LEE", "PostalCode": "01238", "State": "MA"}, {"AddressLine1": "90 George Lamb Rd", "City": "LEYDEN", "PostalCode": "01337", "State": "MA"}, {"AddressLine1": "224  MAIN ST", "City": "INDIAN ORCHARD", "PostalCode": "01151", "State": "MA"}, {"AddressLine1": "253  WAHCONAH STAPT 29B", "City": "PITTSFIELD", "PostalCode": "01201", "State": "MA"}, {"AddressLine1": "38  RHINEBECK AVE", "City": "SPRINGFIELD", "PostalCode": "01129", "State": "MA"}, {"AddressLine1": "58 N EAST STAPT 5-7", "City": "AMHERST", "PostalCode": "01002", "State": "MA"}, {"AddressLine1": "218 Chapin St", "City": "LUDLOW", "PostalCode": "01056", "State": "MA"}, {"AddressLine1": "721 Morgan Rd", "City": "WEST SPRINGFIELD", "PostalCode": "01089", "State": "MA"}, {"AddressLine1": "51  MERO ST", "City": "LUDLOW", "PostalCode": "01056", "State": "MA"}, {"AddressLine1": "288 Connecticut Ave", "City": "PITTSFIELD", "PostalCode": "01201", "State": "MA"}, {"AddressLine1": "13  HOCKANUM RD", "City": "HADLEY", "PostalCode": "01035", "State": "MA"}, {"AddressLine1": "767 Main Rd", "City": "GRANVILLE", "PostalCode": "01034", "State": "MA"}, {"AddressLine1": "77 Kim Ter", "City": "STOUGHTON", "PostalCode": "02072", "State": "MA"}, {"AddressLine1": "928 WARREN AVE APT 3", "City": "BROCKTON", "PostalCode": "02301", "State": "MA"}, {"AddressLine1": "3 Pinebrook Ln Apt 2", "City": "SOUTH EASTON", "PostalCode": "02375", "State": "MA"}, {"AddressLine1": "2 Elliott St", "City": "WESTMINSTER", "PostalCode": "01473", "State": "MA"}, {"AddressLine1": "132 MILLBROOK DRLOT 6", "City": "E LONGMEADOW", "PostalCode": "01028", "State": "MA"}, {"AddressLine1": "50 Dawns Ter", "City": "SOMERSET", "PostalCode": "02726", "State": "MA"}, {"AddressLine1": "57 Broad St", "City": "SALEM", "PostalCode": "01970", "State": "MA"}, {"AddressLine1": "963 HANCOCK ST APT D3", "City": "WOLLASTON", "PostalCode": "02170", "State": "MA"}, {"AddressLine1": "37 Janice Rd", "City": "SOUTH YARMOUTH", "PostalCode": "02664", "State": "MA"}, {"AddressLine1": "99 High St", "City": "ANDOVER", "PostalCode": "01810", "State": "MA"}, {"AddressLine1": "32 WILDWOOD PTH", "City": "W YARMOUTH", "PostalCode": "02673", "State": "MA"}, {"AddressLine1": "6 Stockbridge St", "City": "WEBSTER", "PostalCode": "01570", "State": "MA"}, {"AddressLine1": "53 HIGHLAND RD POLE 7", "City": "CHARLTON", "PostalCode": "01507", "State": "MA"}, {"AddressLine1": "5 WAKEFIELD DR LOT 3L3   COGEN", "City": "CHARLTON", "PostalCode": "01507", "State": "MA"}, {"AddressLine1": "3 Whippoorwill Way", "City": "WAREHAM", "PostalCode": "02571", "State": "MA"}, {"AddressLine1": "80 LONGNOOK RD T131", "City": "TRURO", "PostalCode": "02666", "State": "MA"}, {"AddressLine1": "179 Concord Ln", "City": "OSTERVILLE", "PostalCode": "02655", "State": "MA"}, {"AddressLine1": "23 Bramblebush Dr", "City": "COTUIT", "PostalCode": "02635", "State": "MA"}, {"AddressLine1": "238 WILMARTH ST", "City": "ATTLEBORO", "PostalCode": "02703", "State": "MA"}, {"AddressLine1": "28 Jennie Ln", "City": "EDGARTOWN", "PostalCode": "02539", "State": "MA"}, {"AddressLine1": "15 TURTLE-BROOK WAY", "City": "MEDFIELD", "PostalCode": "02052", "State": "MA"}, {"AddressLine1": "31 Glenhill Rd", "City": "MATTAPAN", "PostalCode": "02126", "State": "MA"}, {"AddressLine1": "16 Fern Way", "City": "BEDFORD", "PostalCode": "01730", "State": "MA"}, {"AddressLine1": "15 FLINT ST", "City": "SALEM", "PostalCode": "01970", "State": "MA"}, {"AddressLine1": "37 ADAMSON ST 1", "City": "ALLSTON", "PostalCode": "02134", "State": "MA"}, {"AddressLine1": "137 FRANKLIN ST 303", "City": "STONEHAM", "PostalCode": "02180", "State": "MA"}, {"AddressLine1": "2 Sterling Ln", "City": "WALPOLE", "PostalCode": "02081", "State": "MA"}, {"AddressLine1": "70 Webster St", "City": "WHITMAN", "PostalCode": "02382", "State": "MA"}, {"AddressLine1": "219 Hornbine Rd", "City": "REHOBOTH", "PostalCode": "02769", "State": "MA"}, {"AddressLine1": "35  TAMARACK DR", "City": "AMHERST", "PostalCode": "01002", "State": "MA"}, {"AddressLine1": "15 Appletree Pt", "City": "PITTSFIELD", "PostalCode": "01201", "State": "MA"}, {"AddressLine1": "25 MARSH HILL RDLOT 17", "City": "BRIMFIELD", "PostalCode": "01010", "State": "MA"}, {"AddressLine1": "42 Avon Cir", "City": "NEEDHAM", "PostalCode": "02494", "State": "MA"}, {"AddressLine1": "4 Sherwood Dr", "City": "BEDFORD", "PostalCode": "01730", "State": "MA"}, {"AddressLine1": "29 Hill St", "City": "MEDWAY", "PostalCode": "02053", "State": "MA"}, {"AddressLine1": "86  WITHERIDGE ST", "City": "FEEDING HILLS", "PostalCode": "01030", "State": "MA"}, {"AddressLine1": "174 Squassick Rd", "City": "WEST SPRINGFIELD", "PostalCode": "01089", "State": "MA"}, {"AddressLine1": "289  TANGLEWOOD DR", "City": "LONGMEADOW", "PostalCode": "01106", "State": "MA"}, {"AddressLine1": "12 Parkview Rd Lot 44", "City": "FRANKLIN", "PostalCode": "02038", "State": "MA"}, {"AddressLine1": "6 VILLAGE LN APT 8", "City": "TYNGSBORO", "PostalCode": "01879", "State": "MA"}, {"AddressLine1": "83 Orchard St", "City": "BELCHERTOWN", "PostalCode": "01007", "State": "MA"}, {"AddressLine1": "11 HERSEY ST APT 1L", "City": "SALEM", "PostalCode": "01970", "State": "MA"}, {"AddressLine1": "68 WARE ST", "City": "W BROOKFIELD", "PostalCode": "01585", "State": "MA"}, {"AddressLine1": "19 FULLER ST", "City": "GLOUCESTER", "PostalCode": "01930", "State": "MA"}, {"AddressLine1": "6 WAYNE TER APT 2", "City": "WORCESTER", "PostalCode": "01603", "State": "MA"}, {"AddressLine1": "77 NEWHALL AVEAPT 207", "City": "SAUGUS", "PostalCode": "01906", "State": "MA"}, {"AddressLine1": "76 Foster St", "City": "BROCKTON", "PostalCode": "02301", "State": "MA"}, {"AddressLine1": "112 SPYGLASS-HILL DR", "City": "ASHLAND", "PostalCode": "01721", "State": "MA"}, {"AddressLine1": "5 Milford St", "City": "PLYMOUTH", "PostalCode": "02360", "State": "MA"}, {"AddressLine1": "695 Mayflower St", "City": "DUXBURY", "PostalCode": "02332", "State": "MA"}, {"AddressLine1": "107 Shawmut St", "City": "EAST WEYMOUTH", "PostalCode": "02189", "State": "MA"}, {"AddressLine1": "112 Middle St Apt 26", "City": "WEYMOUTH", "PostalCode": "02189", "State": "MA"}, {"AddressLine1": "63 Earles Way", "City": "CHATHAM", "PostalCode": "02633", "State": "MA"}, {"AddressLine1": "116 Conant St", "City": "BEVERLY", "PostalCode": "01915", "State": "MA"}, {"AddressLine1": "1037 Pitchers Way", "City": "HYANNIS", "PostalCode": "02601", "State": "MA"}, {"AddressLine1": "2 Bradford Pl", "City": "LOWELL", "PostalCode": "01850", "State": "MA"}, {"AddressLine1": "33 Pond St", "City": "CENTERVIL", "PostalCode": "02632", "State": "MA"}, {"AddressLine1": "259 OLD-MAIN RD", "City": "N FALMOUTH", "PostalCode": "02556", "State": "MA"}, {"AddressLine1": "348A W-CHOP LN CTG", "City": "VINE HAVEN", "PostalCode": "02568", "State": "MA"}, {"AddressLine1": "12 Nonamessett Rd", "City": "EDGARTOWN", "PostalCode": "02539", "State": "MA"}, {"AddressLine1": "11 BRIARWOOD LN T HSE", "City": "MARLBOROUGH", "PostalCode": "01752", "State": "MA"}, {"AddressLine1": "115 Garden St", "City": "NEEDHAM", "PostalCode": "02492", "State": "MA"}, {"AddressLine1": "74 Washington Ave", "City": "NATICK", "PostalCode": "01760", "State": "MA"}, {"AddressLine1": "15 Eliot Hill Rd", "City": "NATICK", "PostalCode": "01760", "State": "MA"}, {"AddressLine1": "20 HAMILTON ST 1", "City": "DORCHESTER", "PostalCode": "02125", "State": "MA"}, {"AddressLine1": "26 Wayne St", "City": "DORCHESTER", "PostalCode": "02121", "State": "MA"}, {"AddressLine1": "107 ROSSMORE RD 2", "City": "JAMAICA PL", "PostalCode": "02130", "State": "MA"}, {"AddressLine1": "68 Lexington St", "City": "BURLINGTON", "PostalCode": "01803", "State": "MA"}, {"AddressLine1": "64 Carlisle Rd", "City": "BEDFORD", "PostalCode": "01730", "State": "MA"}, {"AddressLine1": "528 GREAT-PLAIN AVE", "City": "NEEDHAM", "PostalCode": "02492", "State": "MA"}, {"AddressLine1": "35 JOHNSTON RD 1", "City": "DORCHESTER", "PostalCode": "02124", "State": "MA"}, {"AddressLine1": "196 Prospect St", "City": "ASHLAND", "PostalCode": "01721", "State": "MA"}, {"AddressLine1": "162 Lake Shore Rd", "City": "BRIGHTON", "PostalCode": "02135", "State": "MA"}, {"AddressLine1": "147 KELTON ST 510", "City": "ALLSTON", "PostalCode": "02134", "State": "MA"}, {"AddressLine1": "559 Charles St", "City": "FALL RIVER", "PostalCode": "02724", "State": "MA"}, {"AddressLine1": "172 PARIS ST 3", "City": "E BOSTON", "PostalCode": "02128", "State": "MA"}, {"AddressLine1": "54 TILLOTSON RD S-3", "City": "NEEDHAM", "PostalCode": "02494", "State": "MA"}, {"AddressLine1": "43 Highland Ct", "City": "NEEDHAM", "PostalCode": "02492", "State": "MA"}, {"AddressLine1": "840 Brockton Ave", "City": "ABINGTON", "PostalCode": "02351", "State": "MA"}, {"AddressLine1": "13 ELIZABETH STAPT 2", "City": "WORCESTER", "PostalCode": "01605", "State": "MA"}, {"AddressLine1": "557 PARK AVE APT  1", "City": "REVERE", "PostalCode": "02151", "State": "MA"}, {"AddressLine1": "38 Warren St", "City": "PLAINVILLE", "PostalCode": "02762", "State": "MA"}, {"AddressLine1": "70 Weatherly Dr Unit 4", "City": "SALEM", "PostalCode": "01970", "State": "MA"}, {"AddressLine1": "45 RICHMOND STFL 1", "City": "BROCKTON", "PostalCode": "02301", "State": "MA"}, {"AddressLine1": "64 GRANBY HTS POLE 14", "City": "GRANBY", "PostalCode": "01033", "State": "MA"}, {"AddressLine1": "403 Western Ave", "City": "GLOUCESTER", "PostalCode": "01930", "State": "MA"}, {"AddressLine1": "592 Beach St Apt 2", "City": "REVERE", "PostalCode": "02151", "State": "MA"}, {"AddressLine1": "31A Cotting St", "City": "MEDFORD", "PostalCode": "02155", "State": "MA"}, {"AddressLine1": "37 BROADWAY FL 2", "City": "HAVERHILL", "PostalCode": "01832", "State": "MA"}, {"AddressLine1": "28 ADAMS ST APT 206", "City": "WORCESTER", "PostalCode": "01604", "State": "MA"}, {"AddressLine1": "16 REYNARD ST", "City": "GLOUCESTER", "PostalCode": "01930", "State": "MA"}, {"AddressLine1": "95 Perkins St", "City": "BROCKTON", "PostalCode": "02302", "State": "MA"}, {"AddressLine1": "168  JASON ST", "City": "PITTSFIELD", "PostalCode": "01201", "State": "MA"}, {"AddressLine1": "63  CHURCHILL CRST", "City": "PITTSFIELD", "PostalCode": "01201", "State": "MA"}, {"AddressLine1": "8  CLYDE AVE", "City": "WEST SPRINGFIELD", "PostalCode": "01089", "State": "MA"}, {"AddressLine1": "68 Catalpa Ter", "City": "SPRINGFIELD", "PostalCode": "01119", "State": "MA"}, {"AddressLine1": "6 Charisma Dr", "City": "PITTSFIELD", "PostalCode": "01201", "State": "MA"}, {"AddressLine1": "52  MERRICK STAPT FRONT", "City": "WEST SPRINGFIELD", "PostalCode": "01089", "State": "MA"}, {"AddressLine1": "47  JUDITH ST", "City": "SPRINGFIELD", "PostalCode": "01118", "State": "MA"}, {"AddressLine1": "KENT RD LOT 1", "City": "LYNN", "PostalCode": "01904", "State": "MA"}, {"AddressLine1": "52  SALEM ST", "City": "WEST SPRINGFIELD", "PostalCode": "01089", "State": "MA"}, {"AddressLine1": "51 Main St Apt 1", "City": "NORTHBOROUGH", "PostalCode": "01532", "State": "MA"}, {"AddressLine1": "115 MAIN STAPT A6", "City": "BYFIELD", "PostalCode": "01922", "State": "MA"}, {"AddressLine1": "6000 AVALON DR APT 6106", "City": "RANDOLPH", "PostalCode": "02368", "State": "MA"}, {"AddressLine1": "8 GREELEY ST REAR", "City": "CLINTON", "PostalCode": "01510", "State": "MA"}, {"AddressLine1": "69 Cedar St Apt 4", "City": "MALDEN", "PostalCode": "02148", "State": "MA"}, {"AddressLine1": "64 BUTLER RD", "City": "WEYMOUTH", "PostalCode": "02189", "State": "MA"}, {"AddressLine1": "392 CENTRE ST 1", "City": "DORCHESTER", "PostalCode": "02122", "State": "MA"}, {"AddressLine1": "323 Trafton Rd", "City": "SPRINGFIELD", "PostalCode": "01108", "State": "MA"}, {"AddressLine1": "143 NORTH ST", "City": "NORFOLK", "PostalCode": "02056", "State": "MA"}, {"AddressLine1": "66 Roosevelt Rd", "City": "COTUIT", "PostalCode": "02635", "State": "MA"}]
