[{"AddressLine1": "5104 Tall Oaks Dr", "City": "RINGWOOD", "PostalCode": "60072", "State": "IL"}, {"AddressLine1": "3622 Lookout Dr", "City": "ROCKFORD", "PostalCode": "61109", "State": "IL"}, {"AddressLine1": "5105 N New England Ave", "City": "CHICAGO", "PostalCode": "60656", "State": "IL"}, {"AddressLine1": "12123 S Lowe Ave # 2FL", "City": "CHICAGO", "PostalCode": "60628", "State": "IL"}, {"AddressLine1": "3212 Navajo Dr", "City": "JOLIET", "PostalCode": "60451", "State": "IL"}, {"AddressLine1": "6517 Royal Glen Ct", "City": "LISLE", "PostalCode": "60532", "State": "IL"}, {"AddressLine1": "29363 N 3300 East Rd", "City": "DWIGHT", "PostalCode": "60420", "State": "IL"}, {"AddressLine1": "30995 N 2000 East Rd", "City": "ODELL", "PostalCode": "60460", "State": "IL"}, {"AddressLine1": "6328 W Fitch Ave", "City": " CHICAGO", "PostalCode": "60646", "State": "IL"}, {"AddressLine1": "2737 Summit Dr", "City": "GLENVIEW", "PostalCode": "60025", "State": "IL"}, {"AddressLine1": "3630 N Luna Ave", "City": " CHICAGO", "PostalCode": "60641", "State": "IL"}, {"AddressLine1": "3938 HARVEY AVE", "City": "WESTERN SPRINGS", "PostalCode": "60558", "State": "IL"}, {"AddressLine1": "4932 W Cornelia Ave", "City": " CHICAGO", "PostalCode": "60641", "State": "IL"}, {"AddressLine1": "421 Meadow Dr", "City": "SCHAUMBURG", "PostalCode": "60193", "State": "IL"}, {"AddressLine1": "9156 S Justine St", "City": " CHICAGO", "PostalCode": "60620", "State": "IL"}, {"AddressLine1": "14449 Golf Rd", "City": "ORLAND PARK", "PostalCode": "60462", "State": "IL"}, {"AddressLine1": "1845 Maine Dr", "City": "ELK GROVE VILLAGE", "PostalCode": "60007", "State": "IL"}, {"AddressLine1": "21200 W ROLLINS RD", "City": "AVON TWP", "PostalCode": "60046", "State": "IL"}, {"AddressLine1": "3829 E 1000N Rd", "City": "KANKAKEE", "PostalCode": "60901", "State": "IL"}, {"AddressLine1": "1654 Baseline Rd", "City": "LA MOILLE", "PostalCode": "61330", "State": "IL"}, {"AddressLine1": "3200 S May St", "City": "CHICAGO", "PostalCode": "60608", "State": "IL"}, {"AddressLine1": "3200 S May St", "City": "CHICAGO", "PostalCode": "60608", "State": "IL"}, {"AddressLine1": "701 E DIGGINS ST", "City": "HARVARD", "PostalCode": "60033", "State": "IL"}, {"AddressLine1": "4150 S LORAN RD", "City": "LORAN", "PostalCode": "61062", "State": "IL"}, {"AddressLine1": "5676 S LORAN RD", "City": "JEFFERSON TWP", "PostalCode": "61062", "State": "IL"}, {"AddressLine1": "1215 Dorchester Ln", "City": "HOFFMAN ESTATES", "PostalCode": "60194", "State": "IL"}, {"AddressLine1": "420 Camden Cv", "City": "WINTHROP HARBOR", "PostalCode": "60096", "State": "IL"}, {"AddressLine1": "13258 Center Dr", "City": "LANARK", "PostalCode": "61046", "State": "IL"}, {"AddressLine1": "2770 W West Grove Rd", "City": "MOUNT MORRIS", "PostalCode": "61054", "State": "IL"}, {"AddressLine1": "925 Knollwood Rd", "City": "DEERFIELD", "PostalCode": "60015", "State": "IL"}, {"AddressLine1": "4915 Dean St", "City": "WOODSTOCK", "PostalCode": "60098", "State": "IL"}, {"AddressLine1": "640 N 18000W Rd", "City": "REDDICK", "PostalCode": "60961", "State": "IL"}, {"AddressLine1": "640 N 18000W Rd", "City": "REDDICK", "PostalCode": "60961", "State": "IL"}]
