[{"AddressLine1": "OLD RT 6", "City": "MESHOPPEN", "PostalCode": "18630", "State": "PA"}, {"AddressLine1": "320 WALTER HOLLOW RD", "City": "CLAYSBURG", "PostalCode": "16625", "State": "PA"}, {"AddressLine1": "19 E Hanover St", "City": "GETTYSBURG", "PostalCode": "17325", "State": "PA"}, {"AddressLine1": "15 N Acorn Dr", "City": "BOILING SPRINGS", "PostalCode": "17007", "State": "PA"}, {"AddressLine1": "415 Range End Rd", "City": "DILLSBURG", "PostalCode": "17019", "State": "PA"}, {"AddressLine1": "14 E 4th Ave", "City": "EVERETT", "PostalCode": "15537", "State": "PA"}, {"AddressLine1": "235 McCoy Ln", "City": "NEW CASTLE", "PostalCode": "16105", "State": "PA"}, {"AddressLine1": "420 W 3rd Ave", "City": "DERRY", "PostalCode": "15627", "State": "PA"}, {"AddressLine1": "1801 FREEPORT RD", "City": "ARNOLD", "PostalCode": "15068", "State": "PA"}, {"AddressLine1": "1220 Tevebaugh Hollow Rd", "City": "FREEDOM", "PostalCode": "15042", "State": "PA"}, {"AddressLine1": "161 Catholic Church Rd", "City": "BEACH LAKE", "PostalCode": "18405", "State": "PA"}, {"AddressLine1": "316 Edgewood Ave", "City": "WEST MIFFLIN", "PostalCode": "15122", "State": "PA"}, {"AddressLine1": "229 Simpson St", "City": "DUPONT", "PostalCode": "18641", "State": "PA"}, {"AddressLine1": "3372 W 4TH ST", "City": "WILLIAMSPORT", "PostalCode": "17701", "State": "PA"}, {"AddressLine1": "2224 MILL LA", "City": "WILLIAMSPORT", "PostalCode": "17701", "State": "PA"}, {"AddressLine1": "1310 Brandt Ave", "City": "NEW CUMBERLAND", "PostalCode": "17070", "State": "PA"}, {"AddressLine1": "465 W 2ND AVE GRUBE 3", "City": "LITITZ", "PostalCode": "17543", "State": "PA"}, {"AddressLine1": "142 Acorn Ln", "City": "STROUDSBURG", "PostalCode": "18360", "State": "PA"}, {"AddressLine1": "6137 FUGAZZATTO DR", "City": "ALLENTOWN", "PostalCode": "18104", "State": "PA"}, {"AddressLine1": "179 HEATHER HIGHLANDS", "City": "PITTSTON", "PostalCode": "18640", "State": "PA"}, {"AddressLine1": "250 RAILROAD ST, 1FL", "City": "MONTANDON", "PostalCode": "17850", "State": "PA"}, {"AddressLine1": "398 Bartholomew Ln", "City": "MONROETON", "PostalCode": "18832", "State": "PA"}, {"AddressLine1": "212 Mayer St", "City": "READING", "PostalCode": "19606", "State": "PA"}, {"AddressLine1": "36 Riethmiller Rd", "City": "NEW WILMINGTON", "PostalCode": "16142", "State": "PA"}, {"AddressLine1": "305 Laurel St", "City": "WARREN", "PostalCode": "16365", "State": "PA"}, {"AddressLine1": "1981 Station Hill Rd", "City": "HOP BOTTOM", "PostalCode": "18824", "State": "PA"}, {"AddressLine1": "210 La Grande Dr", "City": "CRANBERRY TOWNSHIP", "PostalCode": "16066", "State": "PA"}, {"AddressLine1": "5 Lydia Dr", "City": "UNIONTOWN", "PostalCode": "15401", "State": "PA"}, {"AddressLine1": "411 Armstrong Ave Apt A", "City": "APOLLO", "PostalCode": "15613", "State": "PA"}, {"AddressLine1": "411 Armstrong Ave Apt B", "City": "APOLLO", "PostalCode": "15613", "State": "PA"}, {"AddressLine1": "130 Laddsburg Hill Rd", "City": "NEW ALBANY", "PostalCode": "18833", "State": "PA"}, {"AddressLine1": "108 Pine St", "City": "RILLTON", "PostalCode": "15678", "State": "PA"}, {"AddressLine1": "405 TURNER ST APT 1FL", "City": "ALLENTOWN", "PostalCode": "18102", "State": "PA"}, {"AddressLine1": "122 N Main St Apt 3", "City": "HERNDON", "PostalCode": "17830", "State": "PA"}, {"AddressLine1": "131 Hill Rd", "City": "NEW HOLLAND", "PostalCode": "17557", "State": "PA"}, {"AddressLine1": "113 E BALD EAGLE ST APT 1", "City": "LOCK HAVEN", "PostalCode": "17745", "State": "PA"}, {"AddressLine1": "87 Old River Rd", "City": "WILKES BARRE", "PostalCode": "18702", "State": "PA"}, {"AddressLine1": "40 N Church St Apt 11", "City": "CARBONDALE", "PostalCode": "18407", "State": "PA"}, {"AddressLine1": "1738 E Washington Ln", "City": "PHILADELPHIA", "PostalCode": "19138", "State": "PA"}, {"AddressLine1": "515 N 9th St", "City": "ALLENTOWN", "PostalCode": "18102", "State": "PA"}, {"AddressLine1": "69 Bald Cypress Ln", "City": "LEVITTOWN", "PostalCode": "19054", "State": "PA"}, {"AddressLine1": "0 RR 1", "City": "KUNKLETOWN", "PostalCode": "18058", "State": "PA"}, {"AddressLine1": "273 E Coal St", "City": "TREVORTON", "PostalCode": "17881", "State": "PA"}, {"AddressLine1": "315 Pennsylvania Ave", "City": "SUNBURY", "PostalCode": "17801", "State": "PA"}, {"AddressLine1": "227 Putnam St", "City": "SCRANTON", "PostalCode": "18508", "State": "PA"}, {"AddressLine1": "1207 SEABIRD DR     LOT 36", "City": "BRISTOL", "PostalCode": "19007", "State": "PA"}, {"AddressLine1": "442 Dorseyville Rd", "City": "PITTSBURGH", "PostalCode": "15215", "State": "PA"}, {"AddressLine1": "533 Elizabeth Ave", "City": "MC KEES ROCKS", "PostalCode": "15136", "State": "PA"}, {"AddressLine1": "132 Maple Dr", "City": "NEW HOLLAND", "PostalCode": "17557", "State": "PA"}, {"AddressLine1": "73 Patriot Cir", "City": "MOUNTAINTOP", "PostalCode": "18707", "State": "PA"}, {"AddressLine1": "1104 EDISON AVE, 2FL", "City": "SUNBURY", "PostalCode": "17801", "State": "PA"}, {"AddressLine1": "212 MERRIFIELD AVE", "City": "SCRANTON", "PostalCode": "18504", "State": "PA"}, {"AddressLine1": "162 FRANKFORT SPRING RD", "City": "GEORGETOWN", "PostalCode": "15043", "State": "PA"}, {"AddressLine1": "329 PLEASANT HILLS DR", "City": "HOOKSTOWN", "PostalCode": "15050", "State": "PA"}, {"AddressLine1": "309 Main St Apt A1", "City": "PENNSBURG", "PostalCode": "18073", "State": "PA"}, {"AddressLine1": "169 McAlpine St", "City": "DURYEA", "PostalCode": "18642", "State": "PA"}, {"AddressLine1": "131 CHIPPERFIELD DR", "City": "EFFORT", "PostalCode": "18330", "State": "PA"}, {"AddressLine1": "729 SOMERVILLE DR", "City": "PITTSBURGH", "PostalCode": "15243", "State": "PA"}, {"AddressLine1": "159 CLAIRMONT DR", "City": "ALBRIGHTSVILLE", "PostalCode": "18210", "State": "PA"}, {"AddressLine1": "2205 W 6th St", "City": "ERIE", "PostalCode": "16505", "State": "PA"}, {"AddressLine1": "875 MAIN ST", "City": "LE RAYSVILLE", "PostalCode": "18829", "State": "PA"}, {"AddressLine1": "705 WASHINGTON ST", "City": "CONNEAUTVILLE", "PostalCode": "16406", "State": "PA"}, {"AddressLine1": "827 S Reading Ave", "City": "BOYERTOWN", "PostalCode": "19512", "State": "PA"}, {"AddressLine1": "7315 Franklin Rd", "City": "CRANBERRY TOWNSHIP", "PostalCode": "16066", "State": "PA"}, {"AddressLine1": "184 Allebach Ln", "City": "SPRING MILLS", "PostalCode": "16875", "State": "PA"}, {"AddressLine1": "2047 RALEIGH RD APT F", "City": "HUMMELSTOWN", "PostalCode": "17036", "State": "PA"}, {"AddressLine1": "56 Carlisle St", "City": "WILKES BARRE", "PostalCode": "18702", "State": "PA"}, {"AddressLine1": "244 BALTIMORE PI     UNIT 435", "City": "GLEN MILLS", "PostalCode": "19342", "State": "PA"}, {"AddressLine1": "453 Fremont St", "City": "LANCASTER", "PostalCode": "17603", "State": "PA"}, {"AddressLine1": "33 W Market St Apt B", "City": "MARIETTA", "PostalCode": "17547", "State": "PA"}, {"AddressLine1": "3113 BACK RUN ROAD", "City": "MANHEIM", "PostalCode": "17545", "State": "PA"}, {"AddressLine1": "163 Broadway Rd", "City": "WINFIELD", "PostalCode": "17889", "State": "PA"}, {"AddressLine1": "150 PETERS DR", "City": "GLENSHAW", "PostalCode": "15116", "State": "PA"}, {"AddressLine1": "10 Rhodes Ave", "City": "SEWICKLEY", "PostalCode": "15143", "State": "PA"}, {"AddressLine1": "516 Arthur St", "City": "PITTSBURGH", "PostalCode": "15219", "State": "PA"}, {"AddressLine1": "1504 CONCORD COURT", "City": "QUAKERTOWN", "PostalCode": "18951", "State": "PA"}, {"AddressLine1": "366 Main St", "City": "PITTSBURGH", "PostalCode": "15201", "State": "PA"}, {"AddressLine1": "37 W 5TH ST", "City": "MILTON", "PostalCode": "17847", "State": "PA"}, {"AddressLine1": "407 Howard St", "City": "EAST PITTSBURGH", "PostalCode": "15112", "State": "PA"}, {"AddressLine1": "2322 Forest Dr", "City": "PITTSBURGH", "PostalCode": "15235", "State": "PA"}, {"AddressLine1": "248 Lynn Dr", "City": "PITTSBURGH", "PostalCode": "15236", "State": "PA"}, {"AddressLine1": "37 W Cape Horn Rd", "City": "MERCER", "PostalCode": "16137", "State": "PA"}, {"AddressLine1": "95 Mill St", "City": "SANDY LAKE", "PostalCode": "16145", "State": "PA"}, {"AddressLine1": "211 10TH ST", "City": "PHILIPSBURG", "PostalCode": "16866", "State": "PA"}, {"AddressLine1": "5 W Hazelcroft Ave", "City": "NEW CASTLE", "PostalCode": "16105", "State": "PA"}, {"AddressLine1": "437 Baynton Ave", "City": "ALTOONA", "PostalCode": "16602", "State": "PA"}, {"AddressLine1": "74 SECOND ST", "City": "CAIRNBROOK", "PostalCode": "15924", "State": "PA"}, {"AddressLine1": "527 8th St", "City": "IRWIN", "PostalCode": "15642", "State": "PA"}, {"AddressLine1": "30 Veltri Dr", "City": " WASHINGTON", "PostalCode": "15301", "State": "PA"}, {"AddressLine1": "452 SPIKE ISLAND RD", "City": "OSCEOLA MILLS", "PostalCode": "16666", "State": "PA"}, {"AddressLine1": "207 Quinton Rd", "City": "SCOTT TOWNSHIP", "PostalCode": "18447", "State": "PA"}, {"AddressLine1": "47 Harer Park Rd", "City": "JERSEY SHORE", "PostalCode": "17740", "State": "PA"}, {"AddressLine1": "325 High St", "City": "MILTON", "PostalCode": "17847", "State": "PA"}, {"AddressLine1": "908 SAMPSON ST", "City": "TAYLOR", "PostalCode": "18517", "State": "PA"}, {"AddressLine1": "1301 McKinley Dr", "City": "CLAIRTON", "PostalCode": "15025", "State": "PA"}, {"AddressLine1": "1536 MT CARMEL ST", "City": "WILLIAMSPORT", "PostalCode": "17701", "State": "PA"}, {"AddressLine1": "1260 Seamans Rd", "City": "FACTORYVILLE", "PostalCode": "18419", "State": "PA"}, {"AddressLine1": "2009 Ivy Ct", "City": "ALIQUIPPA", "PostalCode": "15001", "State": "PA"}, {"AddressLine1": "107 Windy Ghoul Dr", "City": "BEAVER", "PostalCode": "15009", "State": "PA"}, {"AddressLine1": "1652 Reading Rd", "City": "MOHNTON", "PostalCode": "19540", "State": "PA"}, {"AddressLine1": "1571 Diamond Station Rd", "City": "EPHRATA", "PostalCode": "17522", "State": "PA"}, {"AddressLine1": "210 Good Ln", "City": "PITTSBURGH", "PostalCode": "15237", "State": "PA"}, {"AddressLine1": "961 RETTEW MILL RD L4", "City": "EPHRATA", "PostalCode": "17522", "State": "PA"}, {"AddressLine1": "148 Pinehurst Dr", "City": "PITTSBURGH", "PostalCode": "15229", "State": "PA"}, {"AddressLine1": "3436 Elton Rd", "City": "JOHNSTOWN", "PostalCode": "15904", "State": "PA"}, {"AddressLine1": "12448 McChesney Rd", "City": "EAST SPRINGFIELD", "PostalCode": "16411", "State": "PA"}, {"AddressLine1": "16085 RT 287", "City": "TIOGA", "PostalCode": "16946", "State": "PA"}, {"AddressLine1": "1060 W 26th St", "City": "ERIE", "PostalCode": "16508", "State": "PA"}, {"AddressLine1": "2605 W GRANDVIEW BLVD", "City": "ERIE", "PostalCode": "16506", "State": "PA"}, {"AddressLine1": "818 Butler Ave", "City": "NEW CASTLE", "PostalCode": "16101", "State": "PA"}, {"AddressLine1": "193 Switzer Rd", "City": "KNOX", "PostalCode": "16232", "State": "PA"}, {"AddressLine1": "PO Box 113", "City": "ORBISONIA", "PostalCode": "17243", "State": "PA"}, {"AddressLine1": "30 Putnam St", "City": "TUNKHANNOCK", "PostalCode": "18657", "State": "PA"}, {"AddressLine1": "412 Sugar St", "City": "ROARING SPRING", "PostalCode": "16673", "State": "PA"}, {"AddressLine1": "2178 W Lake Rd", "City": "JAMESTOWN", "PostalCode": "16134", "State": "PA"}, {"AddressLine1": "23 RUTH AVE", "City": "GREENVILLE", "PostalCode": "16125", "State": "PA"}, {"AddressLine1": "107 Sheakleyville Rd", "City": "CLARKS MILLS", "PostalCode": "16114", "State": "PA"}, {"AddressLine1": "249 HUTCHMAN RD", "City": "MARS", "PostalCode": "16046", "State": "PA"}, {"AddressLine1": "2534 Old Route 22", "City": "DUNCANSVILLE", "PostalCode": "16635", "State": "PA"}, {"AddressLine1": "627 S Wayne St", "City": "LEWISTOWN", "PostalCode": "17044", "State": "PA"}, {"AddressLine1": "5 Deer Run Dr", "City": "ETTERS", "PostalCode": "17319", "State": "PA"}, {"AddressLine1": "132 Hazelwood Dr", "City": "CRANBERRY TOWNSHIP", "PostalCode": "16066", "State": "PA"}, {"AddressLine1": "109 NUTHATCH CT WEST", "City": "BARTO", "PostalCode": "19504", "State": "PA"}, {"AddressLine1": "449 Tunnel Rd", "City": "COBURN", "PostalCode": "16832", "State": "PA"}, {"AddressLine1": "104 KERRY DR", "City": "POTTSTOWN", "PostalCode": "19464", "State": "PA"}, {"AddressLine1": "1351 Mile Post Rd", "City": "SUNBURY", "PostalCode": "17801", "State": "PA"}, {"AddressLine1": "470 Clay St", "City": "ROCHESTER", "PostalCode": "15074", "State": "PA"}, {"AddressLine1": "22 N Walnut St", "City": "WILKES BARRE", "PostalCode": "18702", "State": "PA"}, {"AddressLine1": "5507 ELIZABETHTOWN RD", "City": "MANHEIM", "PostalCode": "17545", "State": "PA"}, {"AddressLine1": "493 BYERLAND CHURCH RD", "City": "WILLOW STREET", "PostalCode": "17584", "State": "PA"}, {"AddressLine1": "119 S Fremont Ave", "City": "PITTSBURGH", "PostalCode": "15202", "State": "PA"}, {"AddressLine1": "545 COLLEGE AVE REAR", "City": "FACTORYVILLE", "PostalCode": "18419", "State": "PA"}, {"AddressLine1": "113 S Fort Zellers Rd", "City": "NEWMANSTOWN", "PostalCode": "17073", "State": "PA"}, {"AddressLine1": "6 N 12th St", "City": "POTTSVILLE", "PostalCode": "17901", "State": "PA"}, {"AddressLine1": "1200 Dagmar Ave", "City": "PITTSBURGH", "PostalCode": "15216", "State": "PA"}, {"AddressLine1": "189 Plum Creek Rd", "City": "SUNBURY", "PostalCode": "17801", "State": "PA"}, {"AddressLine1": "1183 La Salle Rd", "City": "MONROEVILLE", "PostalCode": "15146", "State": "PA"}, {"AddressLine1": "30 E SUMMITT DR", "City": "STEVENS", "PostalCode": "17578", "State": "PA"}, {"AddressLine1": "4437 Sylvan Ln", "City": "POCONO SUMMIT", "PostalCode": "18346", "State": "PA"}, {"AddressLine1": "624 W Johnson St", "City": " PHILADELPHIA", "PostalCode": "19144", "State": "PA"}, {"AddressLine1": "210 MT LEBANON BLV", "City": "PITTSBURGH", "PostalCode": "15234", "State": "PA"}, {"AddressLine1": "3155 Balsam Rd", "City": "CENTER VALLEY", "PostalCode": "18034", "State": "PA"}, {"AddressLine1": "108 Jospen Ct", "City": "ALTOONA", "PostalCode": "16602", "State": "PA"}, {"AddressLine1": "330 Pleasant Grove Rd", "City": "RED LION", "PostalCode": "17356", "State": "PA"}, {"AddressLine1": "72 CLEARVIEW DR", "City": "MYERSTOWN", "PostalCode": "17067", "State": "PA"}, {"AddressLine1": "76 N Lebanon St", "City": "LEBANON", "PostalCode": "17042", "State": "PA"}, {"AddressLine1": "37 Kensington Cir", "City": "UNIONTOWN", "PostalCode": "15401", "State": "PA"}, {"AddressLine1": "357 Beacon Ave", "City": "WASHINGTON", "PostalCode": "15301", "State": "PA"}, {"AddressLine1": "577 Surfside Dr", "City": "PITTSBURGH", "PostalCode": "15239", "State": "PA"}, {"AddressLine1": "129 LOUELLA LN", "City": "MILLMONT", "PostalCode": "17845", "State": "PA"}, {"AddressLine1": "413 Winton St", "City": "PITTSBURGH", "PostalCode": "15211", "State": "PA"}, {"AddressLine1": "130 Clarks Valley Rd", "City": "DAUPHIN", "PostalCode": "17018", "State": "PA"}, {"AddressLine1": "940 E PAOLI ST", "City": "ALLENTOWN", "PostalCode": "18103", "State": "PA"}, {"AddressLine1": "30 KOUGH RD", "City": "NEWVILLE", "PostalCode": "17241", "State": "PA"}, {"AddressLine1": "160 SHATTO DR", "City": "CARLISLE", "PostalCode": "17013", "State": "PA"}, {"AddressLine1": "3030 Locust St", "City": "HARRISBURG", "PostalCode": "17109", "State": "PA"}, {"AddressLine1": "3840 Oakwood Trl", "City": "ALLENTOWN", "PostalCode": "18103", "State": "PA"}, {"AddressLine1": "4022 NORTHMINISTER ST", "City": "PITTSBURGH", "PostalCode": "15212", "State": "PA"}, {"AddressLine1": "903 ST JOHN RD, APT A", "City": "DRUMS", "PostalCode": "18222", "State": "PA"}, {"AddressLine1": "2053 Alpha Ct", "City": "MANHEIM", "PostalCode": "17545", "State": "PA"}, {"AddressLine1": "901 Unity Center Rd Rear", "City": "PITTSBURGH", "PostalCode": "15239", "State": "PA"}, {"AddressLine1": "3937 DALEWOOD AVE", "City": "PITTSBURGH", "PostalCode": "15227", "State": "PA"}, {"AddressLine1": "20 WOODLAND RD", "City": "LOCK HAVEN", "PostalCode": "17745", "State": "PA"}, {"AddressLine1": "942 Hilldale Rd", "City": "HOLTWOOD", "PostalCode": "17532", "State": "PA"}, {"AddressLine1": "145 Lucille Dr", "City": "PITTSBURGH", "PostalCode": "15235", "State": "PA"}, {"AddressLine1": "750 W Swartzville Rd", "City": "REINHOLDS", "PostalCode": "17569", "State": "PA"}, {"AddressLine1": "1800 David Ave", "City": "WILLIAMSPORT", "PostalCode": "17701", "State": "PA"}, {"AddressLine1": "1414 E Gordon St", "City": "ALLENTOWN", "PostalCode": "18109", "State": "PA"}, {"AddressLine1": "407 W Vine St", "City": "FLEETWOOD", "PostalCode": "19522", "State": "PA"}, {"AddressLine1": "100 Bell Ave", "City": "MOUNT GRETNA", "PostalCode": "17064", "State": "PA"}, {"AddressLine1": "328 Coachman Ln", "City": "PALMYRA", "PostalCode": "17078", "State": "PA"}, {"AddressLine1": "243 W Main St", "City": "PALMYRA", "PostalCode": "17078", "State": "PA"}, {"AddressLine1": "1323 HILL ST", "City": "YORK", "PostalCode": "17403", "State": "PA"}, {"AddressLine1": "1655 Detters Mill Rd", "City": "DOVER", "PostalCode": "17315", "State": "PA"}, {"AddressLine1": "114 Raypaula Dr", "City": "SHREWSBURY", "PostalCode": "17361", "State": "PA"}, {"AddressLine1": "428 Spruce St", "City": "WEST READING", "PostalCode": "19611", "State": "PA"}, {"AddressLine1": "4805 Lehnenberg Rd", "City": "KINTNERSVILLE", "PostalCode": "18930", "State": "PA"}, {"AddressLine1": "50 Jessica Dr", "City": "GETTYSBURG", "PostalCode": "17325", "State": "PA"}, {"AddressLine1": "PO Box 114", "City": "JEANNETTE", "PostalCode": "15644", "State": "PA"}, {"AddressLine1": "500 MAIN ST", "City": "RURAL VALLEY", "PostalCode": "16249", "State": "PA"}, {"AddressLine1": "49 Overview Dr", "City": "GREENSBURG", "PostalCode": "15601", "State": "PA"}, {"AddressLine1": "261 Richmond Dr", "City": "JEANNETTE", "PostalCode": "15644", "State": "PA"}, {"AddressLine1": "141 Robinson St Apt 21", "City": "PITTSBURGH", "PostalCode": "15213", "State": "PA"}, {"AddressLine1": "4537 WELLINGTON DR", "City": "BENSALEM", "PostalCode": "19020", "State": "PA"}, {"AddressLine1": "1226 Shogun Dr", "City": "EFFORT", "PostalCode": "18330", "State": "PA"}, {"AddressLine1": "6 Oxford Dr", "City": "NEWMANSTOWN", "PostalCode": "17073", "State": "PA"}, {"AddressLine1": "705 Wyoming Ave", "City": "WYOMISSING", "PostalCode": "19610", "State": "PA"}, {"AddressLine1": "151 Graybill Ln", "City": "RICHFIELD", "PostalCode": "17086", "State": "PA"}, {"AddressLine1": "306 Welliver Dr", "City": "BLOOMSBURG", "PostalCode": "17815", "State": "PA"}, {"AddressLine1": "1029 Glencoe Ave", "City": "PITTSBURGH", "PostalCode": "15220", "State": "PA"}, {"AddressLine1": "699 Kaye Ave", "City": "MONACA", "PostalCode": "15061", "State": "PA"}, {"AddressLine1": "119 Cottonwood Ct", "City": "CORAOPOLIS", "PostalCode": "15108", "State": "PA"}, {"AddressLine1": "901 S SPRING GARDEN STLOT 13", "City": "CARLISLE", "PostalCode": "17015", "State": "PA"}, {"AddressLine1": "339 Newburn Dr", "City": "PITTSBURGH", "PostalCode": "15216", "State": "PA"}, {"AddressLine1": "901 Unity Center Rd", "City": "PITTSBURGH", "PostalCode": "15239", "State": "PA"}, {"AddressLine1": "536 Jischke St", "City": "BETHLEHEM", "PostalCode": "18015", "State": "PA"}, {"AddressLine1": "125 GENERAL BRADDOCK DR", "City": "NORTH BRADDOCK", "PostalCode": "15104", "State": "PA"}, {"AddressLine1": "1864 Timothy Dr", "City": "WEST MIFFLIN", "PostalCode": "15122", "State": "PA"}, {"AddressLine1": "407 S Main St", "City": "MUNCY", "PostalCode": "17756", "State": "PA"}, {"AddressLine1": "14 S BROAD ST 2FL", "City": "MECHANICSBURG", "PostalCode": "17055", "State": "PA"}, {"AddressLine1": "3414 Cambridge Cir", "City": "ALLENTOWN", "PostalCode": "18104", "State": "PA"}, {"AddressLine1": "106 Herda Ln", "City": "ALIQUIPPA", "PostalCode": "15001", "State": "PA"}, {"AddressLine1": "86 MOUNT LOOKOUT", "City": "EXETER", "PostalCode": "18643", "State": "PA"}, {"AddressLine1": "718 JEFFERSON DR", "City": "PITTSBURGH", "PostalCode": "15229", "State": "PA"}, {"AddressLine1": "301 S Home Ave Apt 609", "City": "PITTSBURGH", "PostalCode": "15202", "State": "PA"}, {"AddressLine1": "37 Seltzer Ave", "City": "WOMELSDORF", "PostalCode": "19567", "State": "PA"}, {"AddressLine1": "1429 ROUTE 30", "City": "CLINTON", "PostalCode": "15026", "State": "PA"}, {"AddressLine1": "3925 Marion St", "City": "ERIE", "PostalCode": "16510", "State": "PA"}, {"AddressLine1": "100 Powder Mill Hollow Rd", "City": "BOYERTOWN", "PostalCode": "19512", "State": "PA"}, {"AddressLine1": "1130 E Maple St", "City": "PALMYRA", "PostalCode": "17078", "State": "PA"}, {"AddressLine1": "PO Box 134", "City": "HEREFORD", "PostalCode": "18056", "State": "PA"}, {"AddressLine1": "950 Harnish St", "City": "PALMYRA", "PostalCode": "17078", "State": "PA"}, {"AddressLine1": "2648 River Rd", "City": " MIDDLETOWN", "PostalCode": "17057", "State": "PA"}, {"AddressLine1": "480 KNOBB RD", "City": "WEXFORD", "PostalCode": "15090", "State": "PA"}, {"AddressLine1": "416 S Geyers Church Rd", "City": " MIDDLETOWN", "PostalCode": "17057", "State": "PA"}, {"AddressLine1": "1704 Victoria Ave", "City": "ARNOLD", "PostalCode": "15068", "State": "PA"}, {"AddressLine1": "305 Prospect St", "City": "POINT MARION", "PostalCode": "15474", "State": "PA"}, {"AddressLine1": "1436 Briarwood Dr", "City": "MONTOURSVILLE", "PostalCode": "17754", "State": "PA"}, {"AddressLine1": "2458 AZALEA CT LOT 7", "City": "NARVON", "PostalCode": "17555", "State": "PA"}, {"AddressLine1": "125 S Walnut St", "City": "HUMMELSTOWN", "PostalCode": "17036", "State": "PA"}, {"AddressLine1": "3510 Drumore Dr", "City": "PHILADELPHIA", "PostalCode": "19154", "State": "PA"}, {"AddressLine1": "131 SCHLEY AVE", "City": "PITTSBURGH", "PostalCode": "15205", "State": "PA"}, {"AddressLine1": "152 E Penn St", "City": "CARLISLE", "PostalCode": "17013", "State": "PA"}, {"AddressLine1": "1215 HARDING AVE RR UNIT A", "City": "HERSHEY", "PostalCode": "17033", "State": "PA"}, {"AddressLine1": "4 Harlem Ave", "City": "MCKEES ROCKS", "PostalCode": "15136", "State": "PA"}, {"AddressLine1": "20 N Conestoga View Dr", "City": "AKRON", "PostalCode": "17501", "State": "PA"}, {"AddressLine1": "1633 Judie Ln Apt C", "City": "LANCASTER", "PostalCode": "17603", "State": "PA"}, {"AddressLine1": "340 Jpm Rd Apt 208", "City": "LEWISBURG", "PostalCode": "17837", "State": "PA"}, {"AddressLine1": "1011 BLUE GRASS LN", "City": "EFFORT", "PostalCode": "18330", "State": "PA"}, {"AddressLine1": "204 MICHIGAN DR", "City": "ALTOONA", "PostalCode": "16602", "State": "PA"}, {"AddressLine1": "997 Louser Rd", "City": "ANNVILLE", "PostalCode": "17003", "State": "PA"}, {"AddressLine1": "1607 Blackhawk Rd", "City": "DARLINGTON", "PostalCode": "16115", "State": "PA"}, {"AddressLine1": "34 Rosalyn Ct", "City": "SAYRE", "PostalCode": "18840", "State": "PA"}, {"AddressLine1": "34 Rosalyn Ct", "City": "SAYRE", "PostalCode": "18840", "State": "PA"}, {"AddressLine1": "34 Rosalyn Ct", "City": "SAYRE", "PostalCode": "18840", "State": "PA"}, {"AddressLine1": "34 Rosalyn Ct", "City": "SAYRE", "PostalCode": "18840", "State": "PA"}, {"AddressLine1": "34 Rosalyn Ct", "City": "SAYRE", "PostalCode": "18840", "State": "PA"}, {"AddressLine1": "34 Rosalyn Ct", "City": "SAYRE", "PostalCode": "18840", "State": "PA"}, {"AddressLine1": "34 Rosalyn Ct", "City": "SAYRE", "PostalCode": "18840", "State": "PA"}, {"AddressLine1": "125 Bear Rock Rd", "City": "KITTANNING", "PostalCode": "16201", "State": "PA"}, {"AddressLine1": "424 Market St", "City": "SALTSBURG", "PostalCode": "15681", "State": "PA"}, {"AddressLine1": "51 Macomb St", "City": "NEW PHILADELPHIA", "PostalCode": "17959", "State": "PA"}, {"AddressLine1": "2716 Bedford Ave", "City": "PITTSBURGH", "PostalCode": "15219", "State": "PA"}, {"AddressLine1": "884 N Kearney St", "City": "ALLENTOWN", "PostalCode": "18109", "State": "PA"}, {"AddressLine1": "1580 Anderson Rd", "City": "PITTSBURGH", "PostalCode": "15209", "State": "PA"}, {"AddressLine1": "1420 ESREY ST     APT 422", "City": "CHESTER", "PostalCode": "19013", "State": "PA"}, {"AddressLine1": "995 Diane Dr", "City": "N VERSAILLES", "PostalCode": "15137", "State": "PA"}, {"AddressLine1": "575 E Second Mountain Rd", "City": "SCHUYLKILL HAVEN", "PostalCode": "17972", "State": "PA"}, {"AddressLine1": "3951 Boulevard Dr", "City": "PITTSBURGH", "PostalCode": "15217", "State": "PA"}, {"AddressLine1": "1107 Brownsville Rd", "City": "WERNERSVILLE", "PostalCode": "19565", "State": "PA"}, {"AddressLine1": "3250 Major Rd", "City": "MADISON TOWNSHIP", "PostalCode": "18444", "State": "PA"}, {"AddressLine1": "215 URBAN DR", "City": "VERONA", "PostalCode": "15147", "State": "PA"}, {"AddressLine1": "1220 KILLIWHAT ST", "City": "JOHNSTOWN", "PostalCode": "15902", "State": "PA"}, {"AddressLine1": "369 MAIN ST", "City": "EAST SMITHFIELD", "PostalCode": "18817", "State": "PA"}, {"AddressLine1": "8251 Lancaster Ave", "City": "BETHEL", "PostalCode": "19507", "State": "PA"}, {"AddressLine1": "25 Beechwood Dr", "City": "BIRDSBORO", "PostalCode": "19508", "State": "PA"}, {"AddressLine1": "804 E Maple St", "City": "PALMYRA", "PostalCode": "17078", "State": "PA"}, {"AddressLine1": "2719 Horseshoe Pike", "City": "PALMYRA", "PostalCode": "17078", "State": "PA"}, {"AddressLine1": "328 Dallas Dr", "City": "GRANTVILLE", "PostalCode": "17028", "State": "PA"}, {"AddressLine1": "8 2nd Ave", "City": "WARREN", "PostalCode": "16365", "State": "PA"}, {"AddressLine1": "9265 N Sunnyside Dr", "City": "ESPYVILLE", "PostalCode": "16424", "State": "PA"}, {"AddressLine1": "9114 Atlantic Rd", "City": "ATLANTIC", "PostalCode": "16111", "State": "PA"}, {"AddressLine1": "37 BEERS HOLLOW RD", "City": "ELDRED", "PostalCode": "16731", "State": "PA"}, {"AddressLine1": "132 Salt Works Rd", "City": "HARMONY", "PostalCode": "16037", "State": "PA"}, {"AddressLine1": "228 Creek Rd", "City": "SCOTTDALE", "PostalCode": "15683", "State": "PA"}, {"AddressLine1": "101 Edwin St", "City": "JEANNETTE", "PostalCode": "15644", "State": "PA"}, {"AddressLine1": "5957 Lincoln Hwy", "City": "HARRISONVILLE", "PostalCode": "17228", "State": "PA"}, {"AddressLine1": "561 Myrtle St", "City": "REYNOLDSVILLE", "PostalCode": "15851", "State": "PA"}, {"AddressLine1": "254 Danbury Dr", "City": "NAZARETH", "PostalCode": "18064", "State": "PA"}, {"AddressLine1": "59 Oakford Cir", "City": "CLARKS SUMMIT", "PostalCode": "18411", "State": "PA"}, {"AddressLine1": "289 Lansdowne Dr", "City": "VERONA", "PostalCode": "15147", "State": "PA"}, {"AddressLine1": "137 BUSS RD", "City": "ALIQUIPPA", "PostalCode": "15001", "State": "PA"}, {"AddressLine1": "28 N STURGIS LN", "City": "LITITZ", "PostalCode": "17543", "State": "PA"}, {"AddressLine1": "7 JUNE BERRY DR", "City": "THORNHURST", "PostalCode": "18424", "State": "PA"}, {"AddressLine1": "5856 Harlow Ct", "City": "SLATINGTON", "PostalCode": "18080", "State": "PA"}, {"AddressLine1": "1021 Beech St", "City": "ARCHBALD", "PostalCode": "18403", "State": "PA"}, {"AddressLine1": "348 Pennsylvania Ave", "City": "RENOVO", "PostalCode": "17764", "State": "PA"}, {"AddressLine1": "3305 CRAMLINGTON DR", "City": "GIBSONIA", "PostalCode": "15044", "State": "PA"}, {"AddressLine1": "3815 Hillcrest Rd", "City": "HARRISBURG", "PostalCode": "17109", "State": "PA"}, {"AddressLine1": "401 Hebron Rd", "City": "IMPERIAL", "PostalCode": "15126", "State": "PA"}, {"AddressLine1": "1610 VISTA RD", "City": "LANCASTER", "PostalCode": "17601", "State": "PA"}, {"AddressLine1": "1711 MT ROYAL BLV", "City": "GLENSHAW", "PostalCode": "15116", "State": "PA"}, {"AddressLine1": "127 Grimms Rd", "City": "HONESDALE", "PostalCode": "18431", "State": "PA"}, {"AddressLine1": "54 Timber Villa", "City": "ELIZABETHTOWN", "PostalCode": "17022", "State": "PA"}, {"AddressLine1": "2123 Pine Rd", "City": "NEWVILLE", "PostalCode": "17241", "State": "PA"}, {"AddressLine1": "421 Winton St", "City": " PHILADELPHIA", "PostalCode": "19148", "State": "PA"}, {"AddressLine1": "219 W Fulton St", "City": "BUTLER", "PostalCode": "16001", "State": "PA"}, {"AddressLine1": "2437 Walbert Ave Fl 2", "City": "ALLENTOWN", "PostalCode": "18104", "State": "PA"}, {"AddressLine1": "414 E Blaine St", "City": "MCADOO", "PostalCode": "18237", "State": "PA"}, {"AddressLine1": "109 Tucker Ln", "City": "EAST STROUDSBURG", "PostalCode": "18301", "State": "PA"}, {"AddressLine1": "226 W MAIN ST", "City": "WESTFIELD", "PostalCode": "16950", "State": "PA"}, {"AddressLine1": "215 E Vine St", "City": "FLEETWOOD", "PostalCode": "19522", "State": "PA"}, {"AddressLine1": "9521 Anderson Rd", "City": "PITTSBURGH", "PostalCode": "15237", "State": "PA"}, {"AddressLine1": "178 E ACADEMIA ST", "City": "MOUNT UNION", "PostalCode": "17066", "State": "PA"}, {"AddressLine1": "141 S MAIN ST", "City": "NAZARETH", "PostalCode": "18064", "State": "PA"}, {"AddressLine1": "909 Welsh St", "City": "KANE", "PostalCode": "16735", "State": "PA"}, {"AddressLine1": "406 Longfellow St", "City": "VANDERGRIFT", "PostalCode": "15690", "State": "PA"}, {"AddressLine1": "3333 Appel Rd", "City": "BETHEL PARK", "PostalCode": "15102", "State": "PA"}, {"AddressLine1": "1302 Cook School Rd", "City": "BRIDGEVILLE", "PostalCode": "15017", "State": "PA"}, {"AddressLine1": "917 S Cottonwood Rd", "City": "WALNUTPORT", "PostalCode": "18088", "State": "PA"}]
