[{"AddressLine1": "219 JACKSON ST UNIT 318", "City": "LOWELL", "PostalCode": "01852", "State": "MA"}, {"AddressLine1": "96 MAGNOLIA AVE UNIT 1", "City": "GLOUCESTER", "PostalCode": "01930", "State": "MA"}, {"AddressLine1": "71 Peggi Ln", "City": "WINCHENDON", "PostalCode": "01475", "State": "MA"}, {"AddressLine1": "PO Box 226", "City": "OAKHAM", "PostalCode": "01068", "State": "MA"}, {"AddressLine1": "56 Bellingham Rd", "City": "BLACKSTONE", "PostalCode": "01504", "State": "MA"}, {"AddressLine1": "235 WINTHROP STAPT 1103", "City": "MEDFORD", "PostalCode": "02155", "State": "MA"}, {"AddressLine1": "222 W SUTTON RD POLE 104 1", "City": "SUTTON", "PostalCode": "01590", "State": "MA"}, {"AddressLine1": "45 Willis Dr", "City": "CHELMSFORD", "PostalCode": "01824", "State": "MA"}, {"AddressLine1": "241 Old Westford Rd", "City": "CHELMSFORD", "PostalCode": "01824", "State": "MA"}, {"AddressLine1": "23 Hemans St Apt 3", "City": "WORCESTER", "PostalCode": "01605", "State": "MA"}, {"AddressLine1": "25 Phyllis St", "City": "DRACUT", "PostalCode": "01826", "State": "MA"}, {"AddressLine1": "92 Faith Ave", "City": "DRACUT", "PostalCode": "01826", "State": "MA"}, {"AddressLine1": "7 BRIARWOOD LNLOT 1", "City": "RUTLAND", "PostalCode": "01543", "State": "MA"}, {"AddressLine1": "572 East St", "City": "BROCKTON", "PostalCode": "02302", "State": "MA"}, {"AddressLine1": "100 Otis St", "City": "MEDFORD", "PostalCode": "02155", "State": "MA"}, {"AddressLine1": "56 BRICKETT HILL CIR", "City": "HAVERHILL", "PostalCode": "01830", "State": "MA"}, {"AddressLine1": "105 Towne Hill Rd", "City": "WARD HILL", "PostalCode": "01835", "State": "MA"}, {"AddressLine1": "68 STUART ST APT 2", "City": "GARDNER", "PostalCode": "01440", "State": "MA"}, {"AddressLine1": "26 Galahad Way", "City": "NORTH EASTON", "PostalCode": "02356", "State": "MA"}, {"AddressLine1": "25 SOHIER ST POLE 4", "City": "COHASSET", "PostalCode": "02025", "State": "MA"}, {"AddressLine1": "38 Bradstreet Rd", "City": "NORTH ANDOVER", "PostalCode": "01845", "State": "MA"}, {"AddressLine1": "24 Weatherly Dr Unit 5", "City": "SALEM", "PostalCode": "01970", "State": "MA"}, {"AddressLine1": "301 Boardman St", "City": "BELCHERTOWN", "PostalCode": "01007", "State": "MA"}, {"AddressLine1": "14 LAKEVIEW RD", "City": "WEYMOUTH", "PostalCode": "02189", "State": "MA"}, {"AddressLine1": "34 GRANT ST REAR 1 1REAR", "City": "MILFORD", "PostalCode": "01757", "State": "MA"}, {"AddressLine1": "184 FOREST ST", "City": "S HAMILTON", "PostalCode": "01982", "State": "MA"}, {"AddressLine1": "55 Liberty St Apt 1", "City": "LOWELL", "PostalCode": "01851", "State": "MA"}, {"AddressLine1": "1 HARRISON PL LOT 35", "City": "FRANKLIN", "PostalCode": "02038", "State": "MA"}, {"AddressLine1": "44 Jasons Ln", "City": "PLYMOUTH", "PostalCode": "02360", "State": "MA"}, {"AddressLine1": "2500 MYSTIC VALLEY PKWYAPT 1104", "City": "MEDFORD", "PostalCode": "02155", "State": "MA"}, {"AddressLine1": "1 Martin Ter", "City": "NORTH EASTON", "PostalCode": "02356", "State": "MA"}, {"AddressLine1": "59 Happy Hollow Rd", "City": "EAST FALMOUTH", "PostalCode": "02536", "State": "MA"}, {"AddressLine1": "12 NORTH DR LOT 2 L2 POLE 5", "City": "STURBRIDGE", "PostalCode": "01518", "State": "MA"}, {"AddressLine1": "146 Olympic Ln", "City": "NORTH ANDOVER", "PostalCode": "01845", "State": "MA"}, {"AddressLine1": "11 Boyden Ln", "City": "SHARON", "PostalCode": "02067", "State": "MA"}, {"AddressLine1": "52 Winn St", "City": "BURLINGTON", "PostalCode": "01803", "State": "MA"}, {"AddressLine1": "15 Windsor Rd", "City": "SOMERVILLE", "PostalCode": "02144", "State": "MA"}, {"AddressLine1": "17 Dorothy Rd", "City": "BURLINGTON", "PostalCode": "01803", "State": "MA"}, {"AddressLine1": "139 Gardner St", "City": "S HAMILTON", "PostalCode": "01982", "State": "MA"}, {"AddressLine1": "138 DODGE ST STE 3 APT 3", "City": "BEVERLY", "PostalCode": "01915", "State": "MA"}, {"AddressLine1": "41 Greenridge Ln", "City": "LINCOLN", "PostalCode": "01773", "State": "MA"}, {"AddressLine1": "16 HARCOURT ST S-8J", "City": "BOSTON", "PostalCode": "02116", "State": "MA"}, {"AddressLine1": "28 Mora St", "City": "DORCHESTER", "PostalCode": "02124", "State": "MA"}, {"AddressLine1": "5 Tucker Ave", "City": "E PEPPERELL", "PostalCode": "01463", "State": "MA"}, {"AddressLine1": "85 CURTIS AVE FL 3 3FL", "City": "QUINCY", "PostalCode": "02169", "State": "MA"}, {"AddressLine1": "58 CHURCH ST APT 1", "City": "WESTBOROUGH", "PostalCode": "01581", "State": "MA"}, {"AddressLine1": "17 Meetinghouse Rd", "City": "NORFOLK", "PostalCode": "02056", "State": "MA"}, {"AddressLine1": "337 Prospect St", "City": "LAWRENCE", "PostalCode": "01841", "State": "MA"}, {"AddressLine1": "30 Sutherland Dr", "City": "SOMERSET", "PostalCode": "02726", "State": "MA"}, {"AddressLine1": "9 Lark Dr # 201", "City": "MATTAPAN", "PostalCode": "02126", "State": "MA"}, {"AddressLine1": "39 Orange St", "City": "ABINGTON", "PostalCode": "02351", "State": "MA"}, {"AddressLine1": "53 Melrose St Apt 2B", "City": "MELROSE", "PostalCode": "02176", "State": "MA"}, {"AddressLine1": "292 Berlin Rd", "City": "BOLTON", "PostalCode": "01740", "State": "MA"}, {"AddressLine1": "96 Agricultural Ave", "City": "REHOBOTH", "PostalCode": "02769", "State": "MA"}, {"AddressLine1": "59 UNION ST APT 1", "City": "NORTHAMPTON", "PostalCode": "01060", "State": "MA"}, {"AddressLine1": "181 Heidenrich Dr", "City": "TEWKSBURY", "PostalCode": "01876", "State": "MA"}, {"AddressLine1": "14 Sky Top Dr", "City": "MANCHESTER", "PostalCode": "01944", "State": "MA"}, {"AddressLine1": "226 Main St", "City": "MELROSE", "PostalCode": "02176", "State": "MA"}, {"AddressLine1": "9 Fairmont St", "City": "MALDEN", "PostalCode": "02148", "State": "MA"}, {"AddressLine1": "39 Belvidere Rd", "City": "HAVERHILL", "PostalCode": "01830", "State": "MA"}, {"AddressLine1": "21 PHOENIX RD    COGEN", "City": "AUBURN", "PostalCode": "01501", "State": "MA"}, {"AddressLine1": "402 Beechwood St", "City": "COHASSET", "PostalCode": "02025", "State": "MA"}, {"AddressLine1": "PO Box 305", "City": "LENOX DALE", "PostalCode": "01242", "State": "MA"}, {"AddressLine1": "34  PLEASANT STAPT A", "City": "EASTHAMPTON", "PostalCode": "01027", "State": "MA"}, {"AddressLine1": "30 Dixfield Rd", "City": "WORCESTER", "PostalCode": "01606", "State": "MA"}, {"AddressLine1": "52 Sleigh Rd", "City": "CHELMSFORD", "PostalCode": "01824", "State": "MA"}, {"AddressLine1": "28 Vesey St Apt 1", "City": "BROCKTON", "PostalCode": "02301", "State": "MA"}, {"AddressLine1": "12 ALDEN ST", "City": "BELCHERTOWN", "PostalCode": "01007", "State": "MA"}, {"AddressLine1": "305 TURNPIKE STAPT 200", "City": "SOUTH EASTON", "PostalCode": "02375", "State": "MA"}, {"AddressLine1": "2312 Briarwood Vlg", "City": "CLINTON", "PostalCode": "01510", "State": "MA"}, {"AddressLine1": "1 Biscayne Dr", "City": "BILLERICA", "PostalCode": "01821", "State": "MA"}, {"AddressLine1": "30 North St", "City": "REVERE", "PostalCode": "02151", "State": "MA"}, {"AddressLine1": "47 Saint Botolph St", "City": "HAVERHILL", "PostalCode": "01832", "State": "MA"}, {"AddressLine1": "9 Mellen St", "City": "HOPEDALE", "PostalCode": "01747", "State": "MA"}, {"AddressLine1": "200 MARKET ST APT 606", "City": "LOWELL", "PostalCode": "01852", "State": "MA"}, {"AddressLine1": "324 S Main St", "City": "COHASSET", "PostalCode": "02025", "State": "MA"}, {"AddressLine1": "48 J Davis Rd", "City": "CHARLTON", "PostalCode": "01507", "State": "MA"}, {"AddressLine1": "120 Town Farm Rd", "City": "BROOKFIELD", "PostalCode": "01506", "State": "MA"}, {"AddressLine1": "6 BEACON ST BSMT", "City": "GLOUCESTER", "PostalCode": "01930", "State": "MA"}, {"AddressLine1": "11 Grasswood Cir", "City": "ROCKLAND", "PostalCode": "02370", "State": "MA"}, {"AddressLine1": "29 Monmouth St", "City": "CHELMSFORD", "PostalCode": "01824", "State": "MA"}, {"AddressLine1": "23 Lilacwood Cir", "City": "HAVERHILL", "PostalCode": "01832", "State": "MA"}, {"AddressLine1": "96 MAIN ST 2", "City": "FAIRHAVEN", "PostalCode": "02719", "State": "MA"}, {"AddressLine1": "18 Deane St", "City": "FAIRHAVEN", "PostalCode": "02719", "State": "MA"}, {"AddressLine1": "147 COMMERCIAL ST", "City": "PROVNCTOWN", "PostalCode": "02657", "State": "MA"}, {"AddressLine1": "11 West St", "City": "GRAFTON", "PostalCode": "01519", "State": "MA"}, {"AddressLine1": "19 9th Ave", "City": "HAVERHILL", "PostalCode": "01830", "State": "MA"}, {"AddressLine1": "231 Woodland Ave", "City": "GARDNER", "PostalCode": "01440", "State": "MA"}, {"AddressLine1": "10 MULBERRY DR L13", "City": "KINGSTON", "PostalCode": "02364", "State": "MA"}, {"AddressLine1": "17 Alden Rd", "City": "SWAMPSCOTT", "PostalCode": "01907", "State": "MA"}, {"AddressLine1": "211 HERRING-POND RD L1", "City": "PLYMOUTH", "PostalCode": "02360", "State": "MA"}, {"AddressLine1": "136 HARVARD ST APT 2  UNIT 2", "City": "MEDFORD", "PostalCode": "02155", "State": "MA"}, {"AddressLine1": "17 Stagecoach Rd", "City": "MEDFIELD", "PostalCode": "02052", "State": "MA"}, {"AddressLine1": "35 Orchard St", "City": "MEDFIELD", "PostalCode": "02052", "State": "MA"}, {"AddressLine1": "4 Robey St", "City": "ROXBURY", "PostalCode": "02119", "State": "MA"}, {"AddressLine1": "221 Ames St Apt 1", "City": "BROCKTON", "PostalCode": "02302", "State": "MA"}, {"AddressLine1": "81 Park St Apt 5", "City": "LYNN", "PostalCode": "01905", "State": "MA"}, {"AddressLine1": "11 BIRCH HILL RD", "City": "WORCESTER", "PostalCode": "01606", "State": "MA"}, {"AddressLine1": "49 Hale St", "City": "WINCHENDON", "PostalCode": "01475", "State": "MA"}, {"AddressLine1": "319 MEMORIAL GROVE AVELOT 33", "City": "WEYMOUTH", "PostalCode": "02190", "State": "MA"}, {"AddressLine1": "47 FLAGLER RD", "City": "LEOMINSTER", "PostalCode": "01453", "State": "MA"}, {"AddressLine1": "2 Forestdale Dr", "City": "HALIFAX", "PostalCode": "02338", "State": "MA"}, {"AddressLine1": "1611 S BRANCH PKWY", "City": "SPRINGFIELD", "PostalCode": "01129", "State": "MA"}, {"AddressLine1": "108  ELLSWORTH AVE", "City": "SPRINGFIELD", "PostalCode": "01118", "State": "MA"}, {"AddressLine1": "494  ELM ST", "City": "PITTSFIELD", "PostalCode": "01201", "State": "MA"}, {"AddressLine1": "19 Junior Ave", "City": "METHUEN", "PostalCode": "01844", "State": "MA"}, {"AddressLine1": "33 Ridge Rd", "City": "E LONGMEADOW", "PostalCode": "01028", "State": "MA"}, {"AddressLine1": "15 NANCY DR    COGEN", "City": "AUBURN", "PostalCode": "01501", "State": "MA"}, {"AddressLine1": "1412 Sheffield Way", "City": "SAUGUS", "PostalCode": "01906", "State": "MA"}, {"AddressLine1": "32 Spring St", "City": "MEDFORD", "PostalCode": "02155", "State": "MA"}, {"AddressLine1": "101 Lawton St", "City": "WORCESTER", "PostalCode": "01604", "State": "MA"}, {"AddressLine1": "5 Voyer Ave", "City": "EAST LONGMEADOW", "PostalCode": "01028", "State": "MA"}, {"AddressLine1": "31 Story St", "City": "ESSEX", "PostalCode": "01929", "State": "MA"}, {"AddressLine1": "116 S Spencer Rd", "City": "SPENCER", "PostalCode": "01562", "State": "MA"}, {"AddressLine1": "129 Shore Rd", "City": "STURBRIDGE", "PostalCode": "01566", "State": "MA"}, {"AddressLine1": "40 Berry St Unit 4411", "City": "NORTH ANDOVER", "PostalCode": "01845", "State": "MA"}, {"AddressLine1": "54 SPRING ST FRONT", "City": "SOMERVILLE", "PostalCode": "02143", "State": "MA"}, {"AddressLine1": "2 Willow Ct", "City": "SAUGUS", "PostalCode": "01906", "State": "MA"}, {"AddressLine1": "675 MAIN ST", "City": "WAREHAM", "PostalCode": "02571", "State": "MA"}, {"AddressLine1": "2 Smith St", "City": "NEWBURY", "PostalCode": "01951", "State": "MA"}, {"AddressLine1": "346 Whipple Rd", "City": "TEWKSBURY", "PostalCode": "01876", "State": "MA"}, {"AddressLine1": "749 HEAD-OF-THE-BAY RD 4E", "City": "BUZZDS BAY", "PostalCode": "02532", "State": "MA"}, {"AddressLine1": "90 Grove St Apt 1", "City": "FALL RIVER", "PostalCode": "02720", "State": "MA"}, {"AddressLine1": "2356 Providence Rd Apt 1", "City": "NORTHBRIDGE", "PostalCode": "01534", "State": "MA"}, {"AddressLine1": "3436 RTE-6", "City": "WELLFLEET", "PostalCode": "02667", "State": "MA"}, {"AddressLine1": "816 OLD-STRAWBY-HL RD 5A", "City": "CENTERVIL", "PostalCode": "02632", "State": "MA"}, {"AddressLine1": "60 Bretwood Ln", "City": "CENTERVILLE", "PostalCode": "02632", "State": "MA"}, {"AddressLine1": "167 Georgetown Rd", "City": "BOXFORD", "PostalCode": "01921", "State": "MA"}, {"AddressLine1": "4 Harwood Dr", "City": "POCASSET", "PostalCode": "02559", "State": "MA"}, {"AddressLine1": "316 Shore Rd", "City": "BOURNE", "PostalCode": "02532", "State": "MA"}, {"AddressLine1": "83 Sheridan St Apt 1", "City": "LYNN", "PostalCode": "01902", "State": "MA"}, {"AddressLine1": "132 RTE-6A  UNIT 2", "City": "SANDWICH", "PostalCode": "02563", "State": "MA"}, {"AddressLine1": "155 Groton Rd", "City": "SHIRLEY", "PostalCode": "01464", "State": "MA"}, {"AddressLine1": "285 Plain St Apt 301", "City": "BROCKTON", "PostalCode": "02302", "State": "MA"}, {"AddressLine1": "197 SHOOT-FLYING-HILL RD", "City": "CENTERVIL", "PostalCode": "02632", "State": "MA"}, {"AddressLine1": "72 Paris Ave", "City": "WORCESTER", "PostalCode": "01603", "State": "MA"}, {"AddressLine1": "22 Round Hill Rd", "City": "KINGSTON", "PostalCode": "02364", "State": "MA"}, {"AddressLine1": "36 MAOLIS RD", "City": "NAHANT", "PostalCode": "01908", "State": "MA"}, {"AddressLine1": "5 Oak Ridge Dr Unit 2", "City": "MAYNARD", "PostalCode": "01754", "State": "MA"}, {"AddressLine1": "6 MAYFLOWER LN", "City": "SHARON", "PostalCode": "02067", "State": "MA"}, {"AddressLine1": "24 DENTON TER", "City": "ROSLINDALE", "PostalCode": "02131", "State": "MA"}, {"AddressLine1": "71 Farrar Ave", "City": "HYDE PARK", "PostalCode": "02136", "State": "MA"}, {"AddressLine1": "35 Miller Hill Rd", "City": "DOVER", "PostalCode": "02030", "State": "MA"}, {"AddressLine1": "1411 COMMONWEALTH AVE 301", "City": "BRIGHTON", "PostalCode": "02135", "State": "MA"}, {"AddressLine1": "34 Market St Apt 5", "City": "NEWBURYPORT", "PostalCode": "01950", "State": "MA"}, {"AddressLine1": "14 67th St Apt A", "City": "NEWBURYPORT", "PostalCode": "01950", "State": "MA"}, {"AddressLine1": "332 HARVARD ST 3", "City": "DORCHESTER", "PostalCode": "02124", "State": "MA"}, {"AddressLine1": "9 School St", "City": "BYFIELD", "PostalCode": "01922", "State": "MA"}, {"AddressLine1": "26 PINE-VIEW", "City": "MILLIS", "PostalCode": "02054", "State": "MA"}, {"AddressLine1": "200 Berkeley St", "City": "METHUEN", "PostalCode": "01844", "State": "MA"}, {"AddressLine1": "35 Washington St Apt 6", "City": "MEDFORD", "PostalCode": "02155", "State": "MA"}, {"AddressLine1": "3A Nowers Rd", "City": "LEXINGTON", "PostalCode": "02420", "State": "MA"}, {"AddressLine1": "996 Wood St", "City": "FALL RIVER", "PostalCode": "02721", "State": "MA"}, {"AddressLine1": "9 Fiske Pond Rd", "City": "HOLLISTON", "PostalCode": "01746", "State": "MA"}, {"AddressLine1": "167 Georgetown Rd", "City": "BOXFORD", "PostalCode": "01921", "State": "MA"}, {"AddressLine1": "5 N Bend Rd", "City": "WORCESTER", "PostalCode": "01602", "State": "MA"}, {"AddressLine1": "107 Avis Ave", "City": "DRACUT", "PostalCode": "01826", "State": "MA"}, {"AddressLine1": "32 Lorusso Dr", "City": "ATTLEBORO", "PostalCode": "02703", "State": "MA"}, {"AddressLine1": "340 Berlin Rd", "City": "MARLBOROUGH", "PostalCode": "01752", "State": "MA"}, {"AddressLine1": "39 Bodwell Ave", "City": "LOWELL", "PostalCode": "01854", "State": "MA"}, {"AddressLine1": "2 Palmer Rd", "City": "SWAMPSCOTT", "PostalCode": "01907", "State": "MA"}, {"AddressLine1": "47 Forest Ave", "City": "SWAMPSCOTT", "PostalCode": "01907", "State": "MA"}, {"AddressLine1": "2 Jak Len Dr", "City": "SALISBURY", "PostalCode": "01952", "State": "MA"}, {"AddressLine1": "10 North St", "City": "ERVING", "PostalCode": "01344", "State": "MA"}, {"AddressLine1": "40 Hoover St", "City": "LEOMINSTER", "PostalCode": "01453", "State": "MA"}, {"AddressLine1": "95 ALLEN ST", "City": "LEOMINSTER", "PostalCode": "01453", "State": "MA"}, {"AddressLine1": "9 Crickett Ln", "City": "RANDOLPH", "PostalCode": "02368", "State": "MA"}, {"AddressLine1": "61 Essex Heights Dr", "City": "WEYMOUTH", "PostalCode": "02188", "State": "MA"}, {"AddressLine1": "30 Joyce Rd", "City": "MEDFORD", "PostalCode": "02155", "State": "MA"}, {"AddressLine1": "257 TOM SWAMP RD LOT 3L3 POLE 1450", "City": "PETERSHAM", "PostalCode": "01366", "State": "MA"}, {"AddressLine1": "3 Green Acre Ln", "City": "CHELMSFORD", "PostalCode": "01824", "State": "MA"}, {"AddressLine1": "14 Summit Ave Apt 1", "City": "LYNN", "PostalCode": "01902", "State": "MA"}, {"AddressLine1": "12 Edwin Ave", "City": "METHUEN", "PostalCode": "01844", "State": "MA"}, {"AddressLine1": "82 Lake St", "City": "GARDNER", "PostalCode": "01440", "State": "MA"}, {"AddressLine1": "578 Division St Apt 1", "City": "FALL RIVER", "PostalCode": "02721", "State": "MA"}, {"AddressLine1": "10 STONEHEDGE RD", "City": "LEOMINSTER", "PostalCode": "01453", "State": "MA"}, {"AddressLine1": "141 JOHN ST", "City": "TEWKSBURY", "PostalCode": "01876", "State": "MA"}, {"AddressLine1": "393 High St", "City": "RANDOLPH", "PostalCode": "02368", "State": "MA"}, {"AddressLine1": "61 Babcock Tavern Rd", "City": "WARE", "PostalCode": "01082", "State": "MA"}, {"AddressLine1": "23 JUNIPER RDLOT 26", "City": "FRANKLIN", "PostalCode": "02038", "State": "MA"}, {"AddressLine1": "131 North Ave Apt 2A", "City": "ABINGTON", "PostalCode": "02351", "State": "MA"}, {"AddressLine1": "102 KING ST", "City": "HANSON", "PostalCode": "02341", "State": "MA"}, {"AddressLine1": "40 Winter St", "City": "BRIDGEWATER", "PostalCode": "02324", "State": "MA"}, {"AddressLine1": "6 Beverly Dr", "City": "PLAINVILLE", "PostalCode": "02762", "State": "MA"}, {"AddressLine1": "12 Beach Ave", "City": "SWAMPSCOTT", "PostalCode": "01907", "State": "MA"}, {"AddressLine1": "410 Massachusetts Ave", "City": "NORTH ANDOVER", "PostalCode": "01845", "State": "MA"}, {"AddressLine1": "132  MAIN ST", "City": "HATFIELD", "PostalCode": "01038", "State": "MA"}, {"AddressLine1": "41  BUGBEE RD", "City": "SOUTHWICK", "PostalCode": "01077", "State": "MA"}, {"AddressLine1": "62 Rose Ter", "City": "PITTSFIELD", "PostalCode": "01201", "State": "MA"}, {"AddressLine1": "844  WORTHINGTON STFL 3", "City": "SPRINGFIELD", "PostalCode": "01105", "State": "MA"}, {"AddressLine1": "17 Hidden Meadow Rd", "City": "AMHERST", "PostalCode": "01002", "State": "MA"}, {"AddressLine1": "37  ABERDEEN RD", "City": "SPRINGFIELD", "PostalCode": "01109", "State": "MA"}, {"AddressLine1": "41  HARVEY JOHNSON DR", "City": "AGAWAM", "PostalCode": "01001", "State": "MA"}, {"AddressLine1": "231 Greystone Ave", "City": "WEST SPRINGFIELD", "PostalCode": "01089", "State": "MA"}, {"AddressLine1": "15  WILLIAM HOLMES RD", "City": "BECKET", "PostalCode": "01223", "State": "MA"}, {"AddressLine1": "24  LAUREN LN", "City": "SOUTHWICK", "PostalCode": "01077", "State": "MA"}, {"AddressLine1": "358 S Silver Ln", "City": "SUNDERLAND", "PostalCode": "01375", "State": "MA"}, {"AddressLine1": "104 TURNPIKE RD APT 1101BLDNG 1", "City": "CHELMSFORD", "PostalCode": "01824", "State": "MA"}, {"AddressLine1": "36 quaker st", "City": "MILLVILLE", "PostalCode": "01529", "State": "MA"}, {"AddressLine1": "265 267 ESSEX ST APT 3A", "City": "LAWRENCE", "PostalCode": "01840", "State": "MA"}, {"AddressLine1": "96 N WORCESTER ST POLE 0454", "City": "NORTON", "PostalCode": "02766", "State": "MA"}, {"AddressLine1": "14 67TH ST APT B", "City": "NEWBURYPORT", "PostalCode": "01950", "State": "MA"}, {"AddressLine1": "262 CHESTNUT ST", "City": "CLINTON", "PostalCode": "01510", "State": "MA"}, {"AddressLine1": "3 NOYES LN GAR", "City": "NEWBURY", "PostalCode": "01951", "State": "MA"}, {"AddressLine1": "140 Canton St Apt F3", "City": "RANDOLPH", "PostalCode": "02368", "State": "MA"}, {"AddressLine1": "95 Staples St", "City": "LOWELL", "PostalCode": "01851", "State": "MA"}, {"AddressLine1": "21 ATHENS ST APT U1 U 1", "City": "WEYMOUTH", "PostalCode": "02191", "State": "MA"}, {"AddressLine1": "11B Tarrs Ln W", "City": "ROCKPORT", "PostalCode": "01966", "State": "MA"}, {"AddressLine1": "8 Elizabeth Ave", "City": "BEVERLY", "PostalCode": "01915", "State": "MA"}, {"AddressLine1": "25 Ridgewood Cir", "City": "LAWRENCE", "PostalCode": "01843", "State": "MA"}, {"AddressLine1": "45 Steele St", "City": "WORCESTER", "PostalCode": "01607", "State": "MA"}, {"AddressLine1": "18 Vista Ave", "City": "SALEM", "PostalCode": "01970", "State": "MA"}, {"AddressLine1": "6 Kiley Dr", "City": "RANDOLPH", "PostalCode": "02368", "State": "MA"}, {"AddressLine1": "45 Jackson Ave", "City": "SOMERSET", "PostalCode": "02725", "State": "MA"}, {"AddressLine1": "25 Judith Rd", "City": "WEYMOUTH", "PostalCode": "02191", "State": "MA"}, {"AddressLine1": "204 Granite St", "City": "ROCKPORT", "PostalCode": "01966", "State": "MA"}, {"AddressLine1": "763 Plymouth Ave", "City": "FALL RIVER", "PostalCode": "02721", "State": "MA"}, {"AddressLine1": "303 Whipple St Apt 2", "City": "FALL RIVER", "PostalCode": "02721", "State": "MA"}, {"AddressLine1": "6 Cottonwood Ln", "City": "ROCKLAND", "PostalCode": "02370", "State": "MA"}, {"AddressLine1": "31 MAIN ST POLE 13", "City": "HUBBARDSTON", "PostalCode": "01452", "State": "MA"}, {"AddressLine1": "53 MELROSE ST APT 3E", "City": "MELROSE", "PostalCode": "02176", "State": "MA"}, {"AddressLine1": "32 Wallis St", "City": "DOUGLAS", "PostalCode": "01516", "State": "MA"}, {"AddressLine1": "149 LINCOLN STFL 1 1ST POLE 17", "City": "MARLBOROUGH", "PostalCode": "01752", "State": "MA"}, {"AddressLine1": "1262 Watkins St", "City": "FALL RIVER", "PostalCode": "02720", "State": "MA"}, {"AddressLine1": "112 Hartwell St", "City": "SOUTHBRIDGE", "PostalCode": "01550", "State": "MA"}, {"AddressLine1": "80 Hammersmith Dr", "City": "SAUGUS", "PostalCode": "01906", "State": "MA"}, {"AddressLine1": "7 Darby St", "City": "TEWKSBURY", "PostalCode": "01876", "State": "MA"}, {"AddressLine1": "4 Hammond St", "City": "RANDOLPH", "PostalCode": "02368", "State": "MA"}, {"AddressLine1": "166 High Plain Rd", "City": "ANDOVER", "PostalCode": "01810", "State": "MA"}, {"AddressLine1": "49 YALE ST APT S1", "City": "MEDFORD", "PostalCode": "02155", "State": "MA"}, {"AddressLine1": "1054 Wilson St", "City": "PALMER", "PostalCode": "01069", "State": "MA"}, {"AddressLine1": "22 Goodrich Dr", "City": "WINCHENDON", "PostalCode": "01475", "State": "MA"}, {"AddressLine1": "29 Westover St", "City": "EVERETT", "PostalCode": "02149", "State": "MA"}, {"AddressLine1": "104 Patriot Pkwy", "City": "REVERE", "PostalCode": "02151", "State": "MA"}, {"AddressLine1": "283 Fellsway E", "City": "MALDEN", "PostalCode": "02148", "State": "MA"}, {"AddressLine1": "8 MEADOW RD APT 1", "City": "WESTPORT", "PostalCode": "02790", "State": "MA"}, {"AddressLine1": "167 Robin Hill Rd", "City": "CHELMSFORD", "PostalCode": "01824", "State": "MA"}, {"AddressLine1": "192 Shoreline Dr", "City": "N BILLERICA", "PostalCode": "01862", "State": "MA"}, {"AddressLine1": "42 West St Apt 2", "City": "MILFORD", "PostalCode": "01757", "State": "MA"}, {"AddressLine1": "78 Sherwood Dr", "City": "METHUEN", "PostalCode": "01844", "State": "MA"}, {"AddressLine1": "582 SHAWMUT AVE 1", "City": "NEW BEDFRD", "PostalCode": "02740", "State": "MA"}, {"AddressLine1": "33 CAPT-WM-ARTHUR RD", "City": "BREWSTER", "PostalCode": "02631", "State": "MA"}, {"AddressLine1": "10 Sibley Rd", "City": "WINCHENDON", "PostalCode": "01475", "State": "MA"}, {"AddressLine1": "53 HEAD-OF-POND RD", "City": "OAK BLUFFS", "PostalCode": "02557", "State": "MA"}, {"AddressLine1": "67 Allen Rd", "City": "STURBRIDGE", "PostalCode": "01566", "State": "MA"}, {"AddressLine1": "495 River Rd", "City": "MARSTNS ML", "PostalCode": "02648", "State": "MA"}, {"AddressLine1": "27 N-UNION ST 9", "City": "ARLINGTON", "PostalCode": "02474", "State": "MA"}, {"AddressLine1": "364 SUMNER ST 1", "City": "E BOSTON", "PostalCode": "02128", "State": "MA"}, {"AddressLine1": "8 Neponset Ave", "City": "ROSLINDALE", "PostalCode": "02131", "State": "MA"}, {"AddressLine1": "80 Franklin St", "City": "STONEHAM", "PostalCode": "02180", "State": "MA"}, {"AddressLine1": "24 Wesson Rd", "City": "ASHLAND", "PostalCode": "01721", "State": "MA"}, {"AddressLine1": "6 Myrna Rd", "City": "LEXINGTON", "PostalCode": "02420", "State": "MA"}, {"AddressLine1": "64 THOREAU RD APT 1 1 RT", "City": "NORTH QUINCY", "PostalCode": "02171", "State": "MA"}, {"AddressLine1": "24 JAPONICA ST    COGEN", "City": "SALEM", "PostalCode": "01970", "State": "MA"}, {"AddressLine1": "25 Bottomley Ave", "City": "CHERRY VALLEY", "PostalCode": "01611", "State": "MA"}, {"AddressLine1": "90 BROAD ST POLE 12", "City": "BARRE", "PostalCode": "01005", "State": "MA"}, {"AddressLine1": "60 RIVERS LN    COGEN", "City": "MALDEN", "PostalCode": "02148", "State": "MA"}, {"AddressLine1": "174 High St", "City": "WEBSTER", "PostalCode": "01570", "State": "MA"}, {"AddressLine1": "4 Hawthorne Path", "City": "MILFORD", "PostalCode": "01757", "State": "MA"}, {"AddressLine1": "37 HUDSON ST POLE 6", "City": "BROCKTON", "PostalCode": "02302", "State": "MA"}, {"AddressLine1": "80  EUCLID AVEFL 1", "City": "SPRINGFIELD", "PostalCode": "01108", "State": "MA"}, {"AddressLine1": "210 Liberty Bell Cir", "City": "WEYMOUTH", "PostalCode": "02189", "State": "MA"}, {"AddressLine1": "214 Bryant St Apt 6", "City": "MALDEN", "PostalCode": "02148", "State": "MA"}, {"AddressLine1": "498 N Cary St", "City": "BROCKTON", "PostalCode": "02302", "State": "MA"}, {"AddressLine1": "15 Murray Hill Rd", "City": "MEDFORD", "PostalCode": "02155", "State": "MA"}, {"AddressLine1": "209 Moulton St", "City": "REHOBOTH", "PostalCode": "02769", "State": "MA"}, {"AddressLine1": "15 Northside Ave", "City": "LYNN", "PostalCode": "01905", "State": "MA"}, {"AddressLine1": "50 Nadine Ln", "City": "STOUGHTON", "PostalCode": "02072", "State": "MA"}, {"AddressLine1": "100 Hart St", "City": "BEVERLY", "PostalCode": "01915", "State": "MA"}, {"AddressLine1": "8 Chandler St", "City": "BRADFORD", "PostalCode": "01835", "State": "MA"}, {"AddressLine1": "125 LEADMINE RD POLE 35", "City": "FISKDALE", "PostalCode": "01518", "State": "MA"}, {"AddressLine1": "175 Main St Apt 6", "City": "NORTH ANDOVER", "PostalCode": "01845", "State": "MA"}, {"AddressLine1": "7 HARMONY ST APT  2", "City": "SALEM", "PostalCode": "01970", "State": "MA"}, {"AddressLine1": "98 Elm St", "City": "BLACKSTONE", "PostalCode": "01504", "State": "MA"}, {"AddressLine1": "66 SLADES-FARM LN", "City": "S DARTMUTH", "PostalCode": "02748", "State": "MA"}, {"AddressLine1": "15 Olympic Ct", "City": "EAST WALPOLE", "PostalCode": "02032", "State": "MA"}, {"AddressLine1": "63 SLOCUM ST 2", "City": "ACUSHNET", "PostalCode": "02743", "State": "MA"}, {"AddressLine1": "135 N Main St", "City": "FLORENCE", "PostalCode": "01062", "State": "MA"}, {"AddressLine1": "181 LITTLETON RD APT 145BLDG 2 125 146", "City": "CHELMSFORD", "PostalCode": "01824", "State": "MA"}, {"AddressLine1": "48 Lake Shore Dr S", "City": "WESTFORD", "PostalCode": "01886", "State": "MA"}, {"AddressLine1": "3 Penacook Pl", "City": "ANDOVER", "PostalCode": "01810", "State": "MA"}, {"AddressLine1": "8 NAHANT PL UNIT 405", "City": "LYNN", "PostalCode": "01902", "State": "MA"}, {"AddressLine1": "22  NASHAWANNUCK STAPT 6B", "City": "EASTHAMPTON", "PostalCode": "01027", "State": "MA"}, {"AddressLine1": "91 Barney St", "City": "AGAWAM", "PostalCode": "01001", "State": "MA"}, {"AddressLine1": "26  MUNN RD", "City": "BECKET", "PostalCode": "01223", "State": "MA"}, {"AddressLine1": "135 HIGHLAND ST    COGEN", "City": "SOUTH EASTON", "PostalCode": "02375", "State": "MA"}, {"AddressLine1": "414 Summer St", "City": "NORTH ANDOVER", "PostalCode": "01845", "State": "MA"}, {"AddressLine1": "165 ELLIOTT ST  TEMP", "City": "HAVERHILL", "PostalCode": "01830", "State": "MA"}, {"AddressLine1": "19 Windsor St", "City": "METHUEN", "PostalCode": "01844", "State": "MA"}, {"AddressLine1": "4 RIVERHURST RD APT 234FLOOR 2", "City": "BILLERICA", "PostalCode": "01821", "State": "MA"}, {"AddressLine1": "638 MAIN ST FL 2 2FL", "City": "WEYMOUTH", "PostalCode": "02190", "State": "MA"}, {"AddressLine1": "418 REVERE BEACH PKWYLOT 50", "City": "REVERE", "PostalCode": "02151", "State": "MA"}, {"AddressLine1": "87 Leoleis Dr", "City": "MARLBOROUGH", "PostalCode": "01752", "State": "MA"}, {"AddressLine1": "135 FOREST ST APT W9", "City": "SAUGUS", "PostalCode": "01906", "State": "MA"}, {"AddressLine1": "488 COGGESHALL ST", "City": "FALL RIVER", "PostalCode": "02721", "State": "MA"}, {"AddressLine1": "9 Kiley Dr", "City": "RANDOLPH", "PostalCode": "02368", "State": "MA"}, {"AddressLine1": "22 Clearview Ave", "City": "GLOUCESTER", "PostalCode": "01930", "State": "MA"}, {"AddressLine1": "17 Sunset Dr", "City": "BEVERLY", "PostalCode": "01915", "State": "MA"}, {"AddressLine1": "24 Shady Ln", "City": "OXFORD", "PostalCode": "01540", "State": "MA"}, {"AddressLine1": "615 S EGREMONT RD POLE 26 03", "City": "GT BARRINGTON", "PostalCode": "01230", "State": "MA"}]
