[{"AddressLine1": "4619 McCauley Rd", "City": "WOOSTER", "PostalCode": "44691", "State": "OH"}, {"AddressLine1": "1779 Stockdale Rd", "City": "BEAVER", "PostalCode": "45613", "State": "OH"}, {"AddressLine1": "367 S 4th St", "City": "COSHOCTON", "PostalCode": "43812", "State": "OH"}, {"AddressLine1": "5005 Janet Ave", "City": "SYLVANIA", "PostalCode": "43560", "State": "OH"}, {"AddressLine1": "30606 Winston Dr", "City": "BAY VILLAGE", "PostalCode": "44140", "State": "OH"}, {"AddressLine1": "1110 6th St SW", "City": "MASSILLON", "PostalCode": "44647", "State": "OH"}, {"AddressLine1": "1352 Leeser Ave", "City": "AKRON", "PostalCode": "44314", "State": "OH"}, {"AddressLine1": "2895 Westville Lake Rd", "City": "BELOIT", "PostalCode": "44609", "State": "OH"}, {"AddressLine1": "102 E Main St Apt 802", "City": "SPRINGFIELD", "PostalCode": "45502", "State": "OH"}, {"AddressLine1": "823 Main St", "City": "HURON", "PostalCode": "44839", "State": "OH"}, {"AddressLine1": "5456 Warren Sharon Rd", "City": "VIENNA", "PostalCode": "44473", "State": "OH"}, {"AddressLine1": "38647 TERRELL DR", "City": "NORTH RIDGEVILLE", "PostalCode": "44039", "State": "OH"}, {"AddressLine1": "495 W Main St", "City": "ALLIANCE", "PostalCode": "44601", "State": "OH"}, {"AddressLine1": "872 Seward Ave", "City": "AKRON", "PostalCode": "44320", "State": "OH"}, {"AddressLine1": "1432 Broadway St", "City": "SPRINGFIELD", "PostalCode": "45504", "State": "OH"}, {"AddressLine1": "1760 OAKWOOD AVE", "City": "YOUNGSTOWN", "PostalCode": "44509", "State": "OH"}, {"AddressLine1": "4819 Erie St", "City": "BOARDMAN", "PostalCode": "44512", "State": "OH"}, {"AddressLine1": "00801 MCGUFFEY", "City": "OXFORD", "PostalCode": "45056", "State": "OH"}, {"AddressLine1": "3165 Barbara Ct Apt S4", "City": "MIDDLETOWN", "PostalCode": "45044", "State": "OH"}, {"AddressLine1": "00079 CLINTON SPRINGS", "City": "CINCINNATI", "PostalCode": "45217", "State": "OH"}, {"AddressLine1": "711 W WENGER RDAPT  188", "City": "ENGLEWOOD", "PostalCode": "45322", "State": "OH"}, {"AddressLine1": "8055 MORROW WOODVILLE RD", "City": "PLEASANT PLAIN", "PostalCode": "45162", "State": "OH"}, {"AddressLine1": "6514 Tri County Rd", "City": "SEAMAN", "PostalCode": "45679", "State": "OH"}, {"AddressLine1": "5017 Common Market Pl", "City": "DUBLIN", "PostalCode": "43016", "State": "OH"}, {"AddressLine1": "808 State Route 212 NW", "City": "BOLIVAR", "PostalCode": "44612", "State": "OH"}, {"AddressLine1": "501 23rd St NW", "City": " CANTON", "PostalCode": "44709", "State": "OH"}, {"AddressLine1": "110 Meridian Way Apt A", "City": "WINTERSVILLE", "PostalCode": "43953", "State": "OH"}, {"AddressLine1": "7255 Bear Run Rd", "City": "LOGAN", "PostalCode": "43138", "State": "OH"}, {"AddressLine1": "1033 Union Ave NW", "City": "NEW PHILADELPHIA", "PostalCode": "44663", "State": "OH"}, {"AddressLine1": "26 W BOSTON AVE", "City": "YOUNGSTOWN", "PostalCode": "44507", "State": "OH"}, {"AddressLine1": "8170 Painesville Ravenna Rd", "City": "CONCORD TOWNSHIP", "PostalCode": "44077", "State": "OH"}, {"AddressLine1": "12732 CONCORD HAMBDEN RD", "City": "CONCORD", "PostalCode": "44077", "State": "OH"}, {"AddressLine1": "1891 Braeburn Park Dr", "City": "EUCLID", "PostalCode": "44117", "State": "OH"}, {"AddressLine1": "4081 Redonda Ln", "City": "DAYTON", "PostalCode": "45416", "State": "OH"}, {"AddressLine1": "36 Allen Ave", "City": "NEW HOLLAND", "PostalCode": "43145", "State": "OH"}, {"AddressLine1": "4603 Laurel Dr", "City": "DAYTON", "PostalCode": "45417", "State": "OH"}, {"AddressLine1": "3044 WARDALL AVE", "City": "CINCINNATI", "PostalCode": "45211", "State": "OH"}, {"AddressLine1": "550 HALE AVE", "City": "CINCINNATI", "PostalCode": "45229", "State": "OH"}, {"AddressLine1": "4522 Willowknoll Cir", "City": "MIDDLETOWN", "PostalCode": "45042", "State": "OH"}, {"AddressLine1": "1491 BAYMILLER WALK", "City": "CINCINNATI", "PostalCode": "45214", "State": "OH"}, {"AddressLine1": " 5300 HAMILTON MIDDLETOWN 44 DARLINGTON RD", "City": "HAMILTON", "PostalCode": "45011", "State": "OH"}, {"AddressLine1": "8367 MAY AVE", "City": "MIDDLETOWN", "PostalCode": "45042", "State": "OH"}, {"AddressLine1": "1302 COMPTON RD", "City": "CINCINNATI", "PostalCode": "45231", "State": "OH"}, {"AddressLine1": "1201 State Route 743", "City": "MOSCOW", "PostalCode": "45153", "State": "OH"}, {"AddressLine1": "9526 RIDGEMOOR AVE", "City": "CINCINNATI", "PostalCode": "45231", "State": "OH"}, {"AddressLine1": "347 Avondale Ave", "City": "COLUMBUS", "PostalCode": "43223", "State": "OH"}, {"AddressLine1": "1661 Schrock Rd", "City": "COLUMBUS", "PostalCode": "43229", "State": "OH"}, {"AddressLine1": "263 State", "City": " GALLIPOLIS", "PostalCode": "45631", "State": "OH"}, {"AddressLine1": "1345 Molly Ln", "City": "COLUMBUS", "PostalCode": "43207", "State": "OH"}, {"AddressLine1": "863 Scioto Meadows Blvd", "City": "GROVE CITY", "PostalCode": "43123", "State": "OH"}, {"AddressLine1": "1345 Duxberry Ave", "City": "COLUMBUS", "PostalCode": "43211", "State": "OH"}, {"AddressLine1": "24 Bow St", "City": "NEWARK", "PostalCode": "43055", "State": "OH"}, {"AddressLine1": "723 Prairie College St SW", "City": " CANTON", "PostalCode": "44706", "State": "OH"}, {"AddressLine1": "3455 Ridge Rd", "City": "ZANESVILLE", "PostalCode": "43701", "State": "OH"}, {"AddressLine1": "404 W NORTH ST", "City": "KALIDA", "PostalCode": "45853", "State": "OH"}, {"AddressLine1": "300 Jacquette St", "City": "BRIDGEPORT", "PostalCode": "43912", "State": "OH"}, {"AddressLine1": "04379 8TH W", "City": "CINCINNATI", "PostalCode": "45205", "State": "OH"}, {"AddressLine1": "705 E 240th St", "City": "EUCLID", "PostalCode": "44123", "State": "OH"}, {"AddressLine1": "13418 Green Dr", "City": "CHESTERLAND", "PostalCode": "44026", "State": "OH"}, {"AddressLine1": "6697 Nancy Dr", "City": "NORTH OLMSTED", "PostalCode": "44070", "State": "OH"}, {"AddressLine1": "3083 Chenoweth Rd", "City": "AKRON", "PostalCode": "44312", "State": "OH"}, {"AddressLine1": "9051 Brookside Rd", "City": "INDEPENDENCE", "PostalCode": "44131", "State": "OH"}, {"AddressLine1": "4707 MILL ST", "City": "MANTUA", "PostalCode": "44255", "State": "OH"}, {"AddressLine1": "09249 LINK RD", "City": "LOVELAND", "PostalCode": "45140", "State": "OH"}, {"AddressLine1": "318 Shadowlawn Ave", "City": "DAYTON", "PostalCode": "45419", "State": "OH"}, {"AddressLine1": "00018 MERLIN DR", "City": "FAIRFIELD", "PostalCode": "45014", "State": "OH"}, {"AddressLine1": "28 McKinley St", "City": "DAYTON", "PostalCode": "45403", "State": "OH"}, {"AddressLine1": "1425 REGENT AVE", "City": "CINCINNATI", "PostalCode": "45237", "State": "OH"}, {"AddressLine1": "85 Marisha Ct", "City": "SPRINGBORO", "PostalCode": "45066", "State": "OH"}, {"AddressLine1": "6488 CHABLIS DR", "City": "HAMILTON", "PostalCode": "45011", "State": "OH"}, {"AddressLine1": "7027 VINE ST", "City": "CINCINNATI", "PostalCode": "45216", "State": "OH"}, {"AddressLine1": "6418 ELMWOOD AVE", "City": "CINCINNATI", "PostalCode": "45216", "State": "OH"}, {"AddressLine1": "6687 SUSAN DR", "City": "LOVELAND", "PostalCode": "45140", "State": "OH"}, {"AddressLine1": "6903 PALMETTO ST", "City": "CINCINNATI", "PostalCode": "45227", "State": "OH"}, {"AddressLine1": "2863 COLERAIN AVE", "City": "CINCINNATI", "PostalCode": "45225", "State": "OH"}, {"AddressLine1": "5279 COLLEGE CORNER PIKE", "City": "OXFORD", "PostalCode": "45056", "State": "OH"}, {"AddressLine1": "3 LORI LN", "City": "AMELIA", "PostalCode": "45102", "State": "OH"}, {"AddressLine1": "1113 BALTIMORE ST", "City": "MIDDLETOWN", "PostalCode": "45044", "State": "OH"}, {"AddressLine1": "2204 MEADOWLAWN WAY", "City": "FAIRFIELD", "PostalCode": "45014", "State": "OH"}, {"AddressLine1": "6335 Baskerville Dr", "City": "COLUMBUS", "PostalCode": "43213", "State": "OH"}, {"AddressLine1": "205 19th St NE Apt 205", "City": "CANTON", "PostalCode": "44714", "State": "OH"}, {"AddressLine1": "1013 6th St SW", "City": " CANTON", "PostalCode": "44707", "State": "OH"}, {"AddressLine1": "921 3rd St NW", "City": " CANTON", "PostalCode": "44703", "State": "OH"}, {"AddressLine1": "02065 WOODTRAIL DR", "City": "FAIRFIELD", "PostalCode": "45014", "State": "OH"}, {"AddressLine1": "852 ST-AGNES AVE", "City": "DAYTON", "PostalCode": "45402", "State": "OH"}, {"AddressLine1": "2041 WOODCREEK DR", "City": "FAIRFIELD", "PostalCode": "45014", "State": "OH"}, {"AddressLine1": "3149 Brooks St", "City": "DAYTON", "PostalCode": "45420", "State": "OH"}, {"AddressLine1": "03950 ZINSLE", "City": "CINCINNATI", "PostalCode": "45213", "State": "OH"}, {"AddressLine1": "1195 Acton Rd", "City": "COLUMBUS", "PostalCode": "43224", "State": "OH"}, {"AddressLine1": "5626 River Rd", "City": "WAVERLY", "PostalCode": "45690", "State": "OH"}, {"AddressLine1": "203 West Rd", "City": "TORONTO", "PostalCode": "43964", "State": "OH"}, {"AddressLine1": "1990 Townline Road 12 Lot 4", "City": "WILLARD", "PostalCode": "44890", "State": "OH"}, {"AddressLine1": "260 State", "City": " GALLIPOLIS", "PostalCode": "45631", "State": "OH"}, {"AddressLine1": "106 Broadway St", "City": "MINGO JUNCTION", "PostalCode": "43938", "State": "OH"}, {"AddressLine1": "615 RAFF RD SW", "City": " CANTON", "PostalCode": "44710", "State": "OH"}, {"AddressLine1": "705 RAFF RD SW FL 2", "City": " CANTON", "PostalCode": "44710", "State": "OH"}, {"AddressLine1": "509 N 3rd St", "City": "TORONTO", "PostalCode": "43964", "State": "OH"}, {"AddressLine1": "314 Sullivan", "City": "BETTSVILLE", "PostalCode": "44815", "State": "OH"}, {"AddressLine1": "7808 Maryland Ave", "City": "CLEVELAND", "PostalCode": "44105", "State": "OH"}, {"AddressLine1": "4745 Autumn Ln", "City": "BROOKLYN", "PostalCode": "44144", "State": "OH"}, {"AddressLine1": "17889 Lake Rd", "City": "LAKEWOOD", "PostalCode": "44107", "State": "OH"}, {"AddressLine1": "109 Sexton St", "City": "STRUTHERS", "PostalCode": "44471", "State": "OH"}, {"AddressLine1": "3072 LINCOLN WAY W", "City": "MASSILLON", "PostalCode": "44647", "State": "OH"}, {"AddressLine1": "1640 Kinsman Rd NE", "City": "NORTH BLOOMFIELD", "PostalCode": "44450", "State": "OH"}, {"AddressLine1": "344 Nassau St", "City": "DAYTON", "PostalCode": "45410", "State": "OH"}, {"AddressLine1": "252 Lorenz Ave", "City": "DAYTON", "PostalCode": "45417", "State": "OH"}, {"AddressLine1": "4656 Rapid Run Rd Apt 6", "City": "CINCINNATI", "PostalCode": "45238", "State": "OH"}, {"AddressLine1": "6932 BUCKINGHAM PL", "City": "CINCINNATI", "PostalCode": "45227", "State": "OH"}, {"AddressLine1": "11024 QUAILRIDGE CT", "City": "CINCINNATI", "PostalCode": "45240", "State": "OH"}, {"AddressLine1": "1206 Pine St", "City": "MIDDLETOWN", "PostalCode": "45044", "State": "OH"}, {"AddressLine1": "6420 Cary Ave", "City": "CINCINNATI", "PostalCode": "45224", "State": "OH"}, {"AddressLine1": "1101 KUNZ AVE", "City": "MIDDLETOWN", "PostalCode": "45044", "State": "OH"}, {"AddressLine1": "5200 Riverwalk Dr", "City": "KINGS MILLS", "PostalCode": "45034", "State": "OH"}, {"AddressLine1": "3769 Benhill Dr", "City": "CINCINNATI", "PostalCode": "45247", "State": "OH"}, {"AddressLine1": "4426 N STATE ROUTE 741", "City": "LEBANON", "PostalCode": "45036", "State": "OH"}, {"AddressLine1": "2400 HARRISON AVE", "City": "CINCINNATI", "PostalCode": "45211", "State": "OH"}, {"AddressLine1": "945 BEHLES AVE", "City": "CINCINNATI", "PostalCode": "45215", "State": "OH"}, {"AddressLine1": "1493 COMPTON RD", "City": "CINCINNATI", "PostalCode": "45231", "State": "OH"}, {"AddressLine1": "4156 CHEROKEE TRL", "City": "JAMESTWN", "PostalCode": "45335", "State": "OH"}, {"AddressLine1": "4251 Farr Ct", "City": "GROVE CITY", "PostalCode": "43123", "State": "OH"}, {"AddressLine1": "1665 E Blake Ave", "City": "COLUMBUS", "PostalCode": "43219", "State": "OH"}, {"AddressLine1": "5558 Howth Pl", "City": "CANAL WINCHESTER", "PostalCode": "43110", "State": "OH"}, {"AddressLine1": "228 E Lincoln Ave", "City": "COLUMBUS", "PostalCode": "43214", "State": "OH"}, {"AddressLine1": "1574 CRYSTAL CT APT D", "City": "NEWARK", "PostalCode": "43055", "State": "OH"}, {"AddressLine1": "1522 Jackson St", "City": "PORTSMOUTH", "PostalCode": "45662", "State": "OH"}, {"AddressLine1": "561 Downard Rd", "City": "ZANESVILLE", "PostalCode": "43701", "State": "OH"}, {"AddressLine1": "405 Hopkins Aly Apt B", "City": "PAULDING", "PostalCode": "45879", "State": "OH"}, {"AddressLine1": "338 Montrose Ave", "City": "AKRON", "PostalCode": "44310", "State": "OH"}, {"AddressLine1": "304 Oakdale Ave", "City": "TOLEDO", "PostalCode": "43605", "State": "OH"}, {"AddressLine1": "904 N BELLE VISTA ST", "City": "YOUNGSTOWN", "PostalCode": "44509", "State": "OH"}, {"AddressLine1": "383 Noble Ave", "City": "AKRON", "PostalCode": "44320", "State": "OH"}, {"AddressLine1": "9210 MANOR NE RD", "City": "MINERVA", "PostalCode": "44657", "State": "OH"}, {"AddressLine1": "29 Wilma Ave", "City": "YOUNGSTOWN", "PostalCode": "44512", "State": "OH"}, {"AddressLine1": "9001 GLADYS NW ST", "City": "MASSILLON", "PostalCode": "44646", "State": "OH"}, {"AddressLine1": "00731 STEWART", "City": "CINCINNATI", "PostalCode": "45215", "State": "OH"}, {"AddressLine1": "13435 Judas Rd", "City": "NEW HOLLND", "PostalCode": "43145", "State": "OH"}, {"AddressLine1": "02004 CRANE", "City": "CINCINNATI", "PostalCode": "45207", "State": "OH"}, {"AddressLine1": "8725 HARPER POINT DR", "City": "CINCINNATI", "PostalCode": "45249", "State": "OH"}, {"AddressLine1": "3304 GLENMORE AVE", "City": "CINCINNATI", "PostalCode": "45211", "State": "OH"}, {"AddressLine1": "4768 RAPID RUN RD", "City": "CINCINNATI", "PostalCode": "45238", "State": "OH"}, {"AddressLine1": "2537 EL CAMINO DR", "City": "MIDDLETOWN", "PostalCode": "45044", "State": "OH"}, {"AddressLine1": "6700 Station Rd", "City": "WEST CHESTER", "PostalCode": "45069", "State": "OH"}, {"AddressLine1": "1231 DIXIE CT", "City": "CINCINNATI", "PostalCode": "45215", "State": "OH"}, {"AddressLine1": "1045 CRISFIELD DR", "City": "CINCINNATI", "PostalCode": "45245", "State": "OH"}, {"AddressLine1": "8886 NEPTUNE DR", "City": "CINCINNATI", "PostalCode": "45231", "State": "OH"}, {"AddressLine1": "3031 WESTWOOD NORTHERN BLVD", "City": "CINCINNATI", "PostalCode": "45211", "State": "OH"}, {"AddressLine1": "1702 BERKLEY AVE", "City": "CINCINNATI", "PostalCode": "45237", "State": "OH"}, {"AddressLine1": "12260 Judas Rd", "City": "NEW HOLLND", "PostalCode": "43145", "State": "OH"}, {"AddressLine1": "3915 Easton Way", "City": "COLUMBUS", "PostalCode": "43219", "State": "OH"}, {"AddressLine1": "2706 Glenshire Dr", "City": "COLUMBUS", "PostalCode": "43219", "State": "OH"}, {"AddressLine1": "1600 Borror Rd", "City": "GROVE CITY", "PostalCode": "43123", "State": "OH"}, {"AddressLine1": "5415 Country Meadow Ct", "City": "WESTERVILLE", "PostalCode": "43082", "State": "OH"}, {"AddressLine1": "91 Pocono Rd", "City": "COLUMBUS", "PostalCode": "43235", "State": "OH"}, {"AddressLine1": "508 Cutler St", "City": "MARIETTA", "PostalCode": "45750", "State": "OH"}, {"AddressLine1": "1313 E 20th Ave", "City": "COLUMBUS", "PostalCode": "43211", "State": "OH"}, {"AddressLine1": "292 N Yearling Rd Apt M", "City": "WHITEHALL", "PostalCode": "43213", "State": "OH"}, {"AddressLine1": "5935 N High St Apt 221", "City": "WORTHINGTON", "PostalCode": "43085", "State": "OH"}, {"AddressLine1": "1049 HARMON AVE UNIT F25", "City": "COLUMBUS", "PostalCode": "43223", "State": "OH"}, {"AddressLine1": "1293 CROMARTIE LN UNIT 308", "City": "COLUMBUS", "PostalCode": "43201", "State": "OH"}, {"AddressLine1": "5216 Kornwal Dr", "City": "COLUMBUS", "PostalCode": "43232", "State": "OH"}, {"AddressLine1": "1543 Cambridge Ave SW", "City": "NORTH CANTON", "PostalCode": "44709", "State": "OH"}, {"AddressLine1": "841 Central Ave", "City": "FOSTORIA", "PostalCode": "44830", "State": "OH"}, {"AddressLine1": "45934 Township Road 290", "City": "COSHOCTON", "PostalCode": "43812", "State": "OH"}, {"AddressLine1": "24101 LAKE SHORE BLVD", "City": "EUCLID", "PostalCode": "44123", "State": "OH"}, {"AddressLine1": "697 Longview Ave", "City": "AKRON", "PostalCode": "44307", "State": "OH"}, {"AddressLine1": "1732 Robin Cir", "City": "ASHTABULA", "PostalCode": "44004", "State": "OH"}, {"AddressLine1": "1311 Brittain Rd", "City": "AKRON", "PostalCode": "44310", "State": "OH"}, {"AddressLine1": "4848 Whyem Dr", "City": "AKRON", "PostalCode": "44319", "State": "OH"}, {"AddressLine1": "7 Walker Ct", "City": "POLAND", "PostalCode": "44514", "State": "OH"}, {"AddressLine1": "5141 Newton Falls Rd", "City": "RAVENNA", "PostalCode": "44266", "State": "OH"}, {"AddressLine1": "5802 N ELLISTON TROWBRIDGE", "City": "MARTIN", "PostalCode": "43445", "State": "OH"}, {"AddressLine1": "145 VAN BUREN AVE", "City": "RAVENNA", "PostalCode": "44266", "State": "OH"}, {"AddressLine1": "1248 Freeport Dr", "City": "MEDINA", "PostalCode": "44256", "State": "OH"}, {"AddressLine1": "696 Allyn St", "City": "AKRON", "PostalCode": "44311", "State": "OH"}, {"AddressLine1": "PO Box 128", "City": "WEST MANSFIELD", "PostalCode": "43358", "State": "OH"}, {"AddressLine1": "01917 LOSANTIVILLE", "City": "CINCINNATI", "PostalCode": "45237", "State": "OH"}, {"AddressLine1": "1137 S LYNNEBROOK DR", "City": "CINCINNATI", "PostalCode": "45224", "State": "OH"}, {"AddressLine1": "2971 FOURTOWERS DR", "City": "CINCINNATI", "PostalCode": "45238", "State": "OH"}, {"AddressLine1": "116 COLE DR", "City": "FAIRFIELD", "PostalCode": "45014", "State": "OH"}, {"AddressLine1": "846 CLARK ST", "City": "CINCINNATI", "PostalCode": "45203", "State": "OH"}, {"AddressLine1": "117 GOETHE ST", "City": "CINCINNATI", "PostalCode": "45202", "State": "OH"}, {"AddressLine1": "1821 LOUIS LN", "City": "GOSHEN", "PostalCode": "45122", "State": "OH"}, {"AddressLine1": "2735 Pontiac St Apt C", "City": "COLUMBUS", "PostalCode": "43211", "State": "OH"}, {"AddressLine1": "1590 Manchester Ave", "City": "COLUMBUS", "PostalCode": "43211", "State": "OH"}, {"AddressLine1": "669 Racine Ave", "City": "COLUMBUS", "PostalCode": "43204", "State": "OH"}, {"AddressLine1": "540 GIEKE RD TRLR", "City": "OAK HILL", "PostalCode": "45656", "State": "OH"}, {"AddressLine1": "42 N McKinley Ave Apt 301", "City": "ATHENS", "PostalCode": "45701", "State": "OH"}, {"AddressLine1": "4043 Wakefield Mound Rd Lot 207", "City": "PIKETON", "PostalCode": "45661", "State": "OH"}, {"AddressLine1": "5443 Deerbrook Ln", "City": "COLUMBUS", "PostalCode": "43213", "State": "OH"}, {"AddressLine1": "6767 Amsel Ave NE", "City": " CANTON", "PostalCode": "44721", "State": "OH"}, {"AddressLine1": "611 E Ford Ave", "City": "LIMA", "PostalCode": "45801", "State": "OH"}, {"AddressLine1": "5252 Peninsula Dr NW", "City": "CANTON", "PostalCode": "44718", "State": "OH"}, {"AddressLine1": "1225 Southland Dr", "City": "BUCYRUS", "PostalCode": "44820", "State": "OH"}, {"AddressLine1": "1716 Harmont Ave NE", "City": " CANTON", "PostalCode": "44705", "State": "OH"}, {"AddressLine1": "7455 STATE ROUTE 141", "City": "KITTS HILL", "PostalCode": "45645", "State": "OH"}, {"AddressLine1": "37 Private Drive 325", "City": "IRONTON", "PostalCode": "45638", "State": "OH"}, {"AddressLine1": "208 Dallas Pl SE Lot 7", "City": "NORTH INDUSTRY", "PostalCode": "44707", "State": "OH"}, {"AddressLine1": "419 Madison St", "City": "KENTON", "PostalCode": "43326", "State": "OH"}, {"AddressLine1": "06316 BEECHMONT", "City": "CINCINNATI", "PostalCode": "45230", "State": "OH"}, {"AddressLine1": "3800 KESSLER RD", "City": "W MILTON", "PostalCode": "45383", "State": "OH"}, {"AddressLine1": "585 RUSSET WOOD LN", "City": "AURORA", "PostalCode": "44202", "State": "OH"}, {"AddressLine1": "1881 SHELDON ST", "City": "EAST CLEVELAND", "PostalCode": "44112", "State": "OH"}, {"AddressLine1": "4110 Verona Rd", "City": "SOUTH EUCLID", "PostalCode": "44121", "State": "OH"}, {"AddressLine1": "512 Crackel Rd", "City": "AURORA", "PostalCode": "44202", "State": "OH"}, {"AddressLine1": "178 Centennial Dr", "City": "AVON LAKE", "PostalCode": "44012", "State": "OH"}, {"AddressLine1": "3321 HOMEWOOD AVE", "City": "ASHTABULA", "PostalCode": "44004", "State": "OH"}, {"AddressLine1": "898 E Buchtel Ave", "City": "AKRON", "PostalCode": "44305", "State": "OH"}, {"AddressLine1": "1182 Smithfarm Ave", "City": "AKRON", "PostalCode": "44305", "State": "OH"}, {"AddressLine1": "25021 AURORA RD", "City": "BEDFORD HEIGHTS", "PostalCode": "44146", "State": "OH"}, {"AddressLine1": "811 Ranney St", "City": "AKRON", "PostalCode": "44310", "State": "OH"}, {"AddressLine1": "140 E George St", "City": "MARION", "PostalCode": "43302", "State": "OH"}, {"AddressLine1": "09542 NEWGATE LN", "City": "CINCINNATI", "PostalCode": "45231", "State": "OH"}, {"AddressLine1": "41 WALNUT STAPT  106", "City": "MECHANICBG", "PostalCode": "43044", "State": "OH"}, {"AddressLine1": "2034 Piccadilly Ave", "City": "DAYTON", "PostalCode": "45406", "State": "OH"}, {"AddressLine1": "01660 DEWEY", "City": "CINCINNATI", "PostalCode": "45205", "State": "OH"}, {"AddressLine1": "6770 Kildare Dr", "City": "CINCINNATI", "PostalCode": "45233", "State": "OH"}, {"AddressLine1": "562 BERDALE LN", "City": "CINCINNATI", "PostalCode": "45244", "State": "OH"}, {"AddressLine1": "316 Arbors Cir", "City": "GAHANNA", "PostalCode": "43230", "State": "OH"}, {"AddressLine1": "1374 E 20th Ave", "City": "COLUMBUS", "PostalCode": "43211", "State": "OH"}, {"AddressLine1": "3282 Cranston Dr", "City": "DUBLIN", "PostalCode": "43017", "State": "OH"}, {"AddressLine1": "1032 Chittenden Ave", "City": "COLUMBUS", "PostalCode": "43211", "State": "OH"}, {"AddressLine1": "424 Strecker Ln", "City": "MARIETTA", "PostalCode": "45750", "State": "OH"}, {"AddressLine1": "6870 Lake Dr SW Lot 113", "City": "NAVARRE", "PostalCode": "44662", "State": "OH"}, {"AddressLine1": "401 Josephine St", "City": "TORONTO", "PostalCode": "43964", "State": "OH"}, {"AddressLine1": "319 W FIFTH ST", "City": "EAST LIVERPOOL", "PostalCode": "43920", "State": "OH"}, {"AddressLine1": "295 Clinton St", "City": "NEWARK", "PostalCode": "43055", "State": "OH"}, {"AddressLine1": "748 Fairview Cir", "City": "WOOSTER", "PostalCode": "44691", "State": "OH"}, {"AddressLine1": "1004 N Elizabeth St", "City": "LIMA", "PostalCode": "45801", "State": "OH"}, {"AddressLine1": "85 Fairfield Dr", "City": "NEWARK", "PostalCode": "43055", "State": "OH"}, {"AddressLine1": "4909 Echovalley St NW", "City": "NORTH CANTON", "PostalCode": "44720", "State": "OH"}, {"AddressLine1": "1711 JOFFRE AVE", "City": "TOLEDO", "PostalCode": "43607", "State": "OH"}, {"AddressLine1": "49 W JEFFERSON ST", "City": "JEFFERSON", "PostalCode": "44047", "State": "OH"}, {"AddressLine1": "202 W MAIN RD", "City": "CONNEAUT", "PostalCode": "44030", "State": "OH"}, {"AddressLine1": "152 LOCKWOOD ST", "City": "GENEVA", "PostalCode": "44041", "State": "OH"}, {"AddressLine1": "965 SNOWFALL SPUR", "City": "AKRON", "PostalCode": "44313", "State": "OH"}, {"AddressLine1": "670 Meredith Ln", "City": "CUYAHOGA FALLS", "PostalCode": "44223", "State": "OH"}, {"AddressLine1": "748 Coe Rd", "City": "RAVENNA", "PostalCode": "44266", "State": "OH"}, {"AddressLine1": "405 Fernwood Dr", "City": "AKRON", "PostalCode": "44320", "State": "OH"}, {"AddressLine1": "144 N Thomas Rd", "City": "TALLMADGE", "PostalCode": "44278", "State": "OH"}, {"AddressLine1": "1510 W 29th St", "City": "ASHTABULA", "PostalCode": "44004", "State": "OH"}, {"AddressLine1": "9360 Shroyer Dr", "City": "TIPP CITY", "PostalCode": "45371", "State": "OH"}, {"AddressLine1": "518 HEATHER DRAPT  3", "City": "DAYTON", "PostalCode": "45405", "State": "OH"}, {"AddressLine1": "211 N Village Dr", "City": "DAYTON", "PostalCode": "45459", "State": "OH"}, {"AddressLine1": "850 SOUTHMEADOW CIR", "City": "CINCINNATI", "PostalCode": "45231", "State": "OH"}, {"AddressLine1": "10472 WILLOW DR", "City": "LOVELAND", "PostalCode": "45140", "State": "OH"}, {"AddressLine1": "508 W STATE ST", "City": "TRENTON", "PostalCode": "45067", "State": "OH"}, {"AddressLine1": "2078 Tamarin Dr", "City": "COLUMBUS", "PostalCode": "43235", "State": "OH"}, {"AddressLine1": "4128 Landhigh Lakes Dr", "City": "POWELL", "PostalCode": "43065", "State": "OH"}, {"AddressLine1": "3770 S Old State Rd", "City": "LEWIS CENTER", "PostalCode": "43035", "State": "OH"}, {"AddressLine1": "904 E Chestnut St", "City": "MOUNT VERNON", "PostalCode": "43050", "State": "OH"}, {"AddressLine1": "549 51st St SW", "City": "CANTON", "PostalCode": "44706", "State": "OH"}, {"AddressLine1": "2703 Barn Dr SW", "City": " CANTON", "PostalCode": "44706", "State": "OH"}, {"AddressLine1": "2426 Advanced Business Center Dr", "City": "COLUMBUS", "PostalCode": "43228", "State": "OH"}, {"AddressLine1": "2426 Advanced Business Center Dr", "City": "COLUMBUS", "PostalCode": "43228", "State": "OH"}, {"AddressLine1": "3430 Tivoli Ct", "City": "GAHANNA", "PostalCode": "43230", "State": "OH"}, {"AddressLine1": "6406 Mount Badon", "City": "CANAL WINCHESTER", "PostalCode": "43110", "State": "OH"}, {"AddressLine1": "1875 Tamarack Ct N", "City": "COLUMBUS", "PostalCode": "43229", "State": "OH"}, {"AddressLine1": "2426 Advanced Business Center Dr", "City": "COLUMBUS", "PostalCode": "43228", "State": "OH"}, {"AddressLine1": "2426 Advanced Business Center Dr", "City": "COLUMBUS", "PostalCode": "43228", "State": "OH"}, {"AddressLine1": "4125 Burnell Rd", "City": "COLUMBUS", "PostalCode": "43224", "State": "OH"}, {"AddressLine1": "7126 SANDY LN NW", "City": "MALVERN", "PostalCode": "44644", "State": "OH"}, {"AddressLine1": "84 Jackson St", "City": "TIFFIN", "PostalCode": "44883", "State": "OH"}, {"AddressLine1": "112 VILLAGE DR", "City": "SEVEN HILLS", "PostalCode": "44131", "State": "OH"}, {"AddressLine1": "3146 Greenleaf Rd", "City": "AKRON", "PostalCode": "44312", "State": "OH"}, {"AddressLine1": "9517 Lower Valley Pike", "City": "MEDWAY", "PostalCode": "45341", "State": "OH"}, {"AddressLine1": "7129 Lisbon Rd", "City": "LISBON", "PostalCode": "44432", "State": "OH"}, {"AddressLine1": "12412 Unity Rd", "City": "NEW SPRINGFIELD", "PostalCode": "44443", "State": "OH"}, {"AddressLine1": "1112 Woodland Ave", "City": "MASURY", "PostalCode": "44438", "State": "OH"}, {"AddressLine1": "2005 Goodyear Blvd", "City": "AKRON", "PostalCode": "44305", "State": "OH"}, {"AddressLine1": "3938 Helena Ave", "City": "YOUNGSTOWN", "PostalCode": "44512", "State": "OH"}, {"AddressLine1": "2757 PALMYRA SW RD", "City": "WARREN", "PostalCode": "44481", "State": "OH"}, {"AddressLine1": "2133 6th St SW", "City": "AKRON", "PostalCode": "44314", "State": "OH"}, {"AddressLine1": "6033 BEAR CREEK DR", "City": "BEDFORD HEIGHTS", "PostalCode": "44146", "State": "OH"}, {"AddressLine1": "01020 CHAPEL", "City": "CINCINNATI", "PostalCode": "45206", "State": "OH"}, {"AddressLine1": "6708 Gracely Dr", "City": "CINCINNATI", "PostalCode": "45233", "State": "OH"}, {"AddressLine1": "2415 BLUFFCREST LN", "City": "CINCINNATI", "PostalCode": "45238", "State": "OH"}, {"AddressLine1": "4372 ZION RD", "City": "CLEVES", "PostalCode": "45002", "State": "OH"}, {"AddressLine1": "1915 Tamarack Cir S Apt 112", "City": "COLUMBUS", "PostalCode": "43229", "State": "OH"}, {"AddressLine1": "2847 Bannon Ct", "City": "REYNOLDSBURG", "PostalCode": "43068", "State": "OH"}, {"AddressLine1": "2085 Arway Dr", "City": "HILLIARD", "PostalCode": "43026", "State": "OH"}, {"AddressLine1": "49249 State Route 681", "City": "REEDSVILLE", "PostalCode": "45772", "State": "OH"}, {"AddressLine1": "473 Lawrence Ave", "City": "COLUMBUS", "PostalCode": "43228", "State": "OH"}, {"AddressLine1": "6180 Island Dr NW", "City": " CANTON", "PostalCode": "44718", "State": "OH"}, {"AddressLine1": "525 Wilbert Ave", "City": "EAST LIVERPOOL", "PostalCode": "43920", "State": "OH"}, {"AddressLine1": "742 Woodstock Ave", "City": "TOLEDO", "PostalCode": "43607", "State": "OH"}, {"AddressLine1": "3607 DEERFIELD SW AVE", "City": "DALTON", "PostalCode": "44618", "State": "OH"}, {"AddressLine1": "429 N HAWKINS AVE", "City": "AKRON", "PostalCode": "44313", "State": "OH"}, {"AddressLine1": "9 Brown Ln", "City": "BEDFORD", "PostalCode": "44146", "State": "OH"}, {"AddressLine1": "3442 W 118th St", "City": "CLEVELAND", "PostalCode": "44111", "State": "OH"}, {"AddressLine1": "25450 EUCLID AVE", "City": "EUCLID", "PostalCode": "44117", "State": "OH"}, {"AddressLine1": "1853 RABER RD", "City": "UNIONTOWN", "PostalCode": "44685", "State": "OH"}, {"AddressLine1": "809 BURMAN AVE", "City": "DAYTON", "PostalCode": "45426", "State": "OH"}, {"AddressLine1": "573 LAFAYETTE AVE", "City": "CINCINNATI", "PostalCode": "45246", "State": "OH"}, {"AddressLine1": "3945 Tramore Dr", "City": "CINCINNATI", "PostalCode": "45236", "State": "OH"}, {"AddressLine1": "1991 Twin Flower Cir", "City": "GROVE CITY", "PostalCode": "43123", "State": "OH"}, {"AddressLine1": "1250 Park Plaza Dr", "City": "COLUMBUS", "PostalCode": "43213", "State": "OH"}, {"AddressLine1": "774 Short St", "City": "BELPRE", "PostalCode": "45714", "State": "OH"}, {"AddressLine1": "4305 Ethel Rd", "City": "OBETZ", "PostalCode": "43207", "State": "OH"}, {"AddressLine1": "4215 E Broad St Apt 40", "City": "WHITEHALL", "PostalCode": "43213", "State": "OH"}, {"AddressLine1": "10571 Taylor Rd SW", "City": "ETNA", "PostalCode": "43068", "State": "OH"}]
