[{"AddressLine1": "45 BOEHLER ST", "City": "TIFFIN", "PostalCode": "44883", "State": "OH"}, {"AddressLine1": "3303 Middleton Pike", "City": "LUCKEY", "PostalCode": "43443", "State": "OH"}, {"AddressLine1": "57 JUSTIN ST", "City": "BEDFORD", "PostalCode": "44146", "State": "OH"}, {"AddressLine1": "4238 Cricket Ln", "City": "WARRENSVILLE HEIGHTS", "PostalCode": "44128", "State": "OH"}, {"AddressLine1": "8195 Shady Stone St NW", "City": "MASSILLON", "PostalCode": "44646", "State": "OH"}, {"AddressLine1": "247 Gurley Ave", "City": "MARION", "PostalCode": "43302", "State": "OH"}, {"AddressLine1": "2510 CONSAUL ST", "City": "TOLEDO", "PostalCode": "43605", "State": "OH"}, {"AddressLine1": "714 Paula St", "City": "VANDALIA", "PostalCode": "45377", "State": "OH"}, {"AddressLine1": "12058 COOK-YANKEETWN RD", "City": "MT STERLNG", "PostalCode": "43143", "State": "OH"}, {"AddressLine1": "4213 Fontenay", "City": "MASON", "PostalCode": "45040", "State": "OH"}, {"AddressLine1": "8803 CONSTITUTION DR", "City": "CINCINNATI", "PostalCode": "45215", "State": "OH"}, {"AddressLine1": "5707 Hankins Rd", "City": "MIDDLETOWN", "PostalCode": "45044", "State": "OH"}]
