[{"AddressLine1": "4 Otta Way", "City": "EAST FREETOWN", "PostalCode": "02717", "State": "MA"}, {"AddressLine1": "248 NASH RD F2", "City": "NEW BEDFRD", "PostalCode": "02746", "State": "MA"}, {"AddressLine1": "28 Fairmount St", "City": "NEW BEDFRD", "PostalCode": "02740", "State": "MA"}, {"AddressLine1": "2 OAK ST L2", "City": "WAREHAM", "PostalCode": "02571", "State": "MA"}, {"AddressLine1": "276 NICHOLAS DR LOT 55 L55", "City": "LANCASTER", "PostalCode": "01523", "State": "MA"}, {"AddressLine1": "121 County Rd", "City": "PLYMPTON", "PostalCode": "02367", "State": "MA"}, {"AddressLine1": "100 PARKS ST UNIT 44", "City": "DUXBURY", "PostalCode": "02332", "State": "MA"}, {"AddressLine1": "86 Barouche Dr", "City": "MARSHFIELD", "PostalCode": "02050", "State": "MA"}, {"AddressLine1": "50 WHITE-OAK DR", "City": "PLYMOUTH", "PostalCode": "02360", "State": "MA"}, {"AddressLine1": "113 Mutton Ln", "City": "WEYMOUTH", "PostalCode": "02189", "State": "MA"}, {"AddressLine1": "24 Race Rd", "City": "PROVINCETOWN", "PostalCode": "02657", "State": "MA"}, {"AddressLine1": "3 LEE ST", "City": "N BILLERICA", "PostalCode": "01862", "State": "MA"}, {"AddressLine1": "245 Waquoit Rd", "City": "COTUIT", "PostalCode": "02635", "State": "MA"}, {"AddressLine1": "50 Elm Ave", "City": "LOWELL", "PostalCode": "01852", "State": "MA"}, {"AddressLine1": "181 WEST RD", "City": "ALFORD", "PostalCode": "01230", "State": "MA"}, {"AddressLine1": "4 STONE-WALL LN", "City": "FALMOUTH", "PostalCode": "02540", "State": "MA"}, {"AddressLine1": "345A NORTH RD GAR", "City": "CHILMARK", "PostalCode": "02535", "State": "MA"}, {"AddressLine1": "1069 West St", "City": "ATTLEBORO", "PostalCode": "02703", "State": "MA"}, {"AddressLine1": "17 HILLTOP LN APT 2", "City": "SOUTH EASTON", "PostalCode": "02375", "State": "MA"}, {"AddressLine1": "29 Elm St", "City": "REHOBOTH", "PostalCode": "02769", "State": "MA"}, {"AddressLine1": "52 WELLS PARK RD POLE 17", "City": "STURBRIDGE", "PostalCode": "01566", "State": "MA"}, {"AddressLine1": "17 Alden St", "City": "NATICK", "PostalCode": "01760", "State": "MA"}, {"AddressLine1": "353 ALBERMARLE RD", "City": "NEWTONVLLE", "PostalCode": "02460", "State": "MA"}, {"AddressLine1": "713 DUDLEY ST 12", "City": "DORCHESTER", "PostalCode": "02125", "State": "MA"}, {"AddressLine1": "194 MOUNT-VERNON ST", "City": "W ROXBURY", "PostalCode": "02132", "State": "MA"}, {"AddressLine1": "44 Kings Rd", "City": " CANTON", "PostalCode": "02021", "State": "MA"}, {"AddressLine1": "267 Bacon St", "City": "WALTHAM", "PostalCode": "02451", "State": "MA"}, {"AddressLine1": "171 Waverly St", "City": "ARLINGTON", "PostalCode": "02476", "State": "MA"}, {"AddressLine1": "64 Clifton Rd", "City": "MILTON", "PostalCode": "02186", "State": "MA"}, {"AddressLine1": "25 Piermont St", "City": "WATERTOWN", "PostalCode": "02472", "State": "MA"}, {"AddressLine1": "5 Joan Ave", "City": "SUDBURY", "PostalCode": "01776", "State": "MA"}, {"AddressLine1": "110 Fenwick St", "City": "FRAMINGHAM", "PostalCode": "01701", "State": "MA"}, {"AddressLine1": "587 Dutton Rd", "City": "SUDBURY", "PostalCode": "01776", "State": "MA"}, {"AddressLine1": "1 SARATOGA PL 1LT", "City": "E BOSTON", "PostalCode": "02128", "State": "MA"}, {"AddressLine1": "11 Casey Cir", "City": "WALTHAM", "PostalCode": "02451", "State": "MA"}, {"AddressLine1": "48 King St", "City": "FRANKLIN", "PostalCode": "02038", "State": "MA"}, {"AddressLine1": "11 Reid Rd", "City": "CHELMSFORD", "PostalCode": "01824", "State": "MA"}, {"AddressLine1": "133 Southland Ter", "City": "BROCKTON", "PostalCode": "02301", "State": "MA"}, {"AddressLine1": "1 LINWOOD ST", "City": "OXFORD", "PostalCode": "01540", "State": "MA"}, {"AddressLine1": "1 DEMONE DR NEW HSE", "City": "BURLINGTON", "PostalCode": "01803", "State": "MA"}, {"AddressLine1": "150 Pleasant St Unit 306", "City": "BROOKLINE", "PostalCode": "02446", "State": "MA"}, {"AddressLine1": "37 ZUELL RDLOT 4 L4 POLE 8 1", "City": "MONSON", "PostalCode": "01057", "State": "MA"}, {"AddressLine1": "1 Elm Rd", "City": "WESTFORD", "PostalCode": "01886", "State": "MA"}, {"AddressLine1": "136 ROSEWOOD DRLOT 141 L141 POLE 9", "City": "GARDNER", "PostalCode": "01440", "State": "MA"}, {"AddressLine1": "50 Pepperbush Way", "City": "W TISBURY", "PostalCode": "02575", "State": "MA"}, {"AddressLine1": "4 BENHOGAN DR", "City": "WEYMOUTH", "PostalCode": "02190", "State": "MA"}, {"AddressLine1": "41 GREEN AVE 1AR", "City": "SOUTHBRIDGE", "PostalCode": "01550", "State": "MA"}, {"AddressLine1": "42 Stebbins St", "City": "WORCESTER", "PostalCode": "01607", "State": "MA"}, {"AddressLine1": "508 High St", "City": "CLINTON", "PostalCode": "01510", "State": "MA"}, {"AddressLine1": "72 HUMPHREY ST    SOLAR", "City": "SWAMPSCOTT", "PostalCode": "01907", "State": "MA"}, {"AddressLine1": "444 Brookside Rd", "City": "ATHOL", "PostalCode": "01331", "State": "MA"}, {"AddressLine1": "128 THELMA AVE POLE 6", "City": "SOMERSET", "PostalCode": "02726", "State": "MA"}, {"AddressLine1": "132  EAST ST", "City": "LUDLOW", "PostalCode": "01056", "State": "MA"}, {"AddressLine1": "99  STRONG ST", "City": "SPRINGFIELD", "PostalCode": "01104", "State": "MA"}, {"AddressLine1": "92 Hazelwood Ave", "City": "LONGMEADOW", "PostalCode": "01106", "State": "MA"}, {"AddressLine1": "4 Deer Run", "City": "SOUTHWICK", "PostalCode": "01077", "State": "MA"}, {"AddressLine1": "313  BROOKMAN DR", "City": "EAST OTIS", "PostalCode": "01029", "State": "MA"}, {"AddressLine1": "76 Nicholson St", "City": "LYNN", "PostalCode": "01905", "State": "MA"}, {"AddressLine1": "40 Old Farm Rd", "City": "LEOMINSTER", "PostalCode": "01453", "State": "MA"}, {"AddressLine1": "26 CONCORD ST", "City": "GLOUCESTER", "PostalCode": "01930", "State": "MA"}, {"AddressLine1": "2 Oak Tree Ln Lot 4", "City": "FRANKLIN", "PostalCode": "02038", "State": "MA"}, {"AddressLine1": "343 AMES ST", "City": "LAWRENCE", "PostalCode": "01841", "State": "MA"}, {"AddressLine1": "58 Story Ave", "City": "BEVERLY", "PostalCode": "01915", "State": "MA"}, {"AddressLine1": "85 Richmond Ave", "City": "WORCESTER", "PostalCode": "01602", "State": "MA"}, {"AddressLine1": "575 Coles Meadow Rd", "City": "NORTHAMPTON", "PostalCode": "01060", "State": "MA"}, {"AddressLine1": "14 Mountainview St", "City": "WILBRAHAM", "PostalCode": "01095", "State": "MA"}, {"AddressLine1": "82 Essex St # 2", "City": "SWAMPSCOTT", "PostalCode": "01907", "State": "MA"}, {"AddressLine1": "63 Myrtle St", "City": "METHUEN", "PostalCode": "01844", "State": "MA"}, {"AddressLine1": "409 MOODY ST FL 3", "City": "LOWELL", "PostalCode": "01854", "State": "MA"}, {"AddressLine1": "135 Reservoir St", "City": "NORTON", "PostalCode": "02766", "State": "MA"}, {"AddressLine1": "69 TEMPLE ST    COGEN", "City": "TEWKSBURY", "PostalCode": "01876", "State": "MA"}, {"AddressLine1": "325 PALMER RDAPT 1F", "City": "WARE", "PostalCode": "01082", "State": "MA"}, {"AddressLine1": "5 PHILLIPS ST APT  1", "City": "BEVERLY", "PostalCode": "01915", "State": "MA"}, {"AddressLine1": "57 ELLIOTT ST", "City": "PEPPERELL", "PostalCode": "01463", "State": "MA"}, {"AddressLine1": "3 FORSYTH DR APT 323", "City": "ABINGTON", "PostalCode": "02351", "State": "MA"}, {"AddressLine1": "1075 Park St", "City": "PALMER", "PostalCode": "01069", "State": "MA"}, {"AddressLine1": "14 Old Westboro Rd", "City": "GRAFTON", "PostalCode": "01519", "State": "MA"}, {"AddressLine1": "235 Hampton Rd", "City": "SHARON", "PostalCode": "02067", "State": "MA"}, {"AddressLine1": "115 W Squantum St Apt 1212", "City": "NORTH QUINCY", "PostalCode": "02171", "State": "MA"}, {"AddressLine1": "66 Spring St Fl 1", "City": "HOLBROOK", "PostalCode": "02343", "State": "MA"}, {"AddressLine1": "28 JOHN F KENNEDY AVELOT 22", "City": "CLINTON", "PostalCode": "01510", "State": "MA"}, {"AddressLine1": "PO Box 226", "City": "OAKHAM", "PostalCode": "01068", "State": "MA"}, {"AddressLine1": "141 Shirley Rd", "City": "LANCASTER", "PostalCode": "01523", "State": "MA"}, {"AddressLine1": "44 BROOKSIDE AVE LOTL65 POLE 9", "City": "WEBSTER", "PostalCode": "01570", "State": "MA"}, {"AddressLine1": "15 Brookfield St", "City": "LAWRENCE", "PostalCode": "01843", "State": "MA"}, {"AddressLine1": "17 CLARENCE ST APT 2", "City": "BROCKTON", "PostalCode": "02301", "State": "MA"}, {"AddressLine1": "253 Mill St", "City": "NEW BEDFORD", "PostalCode": "02740", "State": "MA"}, {"AddressLine1": "295 LYNN SHORE DRAPT 105", "City": "LYNN", "PostalCode": "01902", "State": "MA"}, {"AddressLine1": "PO Box 226", "City": "OAKHAM", "PostalCode": "01068", "State": "MA"}, {"AddressLine1": "9 Moosewood St", "City": "BILLERICA", "PostalCode": "01821", "State": "MA"}, {"AddressLine1": "81 Misty Meadow Ln Apt 10", "City": "NORTH CHATHAM", "PostalCode": "02650", "State": "MA"}, {"AddressLine1": "321 TOWER-HILL RD", "City": "OSTERVILLE", "PostalCode": "02655", "State": "MA"}, {"AddressLine1": "112 Sagamore Ave", "City": "MEDFORD", "PostalCode": "02155", "State": "MA"}, {"AddressLine1": "22 Mansion Dr", "City": "LOWELL", "PostalCode": "01852", "State": "MA"}, {"AddressLine1": "25 Stiles Rd", "City": "SOUTH YARMOUTH", "PostalCode": "02664", "State": "MA"}, {"AddressLine1": "24 Hammond Rd", "City": "NATICK", "PostalCode": "01760", "State": "MA"}, {"AddressLine1": "16 MISSION-PARK DR", "City": "BOSTON", "PostalCode": "02115", "State": "MA"}, {"AddressLine1": "158 Mystic St", "City": "ARLINGTON", "PostalCode": "02474", "State": "MA"}, {"AddressLine1": "397 Great Rd Apt 8", "City": "ACTON", "PostalCode": "01720", "State": "MA"}, {"AddressLine1": "21 Laurel Dr", "City": "NEEDHAM", "PostalCode": "02492", "State": "MA"}, {"AddressLine1": "56 Cary Ave", "City": "LEXINGTON", "PostalCode": "02421", "State": "MA"}, {"AddressLine1": "242 W-MAIN ST", "City": "HOPKINTON", "PostalCode": "01748", "State": "MA"}, {"AddressLine1": "150 CHESTNUT ST 1", "City": "CHELSEA", "PostalCode": "02150", "State": "MA"}, {"AddressLine1": "12 Florence St", "City": "LEOMINSTER", "PostalCode": "01453", "State": "MA"}, {"AddressLine1": "9 Westland Rd", "City": "RANDOLPH", "PostalCode": "02368", "State": "MA"}, {"AddressLine1": "104 Fred Mason Rd", "City": "CHESHIRE", "PostalCode": "01225", "State": "MA"}, {"AddressLine1": "18 Coolidge Rd", "City": "AYER", "PostalCode": "01432", "State": "MA"}, {"AddressLine1": "536 Turners Falls Rd", "City": "MONTAGUE", "PostalCode": "01351", "State": "MA"}, {"AddressLine1": "21  WESTBROOK DR", "City": "SPRINGFIELD", "PostalCode": "01129", "State": "MA"}, {"AddressLine1": "13 Christine St", "City": "LEOMINSTER", "PostalCode": "01453", "State": "MA"}, {"AddressLine1": "PO Box 226", "City": "OAKHAM", "PostalCode": "01068", "State": "MA"}, {"AddressLine1": "10 Williamsburg Ln", "City": "SCITUATE", "PostalCode": "02066", "State": "MA"}, {"AddressLine1": "4 Lantern Ln", "City": "CHELMSFORD", "PostalCode": "01824", "State": "MA"}, {"AddressLine1": "91 DONAHUE RD APT 22", "City": "DRACUT", "PostalCode": "01826", "State": "MA"}, {"AddressLine1": "1 Seal Harbor Rd Apt 504", "City": "WINTHROP", "PostalCode": "02152", "State": "MA"}, {"AddressLine1": "25 Constitution Way", "City": "METHUEN", "PostalCode": "01844", "State": "MA"}, {"AddressLine1": "143 MASSACHUSETTS AVE", "City": "NORTH ANDOVER", "PostalCode": "01845", "State": "MA"}, {"AddressLine1": "880 Charlton St", "City": "SOUTHBRIDGE", "PostalCode": "01550", "State": "MA"}, {"AddressLine1": "2 BRIGHTWOOD TER APT  11", "City": "LYNN", "PostalCode": "01902", "State": "MA"}, {"AddressLine1": "19 CROSS RD POLE 2664", "City": "BOXFORD", "PostalCode": "01921", "State": "MA"}, {"AddressLine1": "53 BALDWIN RD APT 1001", "City": "BILLERICA", "PostalCode": "01821", "State": "MA"}, {"AddressLine1": "8 9th St Apt 216", "City": "MEDFORD", "PostalCode": "02155", "State": "MA"}, {"AddressLine1": "38 LITTLE NAHANT RD APT  1", "City": "NAHANT", "PostalCode": "01908", "State": "MA"}, {"AddressLine1": "36 LITTLE NAHANT RD APT  2", "City": "NAHANT", "PostalCode": "01908", "State": "MA"}, {"AddressLine1": "6 Vernon St", "City": "OXFORD", "PostalCode": "01540", "State": "MA"}, {"AddressLine1": "5 Lighthouse Cir Unit A", "City": "SALISBURY", "PostalCode": "01952", "State": "MA"}, {"AddressLine1": "101 HUGGINS RD", "City": "ROCKLAND", "PostalCode": "02370", "State": "MA"}, {"AddressLine1": "68 Bailey Ct", "City": "HAVERHILL", "PostalCode": "01832", "State": "MA"}, {"AddressLine1": "3 Saratoga St", "City": "RANDOLPH", "PostalCode": "02368", "State": "MA"}, {"AddressLine1": "7 Burley St", "City": "BEVERLY", "PostalCode": "01915", "State": "MA"}, {"AddressLine1": "44 Haskell Ave", "City": "REVERE", "PostalCode": "02151", "State": "MA"}, {"AddressLine1": "49 Williams St", "City": "REHOBOTH", "PostalCode": "02769", "State": "MA"}, {"AddressLine1": "49 Williams St", "City": "REHOBOTH", "PostalCode": "02769", "State": "MA"}]
