[{"AddressLine1": "378 Linden Ct", "City": "TANNERSVILLE", "PostalCode": "18372", "State": "PA"}, {"AddressLine1": "847 FLEMINGTON ST FLR 1", "City": "PITTSBURGH", "PostalCode": "15217", "State": "PA"}, {"AddressLine1": "1502 Froude Ave", "City": "SCRANTON", "PostalCode": "18505", "State": "PA"}, {"AddressLine1": "30 Magaro Rd", "City": "ENOLA", "PostalCode": "17025", "State": "PA"}, {"AddressLine1": "907 Spruce St", "City": "COLUMBIA", "PostalCode": "17512", "State": "PA"}, {"AddressLine1": "1305 Euclid Ave", "City": "SCRANTON", "PostalCode": "18504", "State": "PA"}, {"AddressLine1": "1200 DENNISTON AVE", "City": "PITTSBURGH", "PostalCode": "15217", "State": "PA"}, {"AddressLine1": "894 SUSCON RD", "City": "PITTSTON TOWNSHIP", "PostalCode": "18640", "State": "PA"}, {"AddressLine1": "172 Magnolia Dr", "City": "THORNHURST", "PostalCode": "18424", "State": "PA"}, {"AddressLine1": "160 WOLFE RUNRD", "City": "FREEDOM", "PostalCode": "15042", "State": "PA"}, {"AddressLine1": "1610 Vista Rd", "City": "LANCASTER", "PostalCode": "17601", "State": "PA"}, {"AddressLine1": "1105 BROWNSVILLE RD", "City": "WERNERSVILLE", "PostalCode": "19565", "State": "PA"}, {"AddressLine1": "630 East Dr", "City": "SEWICKLEY", "PostalCode": "15143", "State": "PA"}, {"AddressLine1": "1107 Queensbury St", "City": "PITTSBURGH", "PostalCode": "15205", "State": "PA"}, {"AddressLine1": "32 Crane Rd", "City": "LAKEVILLE", "PostalCode": "18438", "State": "PA"}, {"AddressLine1": "129 Charles Court Rd", "City": "BRODHEADSVILLE", "PostalCode": "18322", "State": "PA"}, {"AddressLine1": "403 Albine Dr", "City": "GLENSHAW", "PostalCode": "15116", "State": "PA"}, {"AddressLine1": "24866 Route 522", "City": "BEAVER SPRINGS", "PostalCode": "17812", "State": "PA"}, {"AddressLine1": "133 Countryside Dr", "City": "BRODHEADSVILLE", "PostalCode": "18322", "State": "PA"}, {"AddressLine1": "315 Vickerman Rd", "City": "MERCER", "PostalCode": "16137", "State": "PA"}, {"AddressLine1": "2389 WHARRY DR", "City": "SEWICKLEY", "PostalCode": "15143", "State": "PA"}, {"AddressLine1": "345 Woleber Rd", "City": "MYERSTOWN", "PostalCode": "17067", "State": "PA"}, {"AddressLine1": "608 Parkwood Dr", "City": "MOUNT WOLF", "PostalCode": "17347", "State": "PA"}, {"AddressLine1": "1305 Sill St", "City": "WARREN", "PostalCode": "16365", "State": "PA"}, {"AddressLine1": "200 Tritle Ave", "City": "WAYNESBORO", "PostalCode": "17268", "State": "PA"}, {"AddressLine1": "1211 N George St", "City": "YORK", "PostalCode": "17404", "State": "PA"}, {"AddressLine1": "1 Miller St Apt 1", "City": "STRASBURG", "PostalCode": "17579", "State": "PA"}, {"AddressLine1": "202 Millbach Rd", "City": "RICHLAND", "PostalCode": "17087", "State": "PA"}, {"AddressLine1": "1235 N River Rd", "City": "HALIFAX", "PostalCode": "17032", "State": "PA"}, {"AddressLine1": "555 Fritztown Rd", "City": "SINKING SPRING", "PostalCode": "19608", "State": "PA"}, {"AddressLine1": "108 Shadow Ridge Dr", "City": "PITTSBURGH", "PostalCode": "15238", "State": "PA"}, {"AddressLine1": "1029 6th St", "City": "CATASAUQUA", "PostalCode": "18032", "State": "PA"}, {"AddressLine1": "346 Covered Bridge Rd", "City": "MILTON", "PostalCode": "17847", "State": "PA"}, {"AddressLine1": "93 Chestnut Ln", "City": "JIM THORPE", "PostalCode": "18229", "State": "PA"}, {"AddressLine1": "3105 46th St", "City": "NEW BRIGHTON", "PostalCode": "15066", "State": "PA"}, {"AddressLine1": "622 Badali Dr", "City": "PITTSBURGH", "PostalCode": "15215", "State": "PA"}, {"AddressLine1": "220 S 3rd St", "City": "FRACKVILLE", "PostalCode": "17931", "State": "PA"}, {"AddressLine1": "30 Locust Rd", "City": "BOYERTOWN", "PostalCode": "19512", "State": "PA"}, {"AddressLine1": "227 Modisette Ave", "City": "DONORA", "PostalCode": "15033", "State": "PA"}, {"AddressLine1": "1703 Vermont Ave", "City": "WHITE OAK", "PostalCode": "15131", "State": "PA"}, {"AddressLine1": "171 High St", "City": "JIM THORPE", "PostalCode": "18229", "State": "PA"}, {"AddressLine1": "9390 Peebles Rd", "City": "ALLISON PARK", "PostalCode": "15101", "State": "PA"}, {"AddressLine1": "348 Prospect St", "City": "BADEN", "PostalCode": "15005", "State": "PA"}, {"AddressLine1": "268 Image Dr", "City": "SCOTRUN", "PostalCode": "18355", "State": "PA"}, {"AddressLine1": "317 S Arch St Apt B", "City": "MECHANICSBURG", "PostalCode": "17055", "State": "PA"}, {"AddressLine1": "103 Earl St", "City": "CLARKS SUMMIT", "PostalCode": "18411", "State": "PA"}, {"AddressLine1": "PO Box 432", "City": "HAWLEY", "PostalCode": "18428", "State": "PA"}, {"AddressLine1": "510 Arlington Rd", "City": "CAMP HILL", "PostalCode": "17011", "State": "PA"}, {"AddressLine1": "94 Meadowbrook Rd", "City": "DANVILLE", "PostalCode": "17821", "State": "PA"}, {"AddressLine1": "345 ARISTES RD", "City": "RINGTOWN", "PostalCode": "17967", "State": "PA"}, {"AddressLine1": "1570 Hooflander Rd", "City": "HERNDON", "PostalCode": "17830", "State": "PA"}, {"AddressLine1": "1642 WASHINGTON AVE REAR", "City": "NORTHAMPTON", "PostalCode": "18067", "State": "PA"}, {"AddressLine1": "435 Hertzog Valley Rd", "City": "DENVER", "PostalCode": "17517", "State": "PA"}, {"AddressLine1": "69 Edgewood Dr", "City": "GREENVILLE", "PostalCode": "16125", "State": "PA"}, {"AddressLine1": "53 S MAIN ST", "City": "RUSSELL", "PostalCode": "16345", "State": "PA"}, {"AddressLine1": "199 Shenot Rd", "City": "WEXFORD", "PostalCode": "15090", "State": "PA"}, {"AddressLine1": "330 6th St", "City": "CLYMER", "PostalCode": "15728", "State": "PA"}, {"AddressLine1": "341 Fosterville Rd", "City": "GREENSBURG", "PostalCode": "15601", "State": "PA"}, {"AddressLine1": "11 W ELM ST", "City": "FAIRCHANCE", "PostalCode": "15436", "State": "PA"}, {"AddressLine1": "519 Emerson Ave", "City": "FARRELL", "PostalCode": "16121", "State": "PA"}, {"AddressLine1": "137 S Allison St", "City": "GREENCASTLE", "PostalCode": "17225", "State": "PA"}, {"AddressLine1": "2 Courtyards Dr", "City": "SHREWSBURY", "PostalCode": "17361", "State": "PA"}, {"AddressLine1": "2763 Brodhead Rd", "City": "ALIQUIPPA", "PostalCode": "15001", "State": "PA"}, {"AddressLine1": "2690 Woodland Rd", "City": "HELLERTOWN", "PostalCode": "18055", "State": "PA"}, {"AddressLine1": "304 N 2ND ST APT 4, 3FL", "City": "HARRISBURG", "PostalCode": "17101", "State": "PA"}, {"AddressLine1": "500 Cedar Run Rd", "City": "ALLISON PARK", "PostalCode": "15101", "State": "PA"}, {"AddressLine1": "6018 McCallum St", "City": " PHILADELPHIA", "PostalCode": "19144", "State": "PA"}, {"AddressLine1": "127 Billigen St", "City": "ALIQUIPPA", "PostalCode": "15001", "State": "PA"}, {"AddressLine1": "14 Buck Run", "City": "REINHOLDS", "PostalCode": "17569", "State": "PA"}, {"AddressLine1": "1011 N CHURCH RD, LOT 12", "City": "SINKING SPRING", "PostalCode": "19608", "State": "PA"}, {"AddressLine1": "865 LONG RIDGE RD", "City": "HAWLEY", "PostalCode": "18428", "State": "PA"}, {"AddressLine1": "2387 Muncy Exchange Rd", "City": "MUNCY", "PostalCode": "17756", "State": "PA"}, {"AddressLine1": "6916 Monroe Ave", "City": "WEST MIFFLIN", "PostalCode": "15122", "State": "PA"}, {"AddressLine1": "826 NEW BLOOMFLD RD", "City": "DUNCANNON", "PostalCode": "17020", "State": "PA"}, {"AddressLine1": "35 Mahanoy Ridge Rd", "City": "ELLIOTTSBURG", "PostalCode": "17024", "State": "PA"}, {"AddressLine1": "238 W GRANGE AV", "City": " PHILADELPHIA", "PostalCode": "19120", "State": "PA"}, {"AddressLine1": "232 HENDERSON ST", "City": "CARLISLE", "PostalCode": "17013", "State": "PA"}, {"AddressLine1": "230 Heatherstone Way # L45", "City": "LANCASTER", "PostalCode": "17601", "State": "PA"}, {"AddressLine1": "211 MARGERY DR", "City": "PITTSBURGH", "PostalCode": "15238", "State": "PA"}, {"AddressLine1": "2815 Elroy Rd", "City": "HATFIELD", "PostalCode": "19440", "State": "PA"}, {"AddressLine1": "1777 Listonburg Rd", "City": "CONFLUENCE", "PostalCode": "15424", "State": "PA"}, {"AddressLine1": "7980 Loop Rd", "City": "ALEXANDRIA", "PostalCode": "16611", "State": "PA"}, {"AddressLine1": "1298 Blue Mountain Cir", "City": "SAYLORSBURG", "PostalCode": "18353", "State": "PA"}, {"AddressLine1": "1340 Camelot Dr", "City": "EASTON", "PostalCode": "18045", "State": "PA"}, {"AddressLine1": "306 WALDORF DR", "City": "YORK", "PostalCode": "17404", "State": "PA"}, {"AddressLine1": "2365 STATE ROUTE 956", "City": "VOLANT", "PostalCode": "16156", "State": "PA"}, {"AddressLine1": "133 BLACK BEAR LN", "City": "EAST WATERFORD", "PostalCode": "17021", "State": "PA"}, {"AddressLine1": "8247 Pagan Rd", "City": "ERIE", "PostalCode": "16509", "State": "PA"}, {"AddressLine1": "617 S GRAND ST", "City": "LEWISTOWN", "PostalCode": "17044", "State": "PA"}, {"AddressLine1": "204 S State St", "City": "DAYTON", "PostalCode": "16222", "State": "PA"}, {"AddressLine1": "312 PALOMINO DR", "City": "OAKDALE", "PostalCode": "15071", "State": "PA"}, {"AddressLine1": "418 Wood Duck Dr", "City": "GREENSBURG", "PostalCode": "15601", "State": "PA"}, {"AddressLine1": "7450 Chambers Hill Rd", "City": "HARRISBURG", "PostalCode": "17111", "State": "PA"}, {"AddressLine1": "38 RIDGE AVE", "City": "TELFORD", "PostalCode": "18969", "State": "PA"}, {"AddressLine1": "403 Thrush Dr Unit 2", "City": "MANHEIM", "PostalCode": "17545", "State": "PA"}, {"AddressLine1": "5209 Clarwin Ave", "City": "PITTSBURGH", "PostalCode": "15229", "State": "PA"}, {"AddressLine1": "5755 TAVISTOCK LN BLD K", "City": "MACUNGIE", "PostalCode": "18062", "State": "PA"}, {"AddressLine1": "19 Beurys Rd", "City": "ASHLAND", "PostalCode": "17921", "State": "PA"}, {"AddressLine1": "1235 2ND ST", "City": "STEELTON", "PostalCode": "17113", "State": "PA"}, {"AddressLine1": "2514 White Deer Pike", "City": "NEW COLUMBIA", "PostalCode": "17856", "State": "PA"}, {"AddressLine1": "960 FURNACE HILL PIKE", "City": "LITITZ", "PostalCode": "17543", "State": "PA"}, {"AddressLine1": "637 W MARKET ST", "City": "GRATZ", "PostalCode": "17030", "State": "PA"}, {"AddressLine1": "260 Glen Eden Rd", "City": "ROCHESTER", "PostalCode": "15074", "State": "PA"}, {"AddressLine1": "53 Linda Dr", "City": "WALNUTPORT", "PostalCode": "18088", "State": "PA"}, {"AddressLine1": "146 CARPENTER LN", "City": "LINDEN", "PostalCode": "17744", "State": "PA"}, {"AddressLine1": "1519 CATHERINE ST", "City": "WILLIAMSPORT", "PostalCode": "17701", "State": "PA"}, {"AddressLine1": "2545 Center St", "City": "BETHLEHEM", "PostalCode": "18017", "State": "PA"}, {"AddressLine1": "500 W Spring St", "City": "FRACKVILLE", "PostalCode": "17931", "State": "PA"}, {"AddressLine1": "1008 9th Ave", "City": "NEW BRIGHTON", "PostalCode": "15066", "State": "PA"}, {"AddressLine1": "425 JEFFERSON ST", "City": "BEAVER", "PostalCode": "15009", "State": "PA"}, {"AddressLine1": "2003 Ewings Mill Rd", "City": "CORAOPOLIS", "PostalCode": "15108", "State": "PA"}, {"AddressLine1": "902 W Hamilton St Apt 908", "City": "ALLENTOWN", "PostalCode": "18101", "State": "PA"}, {"AddressLine1": "193 Konhaus Rd", "City": "MECHANICSBURG", "PostalCode": "17050", "State": "PA"}, {"AddressLine1": "506 S Front St", "City": "SELINSGROVE", "PostalCode": "17870", "State": "PA"}, {"AddressLine1": "100 Westminster Dr", "City": "MONROEVILLE", "PostalCode": "15146", "State": "PA"}, {"AddressLine1": "1315 LIVINGSTON ST APT C", "City": "BETHLEHEM", "PostalCode": "18017", "State": "PA"}, {"AddressLine1": "3670 N 4TH ST", "City": "HARRISBURG", "PostalCode": "17110", "State": "PA"}, {"AddressLine1": "645 FERNWOOD ST", "City": "EMMAUS", "PostalCode": "18049", "State": "PA"}, {"AddressLine1": "167 LINCOLN AV", "City": "YARDLEY", "PostalCode": "19067", "State": "PA"}, {"AddressLine1": "1017 Hilltop Rd", "City": "LEESPORT", "PostalCode": "19533", "State": "PA"}]
