[{"AddressLine1": "2264 RT 57 WXST MICA MINE RD", "City": " WASHINGTON", "PostalCode": "07882", "State": "NJ"}, {"AddressLine1": "12 Muirfield Rd", "City": "JACKSON", "PostalCode": "08527", "State": "NJ"}, {"AddressLine1": "64 Martin Dr", "City": "WHITING", "PostalCode": "08759", "State": "NJ"}, {"AddressLine1": "122 River St", "City": "MONROE TOWNSHIP", "PostalCode": "08831", "State": "NJ"}, {"AddressLine1": "306 Cleveland Ln", "City": "ROCKAWAY", "PostalCode": "07866", "State": "NJ"}, {"AddressLine1": "235 Rankin Ave Fl 1", "City": "CRANFORD", "PostalCode": "07016", "State": "NJ"}, {"AddressLine1": "7236 Kennedy Blvd", "City": "NORTH BERGEN", "PostalCode": "07047", "State": "NJ"}, {"AddressLine1": "122 Barbuda St", "City": "TOMS RIVER", "PostalCode": "08757", "State": "NJ"}, {"AddressLine1": "46 Maple Ave", "City": "NEW EGYPT", "PostalCode": "08533", "State": "NJ"}, {"AddressLine1": "2305 W BANGS AVE", "City": "NEPTUNE", "PostalCode": "07753", "State": "NJ"}, {"AddressLine1": "12 WHARTON WAYXST MANNING CT", "City": "HIGH BRIDGE", "PostalCode": "08829", "State": "NJ"}, {"AddressLine1": "67 Lenox Ave Apt 1B", "City": "EAST ORANGE", "PostalCode": "07018", "State": "NJ"}, {"AddressLine1": "700 1st St Apt 11L", "City": "HOBOKEN", "PostalCode": "07030", "State": "NJ"}, {"AddressLine1": "14 Sinclair Dr", "City": "WAYNE", "PostalCode": "07470", "State": "NJ"}, {"AddressLine1": "9 CARRIGAN LNXST BURNET RD", "City": "MADISON", "PostalCode": "07940", "State": "NJ"}, {"AddressLine1": "61 WATERLOO RDXST WOODLAND AVE", "City": "BUDD LAKE", "PostalCode": "07828", "State": "NJ"}, {"AddressLine1": "57 Wilson Cir E", "City": "RED BANK", "PostalCode": "07701", "State": "NJ"}, {"AddressLine1": "192 Lakeside Dr", "City": "NUTLEY", "PostalCode": "07110", "State": "NJ"}, {"AddressLine1": "31 Park Rd", "City": "MAPLEWOOD", "PostalCode": "07040", "State": "NJ"}, {"AddressLine1": "84 Highgate Ter", "City": "BERGENFIELD", "PostalCode": "07621", "State": "NJ"}, {"AddressLine1": "315 Greenwood Ave", "City": "GLOUCESTER CITY", "PostalCode": "08030", "State": "NJ"}, {"AddressLine1": "20 W Palisade Ave Apt 3204", "City": "ENGLEWOOD", "PostalCode": "07631", "State": "NJ"}, {"AddressLine1": "32 Kossuth St", "City": "WALLINGTON", "PostalCode": "07057", "State": "NJ"}, {"AddressLine1": "6 Pomona Ave Apt 3L", "City": "NEWARK", "PostalCode": "07112", "State": "NJ"}, {"AddressLine1": "1260 Cambridge Ave Apt 62", "City": "PLAINFIELD", "PostalCode": "07062", "State": "NJ"}, {"AddressLine1": "66 Hope St", "City": "NUTLEY", "PostalCode": "07110", "State": "NJ"}, {"AddressLine1": "4 Greenbriar Ct", "City": "BURLINGTON TWP", "PostalCode": "08016", "State": "NJ"}, {"AddressLine1": "24 ELM PL", "City": "CEDAR KNOLLS", "PostalCode": "07927", "State": "NJ"}, {"AddressLine1": "26 LORRAINE DRXST E CHERYL", "City": "PINE BROOK", "PostalCode": "07058", "State": "NJ"}, {"AddressLine1": "240 CEDARVILLE RD", "City": "HIGHTSTOWN", "PostalCode": "08520", "State": "NJ"}, {"AddressLine1": "111 JUNIPER DRXST BAR HARBOR", "City": "FREEHOLD", "PostalCode": "07728", "State": "NJ"}, {"AddressLine1": "12 Salerno Ct", "City": "TOMS RIVER", "PostalCode": "08757", "State": "NJ"}, {"AddressLine1": "17 PORTSMOUTH DRXST DAVENPORT RD", "City": "TOMS RIVER", "PostalCode": "08757", "State": "NJ"}, {"AddressLine1": "95 Edgewood Ave", "City": "CLIFTON", "PostalCode": "07012", "State": "NJ"}, {"AddressLine1": "601 W 7th St Apt 11F", "City": "PLAINFIELD", "PostalCode": "07060", "State": "NJ"}, {"AddressLine1": "3623 Bloomingdale Dr", "City": "HILLSBOROUGH", "PostalCode": "08844", "State": "NJ"}, {"AddressLine1": "9 W South Orange Ave Unit 420", "City": "SOUTH ORANGE", "PostalCode": "07079", "State": "NJ"}, {"AddressLine1": "900 Valley Rd Apt A2", "City": "CLIFTON", "PostalCode": "07013", "State": "NJ"}, {"AddressLine1": "335 Florence Ave Apt C6", "City": "WESTVILLE", "PostalCode": "08093", "State": "NJ"}, {"AddressLine1": "979 Hamilton St", "City": "RAHWAY", "PostalCode": "07065", "State": "NJ"}, {"AddressLine1": "9 Marston Pl", "City": "GLEN RIDGE", "PostalCode": "07028", "State": "NJ"}, {"AddressLine1": "27 Jacoby St Fl 2", "City": "MAPLEWOOD", "PostalCode": "07040", "State": "NJ"}, {"AddressLine1": "16 Witherspoon Rd", "City": "CLIFTON", "PostalCode": "07013", "State": "NJ"}, {"AddressLine1": "1624 W PRINCETON AVEXST FORT ST", "City": "BRICK", "PostalCode": "08724", "State": "NJ"}, {"AddressLine1": "357 Van Houten Ave", "City": "PASSAIC", "PostalCode": "07055", "State": "NJ"}, {"AddressLine1": "355 Cotswold Pl", "City": "SOMERSET", "PostalCode": "08873", "State": "NJ"}, {"AddressLine1": "70 VALLEY VIEW AVE", "City": "OXFORD", "PostalCode": "07863", "State": "NJ"}, {"AddressLine1": "33 Townsend Dr", "City": "FLORHAM PARK", "PostalCode": "07932", "State": "NJ"}, {"AddressLine1": "71 Short Hills Ave", "City": "SHORT HILLS", "PostalCode": "07078", "State": "NJ"}, {"AddressLine1": "501 Whitesville Rd", "City": "JACKSON", "PostalCode": "08527", "State": "NJ"}, {"AddressLine1": "13 Donatello Dr", "City": "MANCHESTER", "PostalCode": "08759", "State": "NJ"}, {"AddressLine1": "108 Wall St", "City": "BURLINGTON CITY", "PostalCode": "08016", "State": "NJ"}, {"AddressLine1": "34 Kings Hwy", "City": "LONG VALLEY", "PostalCode": "07853", "State": "NJ"}, {"AddressLine1": "17 Lackawanna Pl", "City": "BLOOMFIELD", "PostalCode": "07003", "State": "NJ"}, {"AddressLine1": "185 Edmund Ave Apt 1", "City": "PATERSON", "PostalCode": "07502", "State": "NJ"}, {"AddressLine1": "11 Cherry Ln", "City": "WEST DEPTFORD", "PostalCode": "08096", "State": "NJ"}, {"AddressLine1": "208 W Maple Ave", "City": "BOUND BROOK", "PostalCode": "08805", "State": "NJ"}, {"AddressLine1": "1341 Hainesport Mount Laurel Rd", "City": "MOUNT LAUREL", "PostalCode": "08054", "State": "NJ"}, {"AddressLine1": "825 Doncaster Dr", "City": "WEST DEPTFORD", "PostalCode": "08066", "State": "NJ"}, {"AddressLine1": "15 Hershey Rd", "City": "WAYNE", "PostalCode": "07470", "State": "NJ"}, {"AddressLine1": "2203 Doral Dr", "City": "BLACKWOOD", "PostalCode": "08012", "State": "NJ"}, {"AddressLine1": "430 Peshine Ave Fl 1", "City": "NEWARK", "PostalCode": "07112", "State": "NJ"}, {"AddressLine1": "114 Oakwood Dr", "City": "CINNAMINSON", "PostalCode": "08077", "State": "NJ"}, {"AddressLine1": "19 Colts Neck Ter", "City": "TRENTON", "PostalCode": "08620", "State": "NJ"}, {"AddressLine1": "10 Flanders Way", "City": "BRIDGEWATER", "PostalCode": "08807", "State": "NJ"}, {"AddressLine1": "224 Mimosa Dr", "City": "CHERRY HILL", "PostalCode": "08003", "State": "NJ"}, {"AddressLine1": "15 Avonridge Rd", "City": "RARITAN", "PostalCode": "08869", "State": "NJ"}, {"AddressLine1": "154 N Grant Ave", "City": "COLONIA", "PostalCode": "07067", "State": "NJ"}, {"AddressLine1": "5525 Whitman Ter", "City": "PENNSAUKEN", "PostalCode": "08109", "State": "NJ"}, {"AddressLine1": "30 Pebble Ln", "City": "BLACKWOOD", "PostalCode": "08012", "State": "NJ"}, {"AddressLine1": "512 Hydrangea Dr", "City": "MOUNT LAUREL", "PostalCode": "08054", "State": "NJ"}, {"AddressLine1": "7226 Harbridge Ct", "City": "PENNSAUKEN", "PostalCode": "08109", "State": "NJ"}, {"AddressLine1": "10 Springfield Ln", "City": "WILLINGBORO", "PostalCode": "08046", "State": "NJ"}, {"AddressLine1": "1 E Maple Ave", "City": "MOORESTOWN", "PostalCode": "08057", "State": "NJ"}, {"AddressLine1": "83 Montgomery St Apt L", "City": "JERSEY CITY", "PostalCode": "07302", "State": "NJ"}, {"AddressLine1": "33 Oneda Ave", "City": "MOORESTOWN", "PostalCode": "08057", "State": "NJ"}, {"AddressLine1": "187 RANDOLPH AVE FL 1", "City": "JERSEY CITY", "PostalCode": "07305", "State": "NJ"}, {"AddressLine1": "517B 18th Ave", "City": "NEWARK", "PostalCode": "07103", "State": "NJ"}, {"AddressLine1": "12 Circle Dr", "City": "MOORESTOWN", "PostalCode": "08057", "State": "NJ"}, {"AddressLine1": "132 Sherman Ave Fl 1", "City": "JERSEY CITY", "PostalCode": "07307", "State": "NJ"}, {"AddressLine1": "17 LAGORCE BLVD", "City": "BURLINGTON TWP", "PostalCode": "08016", "State": "NJ"}, {"AddressLine1": "72 Palmer Dr", "City": "WAYNE", "PostalCode": "07470", "State": "NJ"}, {"AddressLine1": "16 WALNUT STX ST = 1ST ST", "City": "KEYPORT", "PostalCode": "07735", "State": "NJ"}, {"AddressLine1": "184 High St", "City": "WEST ORANGE", "PostalCode": "07052", "State": "NJ"}, {"AddressLine1": "251 Steeplechase Ct", "City": "WOODBURY", "PostalCode": "08096", "State": "NJ"}, {"AddressLine1": "56 Dunstable Rd", "City": "SOUTHAMPTON", "PostalCode": "08088", "State": "NJ"}, {"AddressLine1": "230 Woodbridge Ave", "City": "METUCHEN", "PostalCode": "08840", "State": "NJ"}, {"AddressLine1": "2 Fernwood Ct", "City": "COLUMBUS", "PostalCode": "08022", "State": "NJ"}, {"AddressLine1": "25 Vernetta Ln", "City": "MEDFORD", "PostalCode": "08055", "State": "NJ"}, {"AddressLine1": "24 Oconnor Cir", "City": "WEST ORANGE", "PostalCode": "07052", "State": "NJ"}, {"AddressLine1": "318 Biltmore Ln", "City": "SOMERSET", "PostalCode": "08873", "State": "NJ"}, {"AddressLine1": "115 Winding Way", "City": "WESTVILLE", "PostalCode": "08093", "State": "NJ"}, {"AddressLine1": "204 Villinger Ave", "City": "CINNAMINSON", "PostalCode": "08077", "State": "NJ"}, {"AddressLine1": "46 Dalewood Rd", "City": "WEST CALDWELL", "PostalCode": "07006", "State": "NJ"}, {"AddressLine1": "50 Mackenzie Ln N", "City": "DENVILLE", "PostalCode": "07834", "State": "NJ"}, {"AddressLine1": "151 OAK CREEK RD", "City": "HIGHTSTOWN", "PostalCode": "08520", "State": "NJ"}, {"AddressLine1": "28 W BLACKWELL ST APT 2 B", "City": "DOVER", "PostalCode": "07801", "State": "NJ"}, {"AddressLine1": "69 S Main St", "City": "WHARTON", "PostalCode": "07885", "State": "NJ"}, {"AddressLine1": "112 Harding Ave", "City": "MOUNT EPHRAIM", "PostalCode": "08059", "State": "NJ"}, {"AddressLine1": "12 Ascot Pl", "City": "NORTH BRUNSWICK", "PostalCode": "08902", "State": "NJ"}, {"AddressLine1": "564 Lakeside Ave", "City": "WOODBURY", "PostalCode": "08096", "State": "NJ"}, {"AddressLine1": "188 Berkley Ave", "City": "BELLE MEAD", "PostalCode": "08502", "State": "NJ"}, {"AddressLine1": "6 Morris St", "City": "SEWAREN", "PostalCode": "07077", "State": "NJ"}, {"AddressLine1": "214 Cedar St", "City": "DELANCO", "PostalCode": "08075", "State": "NJ"}, {"AddressLine1": "44 Bartsch Ave", "City": "WOODLAND PARK", "PostalCode": "07424", "State": "NJ"}, {"AddressLine1": "21 Gates Rd", "City": "SOMERVILLE", "PostalCode": "08876", "State": "NJ"}, {"AddressLine1": "540 CARANETTA DR", "City": "LAKEWOOD", "PostalCode": "08701", "State": "NJ"}, {"AddressLine1": "10 Rue Matisse", "City": "SOMERSET", "PostalCode": "08873", "State": "NJ"}, {"AddressLine1": "347 Oliver St", "City": "NEWARK", "PostalCode": "07105", "State": "NJ"}, {"AddressLine1": "1568 Hamilton Ave", "City": "HAMILTON", "PostalCode": "08629", "State": "NJ"}, {"AddressLine1": "331 Stoughton Ave", "City": "CRANFORD", "PostalCode": "07016", "State": "NJ"}, {"AddressLine1": "13 Pelican Pl", "City": "WEST DEPTFORD", "PostalCode": "08086", "State": "NJ"}, {"AddressLine1": "370 Schuyler Ave", "City": "KEARNY", "PostalCode": "07032", "State": "NJ"}, {"AddressLine1": "81 New Jersey Ave", "City": "BERGENFIELD", "PostalCode": "07621", "State": "NJ"}, {"AddressLine1": "1918 43rd St", "City": "PENNSAUKEN", "PostalCode": "08110", "State": "NJ"}, {"AddressLine1": "248 19th Ave", "City": "PATERSON", "PostalCode": "07504", "State": "NJ"}, {"AddressLine1": "55 N Main St", "City": "PENNINGTON", "PostalCode": "08534", "State": "NJ"}, {"AddressLine1": "111 Magazine St Apt 2", "City": "NEWARK", "PostalCode": "07105", "State": "NJ"}, {"AddressLine1": "148 Jackson Ave", "City": "NORTH PLAINFIELD", "PostalCode": "07060", "State": "NJ"}, {"AddressLine1": "82 HERITAGE DRXST = FRIENDSHIP 12/86", "City": "HOWELL", "PostalCode": "07731", "State": "NJ"}, {"AddressLine1": "840 River Rd", "City": "HILLSBOROUGH", "PostalCode": "08844", "State": "NJ"}, {"AddressLine1": "42 Sussex Rd", "City": "BERGENFIELD", "PostalCode": "07621", "State": "NJ"}, {"AddressLine1": "47 N 11th St", "City": "PATERSON", "PostalCode": "07522", "State": "NJ"}, {"AddressLine1": "115 Grove St", "City": "WESTFIELD", "PostalCode": "07090", "State": "NJ"}, {"AddressLine1": "1361 Columbia Ave", "City": "PLAINFIELD", "PostalCode": "07062", "State": "NJ"}, {"AddressLine1": "30 Robin Ct", "City": "PISCATAWAY", "PostalCode": "08854", "State": "NJ"}, {"AddressLine1": "53 Maple Ave", "City": "RAHWAY", "PostalCode": "07065", "State": "NJ"}, {"AddressLine1": "537 Edward St", "City": "PHILLIPSBURG", "PostalCode": "08865", "State": "NJ"}, {"AddressLine1": "49 Lakehurst Way", "City": "MONROE TOWNSHIP", "PostalCode": "08831", "State": "NJ"}, {"AddressLine1": "12 Arrowwood Ln", "City": "MONMOUTH JUNCTION", "PostalCode": "08852", "State": "NJ"}, {"AddressLine1": "6 N Pricketts Mill Rd", "City": "VINCENTOWN", "PostalCode": "08088", "State": "NJ"}, {"AddressLine1": "50 DEY ST UNIT 456", "City": "JERSEY CITY", "PostalCode": "07306", "State": "NJ"}, {"AddressLine1": "505 E Passaic Ave", "City": "BLOOMFIELD", "PostalCode": "07003", "State": "NJ"}, {"AddressLine1": "50 Delavan Ave", "City": "NEWARK", "PostalCode": "07104", "State": "NJ"}, {"AddressLine1": "293 Central Ave", "City": "WEST CALDWELL", "PostalCode": "07006", "State": "NJ"}, {"AddressLine1": "67 Meadowlark Dr", "City": "HAMILTON", "PostalCode": "08690", "State": "NJ"}, {"AddressLine1": "8 N Smith St", "City": "AVENEL", "PostalCode": "07001", "State": "NJ"}, {"AddressLine1": "84 Ernst Ave", "City": "BLOOMFIELD", "PostalCode": "07003", "State": "NJ"}, {"AddressLine1": "988 Robbinsville Edinburg Rd", "City": "TRENTON", "PostalCode": "08691", "State": "NJ"}, {"AddressLine1": "44 Gloucester Ct", "City": "EAST BRUNSWICK", "PostalCode": "08816", "State": "NJ"}, {"AddressLine1": "190 Dunn Ave", "City": "PISCATAWAY", "PostalCode": "08854", "State": "NJ"}, {"AddressLine1": "16 Ellis Ave", "City": "BURLINGTON TWP", "PostalCode": "08016", "State": "NJ"}, {"AddressLine1": "32 Highbridge Rd", "City": "TRENTON", "PostalCode": "08620", "State": "NJ"}, {"AddressLine1": "26C RED OAK LN", "City": "OLD BRIDGE", "PostalCode": "08857", "State": "NJ"}, {"AddressLine1": "160 Sayre Dr", "City": "PRINCETON", "PostalCode": "08540", "State": "NJ"}, {"AddressLine1": "26 Dover St", "City": "NEWARK", "PostalCode": "07106", "State": "NJ"}, {"AddressLine1": "644 1st Ave", "City": "DEPTFORD", "PostalCode": "08096", "State": "NJ"}, {"AddressLine1": "513 PALISADE AVE FL 1S", "City": "UNION CITY", "PostalCode": "07087", "State": "NJ"}, {"AddressLine1": "19 Distler Ave", "City": "WEST CALDWELL", "PostalCode": "07006", "State": "NJ"}, {"AddressLine1": "1332 W 5th St", "City": "PLAINFIELD", "PostalCode": "07063", "State": "NJ"}, {"AddressLine1": "55 Pennington Rd", "City": "NEW BRUNSWICK", "PostalCode": "08901", "State": "NJ"}, {"AddressLine1": "297 Northgate Vlg", "City": "BURLINGTON TWP", "PostalCode": "08016", "State": "NJ"}, {"AddressLine1": "106 Changebridge Rd", "City": "MONTVILLE", "PostalCode": "07045", "State": "NJ"}, {"AddressLine1": "55 E Park St Apt 5A", "City": "EAST ORANGE", "PostalCode": "07017", "State": "NJ"}, {"AddressLine1": "751 Union Ave", "City": "KENILWORTH", "PostalCode": "07033", "State": "NJ"}, {"AddressLine1": "16 Steinway Ave", "City": "EWING", "PostalCode": "08618", "State": "NJ"}, {"AddressLine1": "289 Glenwood Ave", "City": "BLOOMFIELD", "PostalCode": "07003", "State": "NJ"}, {"AddressLine1": "33 Shelly Dr", "City": "SOMERSET", "PostalCode": "08873", "State": "NJ"}, {"AddressLine1": "5065 Clayton Ave", "City": "PENNSAUKEN", "PostalCode": "08109", "State": "NJ"}, {"AddressLine1": "30 Carver Ave", "City": "ISELIN", "PostalCode": "08830", "State": "NJ"}, {"AddressLine1": "1441 Oriental Ave", "City": "GLOUCESTER CITY", "PostalCode": "08030", "State": "NJ"}, {"AddressLine1": "327 Saint Marks Ave", "City": "PISCATAWAY", "PostalCode": "08854", "State": "NJ"}, {"AddressLine1": "1616 Broad St", "City": "BLOOMFIELD", "PostalCode": "07003", "State": "NJ"}, {"AddressLine1": "4201 Enclave Cir", "City": "SOMERSET", "PostalCode": "08873", "State": "NJ"}, {"AddressLine1": "24 MUSCONETCONG AVECALL WHEN ON STREET-DOG-CUST HOME", "City": "STANHOPE", "PostalCode": "07874", "State": "NJ"}, {"AddressLine1": "170 Sweetmans Ln", "City": "ENGLISHTOWN", "PostalCode": "07726", "State": "NJ"}, {"AddressLine1": "127 MOUNTAIN AVEXST: KING GEORGE/STIRLIN", "City": "WARREN", "PostalCode": "07059", "State": "NJ"}, {"AddressLine1": "33 Albert M Tyler Pl", "City": "PATERSON", "PostalCode": "07501", "State": "NJ"}, {"AddressLine1": "64 Woodhaven Ln", "City": "WILLINGBORO", "PostalCode": "08046", "State": "NJ"}, {"AddressLine1": "583 RT 524XST-CHAMBERGS RD", "City": "ALLENTOWN", "PostalCode": "08501", "State": "NJ"}, {"AddressLine1": "161 Harrington Rd", "City": "CLIFTON", "PostalCode": "07012", "State": "NJ"}, {"AddressLine1": "213 Gordon St", "City": "PERTH AMBOY", "PostalCode": "08861", "State": "NJ"}, {"AddressLine1": "1512 Palisade Ave Apt 7H", "City": "FORT LEE", "PostalCode": "07024", "State": "NJ"}, {"AddressLine1": "114 Cuffys Ln", "City": "CHERRY HILL", "PostalCode": "08003", "State": "NJ"}, {"AddressLine1": "428 Metlars Ln", "City": "PISCATAWAY", "PostalCode": "08854", "State": "NJ"}, {"AddressLine1": "22 N High St", "City": "COLONIA", "PostalCode": "07067", "State": "NJ"}, {"AddressLine1": "217 New Hillcrest Ave", "City": "EWING", "PostalCode": "08638", "State": "NJ"}, {"AddressLine1": "26 Housman Ct # 4A45", "City": "MAPLEWOOD", "PostalCode": "07040", "State": "NJ"}, {"AddressLine1": "1338 Puritan Ave", "City": "WEST DEPTFORD", "PostalCode": "08096", "State": "NJ"}, {"AddressLine1": "28 Meadow Rd", "City": "EAST BRUNSWICK", "PostalCode": "08816", "State": "NJ"}, {"AddressLine1": "8523 Maple Ave", "City": "PENNSAUKEN", "PostalCode": "08109", "State": "NJ"}, {"AddressLine1": "1017 Rymill Run", "City": "CHERRY HILL", "PostalCode": "08003", "State": "NJ"}, {"AddressLine1": "317 Lewis St", "City": "SOMERSET", "PostalCode": "08873", "State": "NJ"}, {"AddressLine1": "30 Passaic Ave Apt 3A", "City": "NUTLEY", "PostalCode": "07110", "State": "NJ"}, {"AddressLine1": "759 Westminster Dr N", "City": "SOUTHAMPTON", "PostalCode": "08088", "State": "NJ"}, {"AddressLine1": "18 Byrd St", "City": "ISELIN", "PostalCode": "08830", "State": "NJ"}, {"AddressLine1": "62 Chipper Dr", "City": "KENDALL PARK", "PostalCode": "08824", "State": "NJ"}, {"AddressLine1": "45 Ann St", "City": "PATERSON", "PostalCode": "07501", "State": "NJ"}]
