[{"AddressLine1": "660 BLACKBURN AVE", "City": "FAIRFIELD", "PostalCode": "45014", "State": "OH"}, {"AddressLine1": " 45 5TH E", "City": "FRANKLIN", "PostalCode": "45005", "State": "OH"}, {"AddressLine1": "219 MORGANS WAY", "City": "HARRISON", "PostalCode": "45030", "State": "OH"}, {"AddressLine1": "56 Annette St", "City": "DELAWARE", "PostalCode": "43015", "State": "OH"}, {"AddressLine1": "6449 Rings Rd", "City": "DUBLIN", "PostalCode": "43016", "State": "OH"}, {"AddressLine1": "1355 Western Ave Apt 99", "City": "CHILLICOTHE", "PostalCode": "45601", "State": "OH"}, {"AddressLine1": "59 Aster Ct SW", "City": "ETNA", "PostalCode": "43062", "State": "OH"}, {"AddressLine1": "2508 CRABBE BLVD BLDG 2APTD", "City": "STEUBENVILLE", "PostalCode": "43952", "State": "OH"}, {"AddressLine1": "401 Spring St", "City": "MALTA", "PostalCode": "43758", "State": "OH"}, {"AddressLine1": "4110 Crary Dr", "City": "TOLEDO", "PostalCode": "43613", "State": "OH"}, {"AddressLine1": "10940 N Palmyra Rd", "City": "NORTH JACKSON", "PostalCode": "44451", "State": "OH"}, {"AddressLine1": "2527 CONNECTICUT SE AVE", "City": "MASSILLON", "PostalCode": "44646", "State": "OH"}, {"AddressLine1": "113 BOYS AVE", "City": "FRANKLIN", "PostalCode": "45005", "State": "OH"}, {"AddressLine1": "1280 Glover Ave", "City": "DAYTON", "PostalCode": "45417", "State": "OH"}, {"AddressLine1": "373 OAK AVE", "City": "WAVERLY", "PostalCode": "45690", "State": "OH"}, {"AddressLine1": "6287 Lowridge Dr Apt 104", "City": "CANAL WINCHESTER", "PostalCode": "43110", "State": "OH"}, {"AddressLine1": "3481 Halpern St", "City": "GAHANNA", "PostalCode": "43230", "State": "OH"}, {"AddressLine1": "278 Glenmont Ave", "City": "COLUMBUS", "PostalCode": "43214", "State": "OH"}, {"AddressLine1": "7535 Bellaire Ave", "City": "DUBLIN", "PostalCode": "43017", "State": "OH"}, {"AddressLine1": "735 Marburn Dr", "City": "COLUMBUS", "PostalCode": "43214", "State": "OH"}, {"AddressLine1": "5819 Veto Rd", "City": "BELPRE", "PostalCode": "45714", "State": "OH"}, {"AddressLine1": "474 Hilltonia Ave", "City": "COLUMBUS", "PostalCode": "43223", "State": "OH"}, {"AddressLine1": "415 Diana Dr", "City": "HOPEDALE", "PostalCode": "43976", "State": "OH"}, {"AddressLine1": "1255 Worthington Cir NW", "City": "CANTON", "PostalCode": "44708", "State": "OH"}, {"AddressLine1": "201 Chapel Ln", "City": "OAKWOOD", "PostalCode": "45873", "State": "OH"}, {"AddressLine1": "4184 Parkdale Ave NW", "City": " CANTON", "PostalCode": "44718", "State": "OH"}, {"AddressLine1": "3107 26th St NE", "City": " CANTON", "PostalCode": "44705", "State": "OH"}, {"AddressLine1": "6455 LONGFELLOW AVE", "City": "SYLVANIA", "PostalCode": "43560", "State": "OH"}, {"AddressLine1": "22245 Lorraine Dr", "City": "STRONGSVILLE", "PostalCode": "44149", "State": "OH"}, {"AddressLine1": "2968 State Route 45 N", "City": "ROCK CREEK", "PostalCode": "44084", "State": "OH"}, {"AddressLine1": "1173 Lake Rd", "City": "CONNEAUT", "PostalCode": "44030", "State": "OH"}, {"AddressLine1": "1171 Nome Ave", "City": "AKRON", "PostalCode": "44320", "State": "OH"}, {"AddressLine1": "720 CONCORD STAPT  3", "City": "URBANA", "PostalCode": "43078", "State": "OH"}, {"AddressLine1": "20 PECAN DR", "City": "MARYSVL", "PostalCode": "43040", "State": "OH"}, {"AddressLine1": "7703 CONSTITUTION DR", "City": "CINCINNATI", "PostalCode": "45215", "State": "OH"}, {"AddressLine1": "2080 Commons Cir", "City": "BATAVIA", "PostalCode": "45103", "State": "OH"}, {"AddressLine1": "1341 Evergreen Rd", "City": "COLUMBUS", "PostalCode": "43207", "State": "OH"}, {"AddressLine1": "275 Fayburrow Dr", "City": "SUNBURY", "PostalCode": "43074", "State": "OH"}, {"AddressLine1": "22173 STATE ROUTE 93 TRLR", "City": "WELLSTON", "PostalCode": "45692", "State": "OH"}, {"AddressLine1": "3206 Blue Ridge Rd", "City": "COLUMBUS", "PostalCode": "43219", "State": "OH"}, {"AddressLine1": "832 S Poplar St", "City": "BUCYRUS", "PostalCode": "44820", "State": "OH"}, {"AddressLine1": "3394 Werner Church Rd NE", "City": "CANTON", "PostalCode": "44721", "State": "OH"}, {"AddressLine1": "6631 Wolford Rd SE", "City": "UHRICHSVILLE", "PostalCode": "44683", "State": "OH"}, {"AddressLine1": "4424 Garrison Rd", "City": "TOLEDO", "PostalCode": "43613", "State": "OH"}, {"AddressLine1": "3816 Warrendale Rd", "City": "SOUTH EUCLID", "PostalCode": "44118", "State": "OH"}, {"AddressLine1": "760 BRIDGEPORT AVE", "City": "STREETSBORO", "PostalCode": "44241", "State": "OH"}, {"AddressLine1": "4520 Warren Sharon Rd", "City": "VIENNA", "PostalCode": "44473", "State": "OH"}, {"AddressLine1": "2956 Villa Dr", "City": "SYLVANIA", "PostalCode": "43560", "State": "OH"}, {"AddressLine1": "802 1/2 E Main St", "City": "BELLEVUE", "PostalCode": "44811", "State": "OH"}, {"AddressLine1": "02950 SCOTT RD", "City": "OXFORD", "PostalCode": "45056", "State": "OH"}, {"AddressLine1": "230 HUNTER AVE", "City": "DAYTON", "PostalCode": "45404", "State": "OH"}, {"AddressLine1": "12577 STATE-RT-118", "City": " ROCKFORD", "PostalCode": "45882", "State": "OH"}, {"AddressLine1": "1392 DEERFIELD RD", "City": "LOVELAND", "PostalCode": "45140", "State": "OH"}, {"AddressLine1": "4874 Le Blond Ave", "City": "CINCINNATI", "PostalCode": "45208", "State": "OH"}, {"AddressLine1": "7449 Zoar Rd", "City": "MAINEVILLE", "PostalCode": "45039", "State": "OH"}, {"AddressLine1": "2711 Beach Dr", "City": "BELPRE", "PostalCode": "45714", "State": "OH"}, {"AddressLine1": "286 Tick Ridge Rd", "City": "WHEELERSBURG", "PostalCode": "45694", "State": "OH"}, {"AddressLine1": "3061 Stoney Creek Rd", "City": "CHILLICOTHE", "PostalCode": "45601", "State": "OH"}, {"AddressLine1": "3061 Stoney Creek Rd", "City": "CHILLICOTHE", "PostalCode": "45601", "State": "OH"}, {"AddressLine1": "1872 Stelzer Rd", "City": "COLUMBUS", "PostalCode": "43219", "State": "OH"}, {"AddressLine1": "2153 Yellow Pine Ave", "City": "COLUMBUS", "PostalCode": "43229", "State": "OH"}, {"AddressLine1": "2533 Peekskill Dr", "City": "COLUMBUS", "PostalCode": "43219", "State": "OH"}, {"AddressLine1": "311 S 8th St", "City": "UPPER SANDUSKY", "PostalCode": "43351", "State": "OH"}, {"AddressLine1": "921 Adams Ave", "City": "NEWARK", "PostalCode": "43055", "State": "OH"}, {"AddressLine1": "1649 Empire Rd", "City": "WICKLIFFE", "PostalCode": "44092", "State": "OH"}, {"AddressLine1": "6775 Hickory Hill Dr", "City": "MAYFIELD HEIGHTS", "PostalCode": "44143", "State": "OH"}, {"AddressLine1": "468 Nobottom Rd", "City": "BEREA", "PostalCode": "44017", "State": "OH"}, {"AddressLine1": "7810 Butterfly St", "City": "CONCORD", "PostalCode": "44077", "State": "OH"}, {"AddressLine1": "6437 AMBROSE DR", "City": "MENTOR", "PostalCode": "44060", "State": "OH"}, {"AddressLine1": "8078 Oakwood Dr", "City": "KIRTLAND", "PostalCode": "44094", "State": "OH"}, {"AddressLine1": "7030 PIGEON RUN SW RD", "City": "NAVARRE", "PostalCode": "44662", "State": "OH"}, {"AddressLine1": "250 W State St", "City": "BARBERTON", "PostalCode": "44203", "State": "OH"}, {"AddressLine1": "2950 MEADOWCREST AVE", "City": "MASSILLON", "PostalCode": "44647", "State": "OH"}, {"AddressLine1": "2918 Beaver Trl", "City": "CORTLAND", "PostalCode": "44410", "State": "OH"}, {"AddressLine1": "633 Tecumseh St", "City": "TOLEDO", "PostalCode": "43604", "State": "OH"}, {"AddressLine1": "14 Prescott St", "City": "TOLEDO", "PostalCode": "43620", "State": "OH"}, {"AddressLine1": "168 Lee Ave", "City": "ASHLAND", "PostalCode": "44805", "State": "OH"}, {"AddressLine1": "11105 APACHE DR", "City": "PARMA HEIGHTS", "PostalCode": "44130", "State": "OH"}, {"AddressLine1": "701 E Laclede Ave", "City": "YOUNGSTOWN", "PostalCode": "44502", "State": "OH"}, {"AddressLine1": "396 Tacoma Ave", "City": "TALLMADGE", "PostalCode": "44278", "State": "OH"}, {"AddressLine1": "3601 Hill Ave", "City": "TOLEDO", "PostalCode": "43607", "State": "OH"}, {"AddressLine1": "1110 13th St SE", "City": "MASSILLON", "PostalCode": "44646", "State": "OH"}, {"AddressLine1": "01031 ST RT 28", "City": "MILFORD", "PostalCode": "45150", "State": "OH"}, {"AddressLine1": "634 Ridgedale Rd", "City": "DAYTON", "PostalCode": "45406", "State": "OH"}, {"AddressLine1": "47 BRANDT ST", "City": "DAYTON", "PostalCode": "45404", "State": "OH"}, {"AddressLine1": "9512 HADDINGTON CT", "City": "CINCINNATI", "PostalCode": "45251", "State": "OH"}, {"AddressLine1": "185 STURGIS AVE", "City": "CINCINNATI", "PostalCode": "45217", "State": "OH"}, {"AddressLine1": "424 FOREST AVE", "City": "FRANKLIN", "PostalCode": "45005", "State": "OH"}, {"AddressLine1": "9315 Winton Rd", "City": "CINCINNATI", "PostalCode": "45231", "State": "OH"}, {"AddressLine1": "00033 SIOUX CT", "City": "BATAVIA", "PostalCode": "45103", "State": "OH"}, {"AddressLine1": "9721 Kennett Sq NE Apt A", "City": "BOLIVAR", "PostalCode": "44612", "State": "OH"}, {"AddressLine1": "1037 S Main St Apt C11", "City": "KENTON", "PostalCode": "43326", "State": "OH"}, {"AddressLine1": "18623 CHICKASAW AVE", "City": "CLEVELAND", "PostalCode": "44119", "State": "OH"}, {"AddressLine1": "18002 PONCIANA AVE", "City": "CLEVELAND", "PostalCode": "44135", "State": "OH"}, {"AddressLine1": "4811 Shields Rd", "City": "CANFIELD", "PostalCode": "44406", "State": "OH"}, {"AddressLine1": "1694 Wood Rd", "City": "CLEVELAND HEIGHTS", "PostalCode": "44121", "State": "OH"}, {"AddressLine1": "11487 STATE-RT-177-N", "City": "CAMDEN", "PostalCode": "45311", "State": "OH"}, {"AddressLine1": "09661 Cemetery Rd", "City": "WAPAKONETA", "PostalCode": "45895", "State": "OH"}, {"AddressLine1": "1405 DANTZLER DR", "City": "CINCINNATI", "PostalCode": "45215", "State": "OH"}, {"AddressLine1": "2421 Nicholas Pl NW", "City": " CANTON", "PostalCode": "44708", "State": "OH"}, {"AddressLine1": "2920 OLD-TROY PIKEUNIT 322", "City": "DAYTON", "PostalCode": "45404", "State": "OH"}, {"AddressLine1": "6496 Little John Cir", "City": "DAYTON", "PostalCode": "45459", "State": "OH"}, {"AddressLine1": "644 Butler Ave", "City": "COLUMBUS", "PostalCode": "43223", "State": "OH"}, {"AddressLine1": "5916 Chatford Dr Apt E", "City": "COLUMBUS", "PostalCode": "43232", "State": "OH"}, {"AddressLine1": "618 E 7TH ST", "City": "WAVERLY", "PostalCode": "45690", "State": "OH"}, {"AddressLine1": "6354 Kropp Rd", "City": "GROVE CITY", "PostalCode": "43123", "State": "OH"}, {"AddressLine1": "3855 Royal Glen Ln", "City": "GROVE CITY", "PostalCode": "43123", "State": "OH"}, {"AddressLine1": "2805 MOUNDCREST ST", "City": "COLUMBUS", "PostalCode": "43232", "State": "OH"}, {"AddressLine1": "3961 Sweet Shadow Ave", "City": "GAHANNA", "PostalCode": "43230", "State": "OH"}, {"AddressLine1": "137 Saint Francis Ave", "City": "TIFFIN", "PostalCode": "44883", "State": "OH"}, {"AddressLine1": "157 CLIFF ST TRLR 9", "City": "BUCKEYE LAKE", "PostalCode": "43008", "State": "OH"}, {"AddressLine1": "13310 Christine Ave", "City": "GARFIELD HEIGHTS", "PostalCode": "44105", "State": "OH"}, {"AddressLine1": "1301 Madison Ave", "City": "LORAIN", "PostalCode": "44053", "State": "OH"}, {"AddressLine1": "7423 JUMPERS CROSSING", "City": "CONCORD", "PostalCode": "44077", "State": "OH"}, {"AddressLine1": "10569 Ridgewater Dr", "City": "CONCORD TOWNSHIP", "PostalCode": "44077", "State": "OH"}, {"AddressLine1": "151 Hawthorne Dr", "City": "PAINESVILLE", "PostalCode": "44077", "State": "OH"}, {"AddressLine1": "1116 BELLEFLOWER DR", "City": "AKRON", "PostalCode": "44307", "State": "OH"}, {"AddressLine1": "12276 CLEVELAND AVE NW", "City": "UNIONTOWN", "PostalCode": "44685", "State": "OH"}, {"AddressLine1": "7239 Glendale Ave", "City": "YOUNGSTOWN", "PostalCode": "44512", "State": "OH"}, {"AddressLine1": "8914 Jordan Ct", "City": "NORTH RIDGEVILLE", "PostalCode": "44039", "State": "OH"}, {"AddressLine1": "2322 Magnolia Dr", "City": "ASHLAND", "PostalCode": "44805", "State": "OH"}, {"AddressLine1": "24250 MAPLEWOOD AVE", "City": "EUCLID", "PostalCode": "44123", "State": "OH"}, {"AddressLine1": "32 10TH ST SW", "City": "MASSILLON", "PostalCode": "44647", "State": "OH"}, {"AddressLine1": "421 Landings Edge Dr", "City": "ELYRIA", "PostalCode": "44035", "State": "OH"}, {"AddressLine1": "240 CLOVER LNAPT  I", "City": "DAYTON", "PostalCode": "45440", "State": "OH"}, {"AddressLine1": "304 W FOURTH ST", "City": "MARYSVL", "PostalCode": "43040", "State": "OH"}, {"AddressLine1": "4585 Bufort Blvd", "City": "HUBER HTS", "PostalCode": "45424", "State": "OH"}, {"AddressLine1": "6455 GETTYBURG PITTSBURGH RD", "City": "BRADFORD", "PostalCode": "45308", "State": "OH"}, {"AddressLine1": "5634 Sandpiper Ln", "City": "DAYTON", "PostalCode": "45424", "State": "OH"}, {"AddressLine1": "5136 Northcutt Pl", "City": "DAYTON", "PostalCode": "45414", "State": "OH"}, {"AddressLine1": "11615 Elkwood Dr", "City": "CINCINNATI", "PostalCode": "45240", "State": "OH"}, {"AddressLine1": "7876 Manor Dr", "City": "WEST CHESTER", "PostalCode": "45069", "State": "OH"}, {"AddressLine1": "467 PEDRETTI AVE", "City": "CINCINNATI", "PostalCode": "45238", "State": "OH"}, {"AddressLine1": "84 N BROOKLYN AVE", "City": "SIDNEY", "PostalCode": "45365", "State": "OH"}, {"AddressLine1": "33 Elm St", "City": "ABERDEEN", "PostalCode": "45101", "State": "OH"}, {"AddressLine1": "6422 Sedgemere Ln", "City": "GALLOWAY", "PostalCode": "43119", "State": "OH"}, {"AddressLine1": "17 S Plains Rd", "City": "THE PLAINS", "PostalCode": "45780", "State": "OH"}, {"AddressLine1": "1787 Deanne Ln", "City": "COLUMBUS", "PostalCode": "43223", "State": "OH"}, {"AddressLine1": "9911 DIXIE HWY", "City": "BLUFFTON", "PostalCode": "45817", "State": "OH"}, {"AddressLine1": "2904 3rd St NW", "City": " CANTON", "PostalCode": "44708", "State": "OH"}, {"AddressLine1": "201 OAKMONT CT", "City": "WOOSTER", "PostalCode": "44691", "State": "OH"}, {"AddressLine1": "725 N Bever St", "City": "WOOSTER", "PostalCode": "44691", "State": "OH"}, {"AddressLine1": "673 Smithfield Ave", "City": "LANCASTER", "PostalCode": "43130", "State": "OH"}, {"AddressLine1": "6556 COUNTY ROAD 203", "City": "MILLERSBURG", "PostalCode": "44654", "State": "OH"}, {"AddressLine1": "3094 East Pike", "City": "ZANESVILLE", "PostalCode": "43701", "State": "OH"}, {"AddressLine1": "4455 CLEVELAND RD TRLR 6", "City": "WOOSTER", "PostalCode": "44691", "State": "OH"}, {"AddressLine1": "1780 AMBER HILLS DR", "City": "AKRON", "PostalCode": "44313", "State": "OH"}, {"AddressLine1": "5 29th St SW", "City": "BARBERTON", "PostalCode": "44203", "State": "OH"}, {"AddressLine1": "101 PARK MEADOW LN", "City": "ELYRIA", "PostalCode": "44035", "State": "OH"}, {"AddressLine1": "2307 Hamilton Ave", "City": "LORAIN", "PostalCode": "44052", "State": "OH"}, {"AddressLine1": "243 Howe St", "City": "ELYRIA", "PostalCode": "44035", "State": "OH"}, {"AddressLine1": "1774 Norwood St NW", "City": "WARREN", "PostalCode": "44485", "State": "OH"}, {"AddressLine1": "928 SODOM HUTCHINGS RD", "City": "VIENNA", "PostalCode": "44473", "State": "OH"}, {"AddressLine1": "6145 CREEKHAVEN DR", "City": "PARMA HEIGHTS", "PostalCode": "44130", "State": "OH"}, {"AddressLine1": "5056 Tatra Ave", "City": "MAPLE HEIGHTS", "PostalCode": "44137", "State": "OH"}, {"AddressLine1": "1267 ELBERON AVE", "City": "CINCINNATI", "PostalCode": "45205", "State": "OH"}, {"AddressLine1": "7190 Brooke Blvd", "City": "REYNOLDSBURG", "PostalCode": "43068", "State": "OH"}, {"AddressLine1": "2048 Drumlin Dr Apt B", "City": "GROVE CITY", "PostalCode": "43123", "State": "OH"}, {"AddressLine1": "158 Muirwood Dr", "City": "MOUNT STERLING", "PostalCode": "43143", "State": "OH"}, {"AddressLine1": "1644 Harvester Ln", "City": "COLUMBUS", "PostalCode": "43229", "State": "OH"}, {"AddressLine1": "647 Roth Ave", "City": "COLUMBUS", "PostalCode": "43228", "State": "OH"}, {"AddressLine1": "5673 Warner Park Dr", "City": "WESTERVILLE", "PostalCode": "43081", "State": "OH"}, {"AddressLine1": "5416 Ruffed Grouse Cir", "City": "DUBLIN", "PostalCode": "43016", "State": "OH"}, {"AddressLine1": "6152 Harrington Ct", "City": "COLUMBUS", "PostalCode": "43229", "State": "OH"}, {"AddressLine1": "1634 Lincoln Pike", "City": " GALLIPOLIS", "PostalCode": "45631", "State": "OH"}, {"AddressLine1": "119 Taff Cir", "City": "LOUISVILLE", "PostalCode": "44641", "State": "OH"}, {"AddressLine1": "73991 Pleasant Grove Rd", "City": "ADENA", "PostalCode": "43901", "State": "OH"}, {"AddressLine1": "5899 Lincoln Hwy", "City": "CRESTLINE", "PostalCode": "44827", "State": "OH"}, {"AddressLine1": "223 E 5th St Apt A", "City": "WEST LAFAYETTE", "PostalCode": "43845", "State": "OH"}, {"AddressLine1": "228 HILLCREST DR", "City": "DANVILLE", "PostalCode": "43014", "State": "OH"}, {"AddressLine1": "462 W Murphy St", "City": "LIMA", "PostalCode": "45801", "State": "OH"}, {"AddressLine1": "4230 Harmont Ave NE Apt A", "City": " CANTON", "PostalCode": "44705", "State": "OH"}, {"AddressLine1": "117 E High St Apt A", "City": "ATTICA", "PostalCode": "44807", "State": "OH"}, {"AddressLine1": "6345 Narrows Rd", "City": "FRAZEYSBURG", "PostalCode": "43822", "State": "OH"}, {"AddressLine1": "10825 Ravenna Rd", "City": "TWINSBURG", "PostalCode": "44087", "State": "OH"}, {"AddressLine1": "29005 Lake Rd", "City": "BAY VILLAGE", "PostalCode": "44140", "State": "OH"}, {"AddressLine1": "2011 MASSACHUSETTS SE AVE", "City": "MASSILLON", "PostalCode": "44646", "State": "OH"}, {"AddressLine1": "240 1ST NW ST", "City": "BARBERTON", "PostalCode": "44203", "State": "OH"}, {"AddressLine1": "11740 Bell Rd", "City": "NEWBURY", "PostalCode": "44065", "State": "OH"}, {"AddressLine1": "2733 Morton Dr", "City": "SPRINGFIELD", "PostalCode": "45505", "State": "OH"}, {"AddressLine1": "20440 State Route 347", "City": "RAYMOND", "PostalCode": "43067", "State": "OH"}, {"AddressLine1": "185 Loganwood Dr", "City": "CENTERVL", "PostalCode": "45458", "State": "OH"}, {"AddressLine1": "2193 CLARA ST", "City": "CINCINNATI", "PostalCode": "45214", "State": "OH"}, {"AddressLine1": "1729 Elaine Rd", "City": "COLUMBUS", "PostalCode": "43227", "State": "OH"}, {"AddressLine1": "3708 Echo Pl", "City": "POWELL", "PostalCode": "43065", "State": "OH"}, {"AddressLine1": "4887 Dierker Rd", "City": "COLUMBUS", "PostalCode": "43220", "State": "OH"}, {"AddressLine1": "2495 Horseshoe Rd", "City": "DELAWARE", "PostalCode": "43015", "State": "OH"}, {"AddressLine1": "3490 Maple Grove Rd", "City": "MARION", "PostalCode": "43302", "State": "OH"}, {"AddressLine1": "209 S Saint Clairsville Rd", "City": "PORT WASHINGTON", "PostalCode": "43837", "State": "OH"}, {"AddressLine1": "917 E Park Dr", "City": "FOSTORIA", "PostalCode": "44830", "State": "OH"}, {"AddressLine1": "342 N Charles St", "City": "LIMA", "PostalCode": "45805", "State": "OH"}, {"AddressLine1": "1211 N Metcalf St", "City": "LIMA", "PostalCode": "45801", "State": "OH"}, {"AddressLine1": "150 Tera Mnr", "City": "WINTERSVILLE", "PostalCode": "43953", "State": "OH"}, {"AddressLine1": "3668 OTTERBEIN AVE", "City": "DAYTON", "PostalCode": "45406", "State": "OH"}, {"AddressLine1": "400 E 330TH ST", "City": "WILLOWICK", "PostalCode": "44095", "State": "OH"}, {"AddressLine1": "142 S Union Ave", "City": "SALEM", "PostalCode": "44460", "State": "OH"}, {"AddressLine1": "2056 Greenwood Ave", "City": "TOLEDO", "PostalCode": "43605", "State": "OH"}, {"AddressLine1": "4326 W 143rd St", "City": "CLEVELAND", "PostalCode": "44135", "State": "OH"}, {"AddressLine1": "1493 E 204th St", "City": "EUCLID", "PostalCode": "44117", "State": "OH"}, {"AddressLine1": "14266 Settlers Way", "City": "STRONGSVILLE", "PostalCode": "44136", "State": "OH"}, {"AddressLine1": "1086 Greenwood Ave", "City": "AKRON", "PostalCode": "44320", "State": "OH"}, {"AddressLine1": "1213 Cramer Dr", "City": "MOGADORE", "PostalCode": "44260", "State": "OH"}, {"AddressLine1": "741 Thorndale Dr", "City": "AKRON", "PostalCode": "44320", "State": "OH"}, {"AddressLine1": "1309 SHAFFER DR", "City": "LORAIN", "PostalCode": "44053", "State": "OH"}, {"AddressLine1": "14517 Lake Ave Uppr", "City": "LAKEWOOD", "PostalCode": "44107", "State": "OH"}, {"AddressLine1": "431 SHAWNEE RUNAPT  F", "City": "WEST CARROLLTON", "PostalCode": "45449", "State": "OH"}, {"AddressLine1": "1500 Barnhart Rd", "City": " TROY ", "PostalCode": "45373", "State": "OH"}, {"AddressLine1": "6645 ROBERTA DR", "City": "TIPP CITY", "PostalCode": "45371", "State": "OH"}, {"AddressLine1": "150 W Dorothy Ln Apt 304", "City": "DAYTON", "PostalCode": "45429", "State": "OH"}, {"AddressLine1": "174 BLUE-GATE CIR", "City": "DAYTON", "PostalCode": "45429", "State": "OH"}, {"AddressLine1": "725 Green Acres Dr", "City": "DAYTON", "PostalCode": "45414", "State": "OH"}, {"AddressLine1": "10915 Sand Run Rd", "City": "HARRISON", "PostalCode": "45030", "State": "OH"}, {"AddressLine1": "6760 HILLARY DR", "City": "CINCINNATI", "PostalCode": "45239", "State": "OH"}, {"AddressLine1": "3703 IRWIN SIMPSON RD", "City": "MASON", "PostalCode": "45040", "State": "OH"}, {"AddressLine1": "110 Front St", "City": "NEW MATAMORAS", "PostalCode": "45767", "State": "OH"}, {"AddressLine1": "3924 Clark Shaw Rd", "City": "POWELL", "PostalCode": "43065", "State": "OH"}, {"AddressLine1": "348 E Ohio St", "City": "CIRCLEVILLE", "PostalCode": "43113", "State": "OH"}, {"AddressLine1": "6078 Winnebago St", "City": "GROVE CITY", "PostalCode": "43123", "State": "OH"}, {"AddressLine1": "507 CATALINA DR APT 5", "City": "NEWARK", "PostalCode": "43055", "State": "OH"}, {"AddressLine1": "3117 Tuscarawas St W Apt 3D", "City": " CANTON", "PostalCode": "44708", "State": "OH"}, {"AddressLine1": "923 Eastport Ave", "City": "UHRICHSVILLE", "PostalCode": "44683", "State": "OH"}, {"AddressLine1": "330 S Jameson Ave", "City": "LIMA", "PostalCode": "45805", "State": "OH"}, {"AddressLine1": "86 W Main St Ste 107", "City": "NEWARK", "PostalCode": "43055", "State": "OH"}, {"AddressLine1": "19 Licking View Dr Apt C", "City": "HEATH", "PostalCode": "43056", "State": "OH"}, {"AddressLine1": "5047 BRISTOL CT", "City": "LYNDHURST", "PostalCode": "44124", "State": "OH"}, {"AddressLine1": "1812 Freeman St", "City": "TOLEDO", "PostalCode": "43606", "State": "OH"}, {"AddressLine1": "3894 E 131st St", "City": "CLEVELAND", "PostalCode": "44120", "State": "OH"}, {"AddressLine1": "2689 TIMBERLINE TRL", "City": "CUYAHOGA FALLS", "PostalCode": "44223", "State": "OH"}, {"AddressLine1": "3354 Lincoln Way E", "City": "MASSILLON", "PostalCode": "44646", "State": "OH"}, {"AddressLine1": "4195 Lancaster Ln", "City": "KENT", "PostalCode": "44240", "State": "OH"}, {"AddressLine1": "339 Johnson Plank Rd NE", "City": "WARREN", "PostalCode": "44481", "State": "OH"}, {"AddressLine1": "4314 E 164th St", "City": "CLEVELAND", "PostalCode": "44128", "State": "OH"}, {"AddressLine1": "931 E 228th St", "City": "EUCLID", "PostalCode": "44123", "State": "OH"}, {"AddressLine1": "3685 N MEDINA LINE RD", "City": "RICHFIELD", "PostalCode": "44286", "State": "OH"}, {"AddressLine1": "3320 E 142nd St", "City": "CLEVELAND", "PostalCode": "44120", "State": "OH"}, {"AddressLine1": "1101 Free Rd", "City": "SHILOH", "PostalCode": "44878", "State": "OH"}, {"AddressLine1": "1245 FRAZIER RD", "City": "MIDLAND", "PostalCode": "45148", "State": "OH"}, {"AddressLine1": "09370 CANAL WY", "City": "WEST CHESTER", "PostalCode": "45069", "State": "OH"}, {"AddressLine1": "2674 COBBLE CIRAPT  2", "City": "DAYTON", "PostalCode": "45439", "State": "OH"}, {"AddressLine1": "7609 CASTLETON PL", "City": "CINCINNATI", "PostalCode": "45237", "State": "OH"}, {"AddressLine1": "3546 Rosburg Dr", "City": "COLUMBUS", "PostalCode": "43228", "State": "OH"}, {"AddressLine1": "1420 Leland Ave", "City": "LIMA", "PostalCode": "45805", "State": "OH"}, {"AddressLine1": "1336 Putnam St", "City": "SANDUSKY", "PostalCode": "44870", "State": "OH"}, {"AddressLine1": "2501 MUSTANG DR", "City": "CINCINNATI", "PostalCode": "45211", "State": "OH"}, {"AddressLine1": "1624 S 4TH ST", "City": "COLUMBUS", "PostalCode": "43207", "State": "OH"}, {"AddressLine1": "3220 Scioto Run Blvd", "City": "HILLIARD", "PostalCode": "43026", "State": "OH"}, {"AddressLine1": "00803 UNION RD", "City": "FRANKLIN", "PostalCode": "45005", "State": "OH"}, {"AddressLine1": "323 Mistletoe Ave", "City": "YOUNGSTOWN", "PostalCode": "44511", "State": "OH"}, {"AddressLine1": "1255 PINE FOREST DR", "City": "AMELIA", "PostalCode": "45102", "State": "OH"}, {"AddressLine1": "1662 Dundee Pl", "City": "COLUMBUS", "PostalCode": "43227", "State": "OH"}, {"AddressLine1": "5037 Hearthstone Park Dr", "City": "NEW ALBANY", "PostalCode": "43054", "State": "OH"}, {"AddressLine1": "2643 Glendale Rd", "City": "GROVE CITY", "PostalCode": "43123", "State": "OH"}, {"AddressLine1": "554 SUMMERVIEW DR", "City": "WORTHINGTON", "PostalCode": "43085", "State": "OH"}, {"AddressLine1": "260 Highview Lndg", "City": "COLUMBUS", "PostalCode": "43207", "State": "OH"}, {"AddressLine1": "1321 Jewett Dr", "City": "ZANESVILLE", "PostalCode": "43701", "State": "OH"}, {"AddressLine1": "52839 SUMMIT AVE TRLR", "City": "SAINT CLAIRSVILLE", "PostalCode": "43950", "State": "OH"}, {"AddressLine1": "803 E Henry St", "City": "WOOSTER", "PostalCode": "44691", "State": "OH"}, {"AddressLine1": "137 2nd Ave", "City": "BELLAIRE", "PostalCode": "43906", "State": "OH"}, {"AddressLine1": "561 E Buchtel Ave Apt 3", "City": "AKRON", "PostalCode": "44304", "State": "OH"}, {"AddressLine1": "5533 Forest Ln", "City": "BRECKSVILLE", "PostalCode": "44141", "State": "OH"}, {"AddressLine1": "1246 Belrose Rd", "City": "MAYFIELD HEIGHTS", "PostalCode": "44124", "State": "OH"}, {"AddressLine1": "1809 S ARLINGTON ST", "City": "AKRON", "PostalCode": "44306", "State": "OH"}, {"AddressLine1": "22493 W RIVER RD", "City": "GRAND RAPIDS", "PostalCode": "43522", "State": "OH"}, {"AddressLine1": "26 1/2 W Arch St", "City": "MANSFIELD", "PostalCode": "44903", "State": "OH"}, {"AddressLine1": "165 Ayers St", "City": "YOUNGSTOWN", "PostalCode": "44506", "State": "OH"}, {"AddressLine1": "127 Princess St", "City": "CAMPBELL", "PostalCode": "44405", "State": "OH"}, {"AddressLine1": "630 OAK ST", "City": "MANSFIELD", "PostalCode": "44907", "State": "OH"}, {"AddressLine1": "25200 ROCKSIDE RD", "City": "BEDFORD HEIGHTS", "PostalCode": "44146", "State": "OH"}, {"AddressLine1": "438 Briarwood Ave", "City": "DAYTON", "PostalCode": "45403", "State": "OH"}, {"AddressLine1": "9387 Oak Brook Dr", "City": "CENTERVILLE", "PostalCode": "45458", "State": "OH"}, {"AddressLine1": "8557 ESSEX ORCHARD STATION DR", "City": "FAIRFIELD", "PostalCode": "45014", "State": "OH"}, {"AddressLine1": "3011 HAMILTON SCIPIO RD", "City": "HAMILTON", "PostalCode": "45013", "State": "OH"}, {"AddressLine1": "3840 Three Rivers Dr", "City": "GROVEPORT", "PostalCode": "43125", "State": "OH"}, {"AddressLine1": "696 Eastern Ave", "City": "CHILLICOTHE", "PostalCode": "45601", "State": "OH"}, {"AddressLine1": "115 N Spring St", "City": "BUCYRUS", "PostalCode": "44820", "State": "OH"}, {"AddressLine1": "808 Shalimar Dr Apt A", "City": "MOUNT VERNON", "PostalCode": "43050", "State": "OH"}, {"AddressLine1": "136 EAST ST REAR", "City": "BELLVILLE", "PostalCode": "44813", "State": "OH"}, {"AddressLine1": "506 Spring St NE", "City": "SUGARCREEK", "PostalCode": "44681", "State": "OH"}, {"AddressLine1": "119 COVINGTON ST LOT 2", "City": "MINGO JUNCTION", "PostalCode": "43938", "State": "OH"}, {"AddressLine1": "7491 Preston Rd", "City": "NEWARK", "PostalCode": "43055", "State": "OH"}, {"AddressLine1": "52847 Summit Ave", "City": "SAINT CLAIRSVILLE", "PostalCode": "43950", "State": "OH"}, {"AddressLine1": "3310 Ridgeton Rd", "City": "BUCYRUS", "PostalCode": "44820", "State": "OH"}, {"AddressLine1": "1117 Shorb Ave NW Apt 1", "City": " CANTON", "PostalCode": "44703", "State": "OH"}, {"AddressLine1": "12802 STATE ROUTE 68", "City": "KENTON", "PostalCode": "43326", "State": "OH"}, {"AddressLine1": "4922 Annette Pl", "City": "WARRENSVILLE HEIGHTS", "PostalCode": "44128", "State": "OH"}, {"AddressLine1": "424 E Decker Dr", "City": "SEVEN HILLS", "PostalCode": "44131", "State": "OH"}, {"AddressLine1": "439 New St", "City": "FAIRPORT HARBOR", "PostalCode": "44077", "State": "OH"}, {"AddressLine1": "943 Peerless Ave", "City": "AKRON", "PostalCode": "44320", "State": "OH"}, {"AddressLine1": "802 Drexel Ave", "City": "SPRINGFIELD", "PostalCode": "45505", "State": "OH"}, {"AddressLine1": "168 WINTER LN", "City": "CORTLAND", "PostalCode": "44410", "State": "OH"}, {"AddressLine1": "2227 LEXINGTON AVE", "City": "SPRINGFIELD", "PostalCode": "45505", "State": "OH"}, {"AddressLine1": "507 KARL DR", "City": "RICHMOND HEIGHTS", "PostalCode": "44143", "State": "OH"}, {"AddressLine1": "3801 S HOMEWOOD AVE", "City": "ASHTABULA", "PostalCode": "44004", "State": "OH"}, {"AddressLine1": "16800 Lake Shore Blvd Apt 525", "City": "CLEVELAND", "PostalCode": "44110", "State": "OH"}, {"AddressLine1": "1004 Fairfax Ave", "City": "MANSFIELD", "PostalCode": "44906", "State": "OH"}, {"AddressLine1": "88 Oakview Ave", "City": "STRUTHERS", "PostalCode": "44471", "State": "OH"}, {"AddressLine1": "92 W 2ND ST", "City": "MANSFIELD", "PostalCode": "44902", "State": "OH"}, {"AddressLine1": "8517 OLD-DAYTON RD", "City": "DAYTON", "PostalCode": "45417", "State": "OH"}, {"AddressLine1": "2079 Drake Dr", "City": "XENIA", "PostalCode": "45385", "State": "OH"}, {"AddressLine1": "14140 TOWNLNE-LIMA RD", "City": "WAPAKONETA", "PostalCode": "45895", "State": "OH"}]
