[{"AddressLine1": "56 Martin Rd", "City": "MILTON", "PostalCode": "02186", "State": "MA"}, {"AddressLine1": "35 Buckboard Dr", "City": "WALPOLE", "PostalCode": "02081", "State": "MA"}, {"AddressLine1": "2 Earhart St", "City": "CAMBRIDGE", "PostalCode": "02141", "State": "MA"}, {"AddressLine1": "83 Northwest Rd", "City": "SPENCER", "PostalCode": "01562", "State": "MA"}, {"AddressLine1": "11 THOMAS E BURGIN PKWY", "City": "QUINCY", "PostalCode": "02169", "State": "MA"}, {"AddressLine1": "208  BLISSWOOD DR", "City": "LUDLOW", "PostalCode": "01056", "State": "MA"}, {"AddressLine1": "36 Captain Rd", "City": "LONGMEADOW", "PostalCode": "01106", "State": "MA"}, {"AddressLine1": "20 Wilder Ave", "City": "LOWELL", "PostalCode": "01851", "State": "MA"}, {"AddressLine1": "189 RIDGE ST 1EF", "City": "FALL RIVER", "PostalCode": "02721", "State": "MA"}, {"AddressLine1": "55 Pickering Rd", "City": "BLACKSTONE", "PostalCode": "01504", "State": "MA"}, {"AddressLine1": "271 BLACKSTONE ST FL 2", "City": "BLACKSTONE", "PostalCode": "01504", "State": "MA"}, {"AddressLine1": "131 West St", "City": "WINCHENDON", "PostalCode": "01475", "State": "MA"}, {"AddressLine1": "1 SEAL HBR APT 805", "City": "WINTHROP", "PostalCode": "02152", "State": "MA"}, {"AddressLine1": "305 DUTTON ST APT 219", "City": "LOWELL", "PostalCode": "01854", "State": "MA"}, {"AddressLine1": "1040 Cove Rd Apt 2", "City": "NEW BEDFORD", "PostalCode": "02744", "State": "MA"}, {"AddressLine1": "139 Spring St", "City": "FAIRHAVEN", "PostalCode": "02719", "State": "MA"}, {"AddressLine1": "67 Plymouth St", "City": "PEMBROKE", "PostalCode": "02359", "State": "MA"}, {"AddressLine1": "14 BLACK-CAT RD", "City": "PLYMOUTH", "PostalCode": "02360", "State": "MA"}, {"AddressLine1": "34 Wilann Rd", "City": "MASHPEE", "PostalCode": "02649", "State": "MA"}, {"AddressLine1": "163 ANTLERS-SHORE DR", "City": "E FALMOUTH", "PostalCode": "02536", "State": "MA"}, {"AddressLine1": "PO Box 406", "City": "CHILMARK", "PostalCode": "02535", "State": "MA"}, {"AddressLine1": "45 LEXINGTON ST APT  2", "City": "EVERETT", "PostalCode": "02149", "State": "MA"}, {"AddressLine1": "228 Dunbar St", "City": "FALL RIVER", "PostalCode": "02723", "State": "MA"}, {"AddressLine1": "227 Everett St # 5", "City": "EAST BOSTON", "PostalCode": "02128", "State": "MA"}, {"AddressLine1": "73 Ruggles St", "City": "ROXBURY CROSSING", "PostalCode": "02120", "State": "MA"}, {"AddressLine1": "17 CEDARCROFT LN", "City": "WALTHAM", "PostalCode": "02451", "State": "MA"}, {"AddressLine1": "2 Clinton Ave", "City": "FRAMINGHAM", "PostalCode": "01702", "State": "MA"}, {"AddressLine1": "145 Elm St", "City": "STONEHAM", "PostalCode": "02180", "State": "MA"}, {"AddressLine1": "251 RESERVOIR ST LOT 1", "City": "NORTON", "PostalCode": "02766", "State": "MA"}, {"AddressLine1": "15 Pine Rd", "City": "LEOMINSTER", "PostalCode": "01453", "State": "MA"}, {"AddressLine1": "271 Warren St", "City": "NEEDHAM", "PostalCode": "02492", "State": "MA"}, {"AddressLine1": "82 Pond St", "City": "BILLERICA", "PostalCode": "01821", "State": "MA"}, {"AddressLine1": "1 MILK ST", "City": "BLACKSTONE", "PostalCode": "01504", "State": "MA"}, {"AddressLine1": "8 WILLIAMS ST    COGEN", "City": "MALDEN", "PostalCode": "02148", "State": "MA"}, {"AddressLine1": "141 FARNHAM ST FL 1 1ST", "City": "LAWRENCE", "PostalCode": "01843", "State": "MA"}, {"AddressLine1": "80 ELIZABETH ST APT 1", "City": "FALL RIVER", "PostalCode": "02723", "State": "MA"}, {"AddressLine1": "30 Rolling Meadow Rd", "City": "TEWKSBURY", "PostalCode": "01876", "State": "MA"}, {"AddressLine1": "26 Bayne St", "City": "E LONGMEADOW", "PostalCode": "01028", "State": "MA"}, {"AddressLine1": "45 Brookline Ave", "City": "HAVERHILL", "PostalCode": "01830", "State": "MA"}, {"AddressLine1": "62 Johnson Rd", "City": "SUTTON", "PostalCode": "01590", "State": "MA"}, {"AddressLine1": "1721 Riverdale St", "City": "WEST SPRINGFIELD", "PostalCode": "01089", "State": "MA"}, {"AddressLine1": "18  LAKEVIEW RD", "City": "HINSDALE", "PostalCode": "01235", "State": "MA"}, {"AddressLine1": "15  LAKE STFL 1", "City": "PITTSFIELD", "PostalCode": "01201", "State": "MA"}, {"AddressLine1": "6 N Hampshire St", "City": "EASTHAMPTON", "PostalCode": "01027", "State": "MA"}, {"AddressLine1": "195  WACHUSETT ST", "City": "SPRINGFIELD", "PostalCode": "01118", "State": "MA"}, {"AddressLine1": "57 Spencer St", "City": "AGAWAM", "PostalCode": "01001", "State": "MA"}, {"AddressLine1": "25  KEEGAN LNAPT 3B", "City": "GREENFIELD", "PostalCode": "01301", "State": "MA"}, {"AddressLine1": "177  WHITNEY ST", "City": "LUDLOW", "PostalCode": "01056", "State": "MA"}, {"AddressLine1": "158  BERKSHIRE AVE", "City": "SOUTHWICK", "PostalCode": "01077", "State": "MA"}, {"AddressLine1": "18  ASHMONT STFL 1", "City": "SPRINGFIELD", "PostalCode": "01108", "State": "MA"}, {"AddressLine1": "93 E PARK STAPT 8", "City": "SPRINGFIELD", "PostalCode": "01105", "State": "MA"}, {"AddressLine1": "21 FAIRMOUNT WAY", "City": "QUINCY", "PostalCode": "02169", "State": "MA"}, {"AddressLine1": "65 CANAL STAPT 206 POLE 7 00", "City": "MILLBURY", "PostalCode": "01527", "State": "MA"}, {"AddressLine1": "963 Dighton Woods Cir", "City": "DIGHTON", "PostalCode": "02715", "State": "MA"}, {"AddressLine1": "6 Mason St Lot 80", "City": "PEPPERELL", "PostalCode": "01463", "State": "MA"}, {"AddressLine1": "24 Bradford Rd", "City": "NORTH CHELMSFORD", "PostalCode": "01863", "State": "MA"}, {"AddressLine1": "145 Middle St Apt 1", "City": "FALL RIVER", "PostalCode": "02724", "State": "MA"}, {"AddressLine1": "16 Saunders St", "City": "BROCKTON", "PostalCode": "02302", "State": "MA"}, {"AddressLine1": "196 Main St", "City": "WILBRAHAM", "PostalCode": "01095", "State": "MA"}, {"AddressLine1": "16 State St Apt A", "City": "LEOMINSTER", "PostalCode": "01453", "State": "MA"}, {"AddressLine1": "84 Cedar St", "City": "WOLLASTON", "PostalCode": "02170", "State": "MA"}, {"AddressLine1": "137 GRAFTON ST  REAR", "City": "MILLBURY", "PostalCode": "01527", "State": "MA"}, {"AddressLine1": "51 MAPLE ST", "City": "TOPSFIELD", "PostalCode": "01983", "State": "MA"}, {"AddressLine1": "136 Bartlett Ave", "City": "WILBRAHAM", "PostalCode": "01095", "State": "MA"}, {"AddressLine1": "36 ONEIDA ST", "City": "LYNN", "PostalCode": "01902", "State": "MA"}, {"AddressLine1": "16 Pinebrook Dr", "City": "EASTHAMPTON", "PostalCode": "01027", "State": "MA"}, {"AddressLine1": "45 Codding Rd", "City": "NORTON", "PostalCode": "02766", "State": "MA"}, {"AddressLine1": "5A DARBY LN", "City": "ROCKPORT", "PostalCode": "01966", "State": "MA"}, {"AddressLine1": "114 Brierwood Dr", "City": "FLORENCE", "PostalCode": "01062", "State": "MA"}, {"AddressLine1": "148 Dresser Hill Rd", "City": "DUDLEY", "PostalCode": "01571", "State": "MA"}, {"AddressLine1": "22 Robbins St", "City": "AVON", "PostalCode": "02322", "State": "MA"}, {"AddressLine1": "178 DICKINSON ST", "City": "FALL RIVER", "PostalCode": "02721", "State": "MA"}, {"AddressLine1": "183 Merrimack St", "City": "METHUEN", "PostalCode": "01844", "State": "MA"}, {"AddressLine1": "6 Chevy Chase Rd", "City": "WORCESTER", "PostalCode": "01606", "State": "MA"}, {"AddressLine1": "33 Hapgood Rd", "City": "WORCESTER", "PostalCode": "01605", "State": "MA"}, {"AddressLine1": "153 Megan Rd", "City": "HYANNIS", "PostalCode": "02601", "State": "MA"}, {"AddressLine1": "1256 MARRETT ROAD", "City": "LEXINGTON", "PostalCode": "02421", "State": "MA"}, {"AddressLine1": "340 SUNDERLAND RDAPT 36", "City": "WORCESTER", "PostalCode": "01604", "State": "MA"}, {"AddressLine1": "22 Twin Brooks Dr", "City": "SOUTH EASTON", "PostalCode": "02375", "State": "MA"}, {"AddressLine1": "18 Winterberry Way", "City": "NORFOLK", "PostalCode": "02056", "State": "MA"}, {"AddressLine1": "211  EAST STUNIT 29", "City": "EASTHAMPTON", "PostalCode": "01027", "State": "MA"}, {"AddressLine1": "85  HIGH ST", "City": "LEE", "PostalCode": "01238", "State": "MA"}, {"AddressLine1": "37  PINE STREET CTUNIT LEFT", "City": "SPRINGFIELD", "PostalCode": "01105", "State": "MA"}, {"AddressLine1": "104 Westborough St", "City": "WORCESTER", "PostalCode": "01604", "State": "MA"}, {"AddressLine1": "80R SALEM ST LEFT", "City": "WOBURN", "PostalCode": "01801", "State": "MA"}, {"AddressLine1": "4 Irene St", "City": "BURLINGTON", "PostalCode": "01803", "State": "MA"}, {"AddressLine1": "35 WASHINGTON ST 2", "City": "DORCHESTER", "PostalCode": "02121", "State": "MA"}, {"AddressLine1": "298 Cooper Rd", "City": "NORTHBRIDGE", "PostalCode": "01534", "State": "MA"}, {"AddressLine1": "45  COPLEY TER", "City": "SPRINGFIELD", "PostalCode": "01107", "State": "MA"}, {"AddressLine1": "241 Batchelor St", "City": "GRANBY", "PostalCode": "01033", "State": "MA"}, {"AddressLine1": "6 FIRST ST", "City": "DRACUT", "PostalCode": "01826", "State": "MA"}, {"AddressLine1": "12 HILLSIDE PARK APT  2", "City": "MALDEN", "PostalCode": "02148", "State": "MA"}, {"AddressLine1": "18 FRENCH ST APT S2", "City": "LYNN", "PostalCode": "01902", "State": "MA"}, {"AddressLine1": "5 LEAH CIR", "City": "METHUEN", "PostalCode": "01844", "State": "MA"}, {"AddressLine1": "115 Bullock St", "City": "NEW BEDFRD", "PostalCode": "02740", "State": "MA"}, {"AddressLine1": "198 Braley Rd", "City": "E FREETOWN", "PostalCode": "02717", "State": "MA"}, {"AddressLine1": "62 LONGBOAT DR", "City": "W WAREHAM", "PostalCode": "02576", "State": "MA"}, {"AddressLine1": "42 BOURNE RD", "City": "PLYMOUTH", "PostalCode": "02360", "State": "MA"}, {"AddressLine1": "310 HIGGINS-PND RD", "City": "E BREWSTER", "PostalCode": "02631", "State": "MA"}, {"AddressLine1": "1029 RTE-132  8B", "City": "HYANNIS", "PostalCode": "02601", "State": "MA"}, {"AddressLine1": "16 TODD LN    COGEN", "City": "WEYMOUTH", "PostalCode": "02190", "State": "MA"}, {"AddressLine1": "50 Wilson Rd", "City": "WEST YARMOUTH", "PostalCode": "02673", "State": "MA"}, {"AddressLine1": "15 Sunnyside Ln", "City": "MILFORD", "PostalCode": "01757", "State": "MA"}, {"AddressLine1": "12 Orchard St", "City": "PALMER", "PostalCode": "01069", "State": "MA"}, {"AddressLine1": "37 Carole ave", "City": "OAK BLUFFS", "PostalCode": "02557", "State": "MA"}, {"AddressLine1": "10 Wachusett St", "City": "LOWELL", "PostalCode": "01850", "State": "MA"}, {"AddressLine1": "45 Easterly Dr", "City": "EAST SANDWICH", "PostalCode": "02537", "State": "MA"}, {"AddressLine1": "50 Freedom Holw Unit 103", "City": "SALEM", "PostalCode": "01970", "State": "MA"}, {"AddressLine1": "113 BOYLSTON ST 2", "City": "WATERTOWN", "PostalCode": "02472", "State": "MA"}, {"AddressLine1": "109 Cambridge St", "City": "BURLINGTON", "PostalCode": "01803", "State": "MA"}, {"AddressLine1": "15 EDGECLIFF RD 2", "City": "WATERTOWN", "PostalCode": "02472", "State": "MA"}, {"AddressLine1": "30 WATERMAN RD", "City": "CANTON", "PostalCode": "02021", "State": "MA"}, {"AddressLine1": "125 Spring St", "City": "WATERTOWN", "PostalCode": "02472", "State": "MA"}, {"AddressLine1": "44 FRANCONIA AVE", "City": "NATICK", "PostalCode": "01760", "State": "MA"}, {"AddressLine1": "11 CARYLL ST", "City": "MATTAPAN", "PostalCode": "02126", "State": "MA"}, {"AddressLine1": "82 Marshall St", "City": "SOMERVILLE", "PostalCode": "02145", "State": "MA"}, {"AddressLine1": "15 Country Ln", "City": " CANTON", "PostalCode": "02021", "State": "MA"}, {"AddressLine1": "12 Picket Trl", "City": "PEMBROKE", "PostalCode": "02359", "State": "MA"}, {"AddressLine1": "15 VILLAGE WAY APT 21  21", "City": "BROCKTON", "PostalCode": "02301", "State": "MA"}, {"AddressLine1": "59 Warren St", "City": "ABINGTON", "PostalCode": "02351", "State": "MA"}, {"AddressLine1": "160 Athol Rd", "City": "PHILLIPSTON", "PostalCode": "01331", "State": "MA"}, {"AddressLine1": "28 WILLIAMSBERG DRAPT TWNHB", "City": "WORCESTER", "PostalCode": "01602", "State": "MA"}, {"AddressLine1": "80 Crescent Ave", "City": "MELROSE", "PostalCode": "02176", "State": "MA"}, {"AddressLine1": "GILMORE FARM RDUNIT 7 UN 7 B2", "City": "WESTBOROUGH", "PostalCode": "01581", "State": "MA"}, {"AddressLine1": "8 Levant St", "City": "DORCHESTER", "PostalCode": "02122", "State": "MA"}, {"AddressLine1": "6 Highland Ave Apt 1", "City": "SOMERVILLE", "PostalCode": "02143", "State": "MA"}, {"AddressLine1": "204 Providence St", "City": "REHOBOTH", "PostalCode": "02769", "State": "MA"}, {"AddressLine1": "43 Crane St", "City": "NORTON", "PostalCode": "02766", "State": "MA"}, {"AddressLine1": "45 WOODBRIDGE DR", "City": "E LONGMEADOW", "PostalCode": "01028", "State": "MA"}, {"AddressLine1": "19 Echo Ave", "City": "WEYMOUTH", "PostalCode": "02189", "State": "MA"}, {"AddressLine1": "139 Colonial Rd", "City": "ABINGTON", "PostalCode": "02351", "State": "MA"}, {"AddressLine1": "10 CHANNING ST APT 3", "City": "WORCESTER", "PostalCode": "01605", "State": "MA"}, {"AddressLine1": "237 Southfield Dr", "City": "BROCKTON", "PostalCode": "02302", "State": "MA"}, {"AddressLine1": "134 Summer St", "City": "NORTH EASTON", "PostalCode": "02356", "State": "MA"}, {"AddressLine1": "816 FRANKLIN ST", "City": "HANSON", "PostalCode": "02341", "State": "MA"}, {"AddressLine1": "7 Pomeroy St", "City": "EASTHAMPTON", "PostalCode": "01027", "State": "MA"}, {"AddressLine1": "111  LABELLE ST", "City": "WEST SPRINGFIELD", "PostalCode": "01089", "State": "MA"}, {"AddressLine1": "51  VALLEY VIEW DR", "City": "AMHERST", "PostalCode": "01002", "State": "MA"}, {"AddressLine1": "144  RUSSELLVILLE RD", "City": "SOUTHAMPTON", "PostalCode": "01073", "State": "MA"}, {"AddressLine1": "1600  MAIN POLAND RD", "City": "CONWAY", "PostalCode": "01341", "State": "MA"}, {"AddressLine1": "9 Parc Pl Unit 3", "City": "SOUTHAMPTON", "PostalCode": "01073", "State": "MA"}, {"AddressLine1": "128 Middle St", "City": "HADLEY", "PostalCode": "01035", "State": "MA"}, {"AddressLine1": "26 S Loomis St", "City": "SOUTHWICK", "PostalCode": "01077", "State": "MA"}, {"AddressLine1": "21  CEDAR GLEN CIR", "City": "GREENFIELD", "PostalCode": "01301", "State": "MA"}, {"AddressLine1": "11  LAKE SHORE DRDUPL LEFT", "City": "SOUTHWICK", "PostalCode": "01077", "State": "MA"}, {"AddressLine1": "54  THICKET RD", "City": "TOLLAND", "PostalCode": "01034", "State": "MA"}, {"AddressLine1": "15 Via Maria Lot 1", "City": "LEE", "PostalCode": "01238", "State": "MA"}, {"AddressLine1": "36  BLUE HILLS RD", "City": "AMHERST", "PostalCode": "01002", "State": "MA"}, {"AddressLine1": "43  RENEE CIR", "City": "SPRINGFIELD", "PostalCode": "01105", "State": "MA"}, {"AddressLine1": "38 S Washington St", "City": "NORTON", "PostalCode": "02766", "State": "MA"}, {"AddressLine1": "418 REVERE BEACH PKWYLOT 122 L122", "City": "REVERE", "PostalCode": "02151", "State": "MA"}, {"AddressLine1": "193 W CENTRAL ST APT 1R", "City": "FRANKLIN", "PostalCode": "02038", "State": "MA"}, {"AddressLine1": "99 BALSAM AVE", "City": "E BRIDGEWATER", "PostalCode": "02333", "State": "MA"}, {"AddressLine1": "370 MILL VALLEY RDLOT 50 L50 POLE 9", "City": "BELCHERTOWN", "PostalCode": "01007", "State": "MA"}, {"AddressLine1": "109 DUDLEY RIVER RD UNIT A", "City": "SOUTHBRIDGE", "PostalCode": "01550", "State": "MA"}, {"AddressLine1": "50 Washington Cir", "City": "HOLBROOK", "PostalCode": "02343", "State": "MA"}, {"AddressLine1": "534 ANDOVER ST FL 1", "City": "LAWRENCE", "PostalCode": "01843", "State": "MA"}, {"AddressLine1": "700 SHORE DR APT 706", "City": "FALL RIVER", "PostalCode": "02721", "State": "MA"}, {"AddressLine1": "50 James St", "City": "BELLINGHAM", "PostalCode": "02019", "State": "MA"}, {"AddressLine1": "3 Henchman St Apt 3", "City": "WORCESTER", "PostalCode": "01605", "State": "MA"}, {"AddressLine1": "3 Cherry St", "City": "ABINGTON", "PostalCode": "02351", "State": "MA"}, {"AddressLine1": "82A DANIELS RDLOT 1", "City": "CHARLTON", "PostalCode": "01507", "State": "MA"}, {"AddressLine1": "43 Airport Rd", "City": "DUDLEY", "PostalCode": "01571", "State": "MA"}, {"AddressLine1": "349 PLEASANT STAPT 1 POLE 22", "City": "GARDNER", "PostalCode": "01440", "State": "MA"}, {"AddressLine1": "9 Steeplechase Ct", "City": "HAVERHILL", "PostalCode": "01832", "State": "MA"}, {"AddressLine1": "65 Will Palmer Rd", "City": "SOUTHWICK", "PostalCode": "01077", "State": "MA"}, {"AddressLine1": "8  SEFTON DR", "City": "SOUTHWICK", "PostalCode": "01077", "State": "MA"}, {"AddressLine1": "83 Metacomet St", "City": "BELCHERTOWN", "PostalCode": "01007", "State": "MA"}, {"AddressLine1": "10 SYLVAN RD POLE 2 02", "City": "MONTEREY", "PostalCode": "01245", "State": "MA"}, {"AddressLine1": "7 Queens Way", "City": "S SANDWICH", "PostalCode": "02563", "State": "MA"}, {"AddressLine1": "63 DRIVING-TEE CIR", "City": "S YARMOUTH", "PostalCode": "02664", "State": "MA"}, {"AddressLine1": "44 Haywood Ave", "City": "S YARMOUTH", "PostalCode": "02664", "State": "MA"}, {"AddressLine1": "645 Riverside Ave", "City": "HAVERHILL", "PostalCode": "01830", "State": "MA"}, {"AddressLine1": "50 Pope Rd", "City": "ACTON", "PostalCode": "01720", "State": "MA"}, {"AddressLine1": "9 Costa Cir", "City": "FRAMINGHAM", "PostalCode": "01701", "State": "MA"}, {"AddressLine1": "20 Leamington Rd Apt 2", "City": "BRIGHTON", "PostalCode": "02135", "State": "MA"}, {"AddressLine1": "32 WHITING WAY", "City": "STOUGHTON", "PostalCode": "02072", "State": "MA"}, {"AddressLine1": "81 MOOSE-HILL PKY SNGL", "City": "SHARON", "PostalCode": "02067", "State": "MA"}, {"AddressLine1": "18 24 MADISON WAY UNIT 22", "City": "HUBBARDSTON", "PostalCode": "01452", "State": "MA"}, {"AddressLine1": "8 CHASE ST APT S10", "City": "LYNN", "PostalCode": "01902", "State": "MA"}, {"AddressLine1": "279  AMHERST RDAPT 42", "City": "SUNDERLAND", "PostalCode": "01375", "State": "MA"}, {"AddressLine1": "580  PARKER ST", "City": "SPRINGFIELD", "PostalCode": "01129", "State": "MA"}, {"AddressLine1": "5 N Glenway Ave", "City": "RANDOLPH", "PostalCode": "02368", "State": "MA"}, {"AddressLine1": "345 ESSEX ST    COGEN", "City": "WHITMAN", "PostalCode": "02382", "State": "MA"}, {"AddressLine1": "10 SYLVAN RD POLE 2", "City": "MONTEREY", "PostalCode": "01245", "State": "MA"}, {"AddressLine1": "140 Eastman Ave", "City": "SWAMPSCOTT", "PostalCode": "01907", "State": "MA"}, {"AddressLine1": "23 Ithica Rd", "City": "BROCKTON", "PostalCode": "02302", "State": "MA"}, {"AddressLine1": "39 TURNSTONE LN", "City": "SEEKONK", "PostalCode": "02771", "State": "MA"}, {"AddressLine1": "349 WESTERN AVE", "City": "GLOUCESTER", "PostalCode": "01930", "State": "MA"}, {"AddressLine1": "79 Fitzpatrick St", "City": "STOUGHTON", "PostalCode": "02072", "State": "MA"}, {"AddressLine1": "700 PACIFIC AVEAPT 110", "City": "LEOMINSTER", "PostalCode": "01453", "State": "MA"}, {"AddressLine1": "835 Whitman St", "City": "HANSON", "PostalCode": "02341", "State": "MA"}, {"AddressLine1": "252 PILGRIM AVE APT 1", "City": "WORCESTER", "PostalCode": "01604", "State": "MA"}, {"AddressLine1": "64 Holly St", "City": "LAWRENCE", "PostalCode": "01841", "State": "MA"}, {"AddressLine1": "49 Melrose St Apt 1A", "City": "MELROSE", "PostalCode": "02176", "State": "MA"}, {"AddressLine1": "836 Teaticket Hwy", "City": "TEATICKET", "PostalCode": "02536", "State": "MA"}, {"AddressLine1": "16 Hallmark Dr", "City": "WOBURN", "PostalCode": "01801", "State": "MA"}, {"AddressLine1": "69 CLARK AVE 3", "City": "CHELSEA", "PostalCode": "02150", "State": "MA"}, {"AddressLine1": "24 UPTON ST S3", "City": "BOSTON", "PostalCode": "02118", "State": "MA"}, {"AddressLine1": "1045 MIDDLESEX ST FL 2", "City": "LOWELL", "PostalCode": "01851", "State": "MA"}, {"AddressLine1": "72 LINDEN ST LOT 6A", "City": "DOUGLAS", "PostalCode": "01516", "State": "MA"}, {"AddressLine1": "44 Agawam St", "City": "LOWELL", "PostalCode": "01852", "State": "MA"}, {"AddressLine1": "65 Summer St", "City": "MANCHESTER", "PostalCode": "01944", "State": "MA"}, {"AddressLine1": "60 Brook Bend Rd", "City": "HANSON", "PostalCode": "02341", "State": "MA"}, {"AddressLine1": "466 HOSMER STLOT 1", "City": "MARLBOROUGH", "PostalCode": "01752", "State": "MA"}, {"AddressLine1": "132 W Meadow Rd Apt 16", "City": "HAVERHILL", "PostalCode": "01832", "State": "MA"}, {"AddressLine1": "129 WASHINGTON ST", "City": "NORTH EASTON", "PostalCode": "02356", "State": "MA"}, {"AddressLine1": "995 N Pleasant St Apt 15A", "City": "AMHERST", "PostalCode": "01002", "State": "MA"}, {"AddressLine1": "7 Porter Rd", "City": "SCITUATE", "PostalCode": "02066", "State": "MA"}, {"AddressLine1": "10 KNOB HILL RD    COGEN", "City": "GT BARRINGTON", "PostalCode": "01230", "State": "MA"}, {"AddressLine1": "127 Lakewood Dr", "City": "STOUGHTON", "PostalCode": "02072", "State": "MA"}, {"AddressLine1": "18 Douglas St Apt 3", "City": "WORCESTER", "PostalCode": "01603", "State": "MA"}, {"AddressLine1": "47 GREEN ST    COGEN", "City": "ABINGTON", "PostalCode": "02351", "State": "MA"}, {"AddressLine1": "37 Campaw St", "City": "LOWELL", "PostalCode": "01850", "State": "MA"}, {"AddressLine1": "36 LAWRENCE ST FL 1", "City": "HAVERHILL", "PostalCode": "01830", "State": "MA"}, {"AddressLine1": "65 JULIETTE ST", "City": "N DARTMUTH", "PostalCode": "02747", "State": "MA"}, {"AddressLine1": "2 Marc Dr Apt 2B1", "City": "PLYMOUTH", "PostalCode": "02360", "State": "MA"}, {"AddressLine1": "1017 MIDDLESEX ST APT 5", "City": "LOWELL", "PostalCode": "01851", "State": "MA"}, {"AddressLine1": "39 SUNNYSIDE-FARM WAY", "City": "WELLFLEET", "PostalCode": "02667", "State": "MA"}, {"AddressLine1": "32 Aire Ln", "City": "CHATHAM", "PostalCode": "02633", "State": "MA"}, {"AddressLine1": "14 Riverby St", "City": "LOWELL", "PostalCode": "01850", "State": "MA"}, {"AddressLine1": "51 Doral Dr", "City": "YARMOUTH PORT", "PostalCode": "02675", "State": "MA"}, {"AddressLine1": "48 Stone St", "City": "DRACUT", "PostalCode": "01826", "State": "MA"}, {"AddressLine1": "18 WINTER LNLOT 24", "City": "ATTLEBORO", "PostalCode": "02703", "State": "MA"}, {"AddressLine1": "78 Reney St Apt 1", "City": "FALL RIVER", "PostalCode": "02723", "State": "MA"}, {"AddressLine1": "54 EASTERN AVE APT  1", "City": "REVERE", "PostalCode": "02151", "State": "MA"}, {"AddressLine1": "331 N Elm St", "City": "WEST BRIDGEWATER", "PostalCode": "02379", "State": "MA"}, {"AddressLine1": "10 Marc Ave", "City": "SOUTHBRIDGE", "PostalCode": "01550", "State": "MA"}, {"AddressLine1": "3 5th St", "City": "NATICK", "PostalCode": "01760", "State": "MA"}, {"AddressLine1": "25 Lila Rd", "City": "JAMAICA PL", "PostalCode": "02130", "State": "MA"}, {"AddressLine1": "15 Donovan Ln", "City": "NATICK", "PostalCode": "01760", "State": "MA"}, {"AddressLine1": "78 WESTMINSTER CT A", "City": "ROXBURY", "PostalCode": "02119", "State": "MA"}, {"AddressLine1": "45 PINE-HILL RD", "City": "BEDFORD", "PostalCode": "01730", "State": "MA"}, {"AddressLine1": "49 SYLVANUS-WOOD LN", "City": "WOBURN", "PostalCode": "01801", "State": "MA"}, {"AddressLine1": "77 BOYNTON ST", "City": "WALTHAM", "PostalCode": "02453", "State": "MA"}, {"AddressLine1": "50 BLUE-HILL AVE 3", "City": "ROXBURY", "PostalCode": "02119", "State": "MA"}, {"AddressLine1": "51 E HOOSAC ST FL 1 1FL", "City": "ADAMS", "PostalCode": "01220", "State": "MA"}, {"AddressLine1": "73 Truman Dr", "City": "RANDOLPH", "PostalCode": "02368", "State": "MA"}, {"AddressLine1": "138 Waldemar Ave", "City": "E BOSTON", "PostalCode": "02128", "State": "MA"}, {"AddressLine1": "33 Randall St", "City": "ACUSHNET", "PostalCode": "02743", "State": "MA"}, {"AddressLine1": "103 Main St Apt 313", "City": "BROCKTON", "PostalCode": "02301", "State": "MA"}, {"AddressLine1": "17 Hawks Wing Rd", "City": "SOUTH YARMOUTH", "PostalCode": "02664", "State": "MA"}, {"AddressLine1": "35 Old Boston Rd", "City": "WILBRAHAM", "PostalCode": "01095", "State": "MA"}, {"AddressLine1": "398 WATER ST FL 2 2FL", "City": "CLINTON", "PostalCode": "01510", "State": "MA"}, {"AddressLine1": "42 Oaklandvale Ave", "City": "SAUGUS", "PostalCode": "01906", "State": "MA"}, {"AddressLine1": "70 Hancock Ave", "City": "BROCKTON", "PostalCode": "02301", "State": "MA"}, {"AddressLine1": "112 S HIGHLAND ST FL 2 2ND", "City": "LOWELL", "PostalCode": "01852", "State": "MA"}, {"AddressLine1": "30 WARREN AVE FL 3 3FL", "City": "MARLBOROUGH", "PostalCode": "01752", "State": "MA"}, {"AddressLine1": "20 Rosemary St", "City": "BROCKTON", "PostalCode": "02302", "State": "MA"}, {"AddressLine1": "4 Thelma Way", "City": "SCITUATE", "PostalCode": "02066", "State": "MA"}, {"AddressLine1": "13 WOODBINE ST APT 2", "City": "WORCESTER", "PostalCode": "01603", "State": "MA"}, {"AddressLine1": "93 Cleveland Ave Apt 42", "City": "NORTH ADAMS", "PostalCode": "01247", "State": "MA"}, {"AddressLine1": "1 Stonehaven Way", "City": "WESTPORT", "PostalCode": "02790", "State": "MA"}, {"AddressLine1": "16  WARD AVEAPT K", "City": "EASTHAMPTON", "PostalCode": "01027", "State": "MA"}, {"AddressLine1": "40  BIRCH GROVE RD", "City": "HANCOCK", "PostalCode": "01237", "State": "MA"}, {"AddressLine1": "3 Burgundy Ln", "City": "AMHERST", "PostalCode": "01002", "State": "MA"}, {"AddressLine1": "51 James St", "City": "SPRINGFIELD", "PostalCode": "01105", "State": "MA"}, {"AddressLine1": "251  EDENDALE ST", "City": "SPRINGFIELD", "PostalCode": "01104", "State": "MA"}, {"AddressLine1": "143  BUTTERMILK RD", "City": "HINSDALE", "PostalCode": "01235", "State": "MA"}, {"AddressLine1": "290  LEISURE LEE RD", "City": "LEE", "PostalCode": "01238", "State": "MA"}, {"AddressLine1": "116  WESTFORD AVEFL 2", "City": "SPRINGFIELD", "PostalCode": "01109", "State": "MA"}, {"AddressLine1": "12 Ridgeview Ter", "City": "SOUTHWICK", "PostalCode": "01077", "State": "MA"}, {"AddressLine1": "12 Kyle Hunter Cir", "City": "RUTLAND", "PostalCode": "01543", "State": "MA"}, {"AddressLine1": "16 Plain St", "City": "RANDOLPH", "PostalCode": "02368", "State": "MA"}, {"AddressLine1": "77 Laurel St", "City": "MELROSE", "PostalCode": "02176", "State": "MA"}, {"AddressLine1": "26 Caroline Ave", "City": "SOMERSET", "PostalCode": "02725", "State": "MA"}, {"AddressLine1": "318 Park St", "City": "GARDNER", "PostalCode": "01440", "State": "MA"}, {"AddressLine1": "41 Ivy Cir", "City": "WILBRAHAM", "PostalCode": "01095", "State": "MA"}, {"AddressLine1": "574 S Almond St Apt 1", "City": "FALL RIVER", "PostalCode": "02724", "State": "MA"}, {"AddressLine1": "28 Fords Xing", "City": "NORWELL", "PostalCode": "02061", "State": "MA"}, {"AddressLine1": "277 MAIN ST    COGEN", "City": "SPENCER", "PostalCode": "01562", "State": "MA"}, {"AddressLine1": "14 Keayne St", "City": "REVERE", "PostalCode": "02151", "State": "MA"}, {"AddressLine1": "138 Bickford Hill Rd", "City": "GARDNER", "PostalCode": "01440", "State": "MA"}, {"AddressLine1": "35 Taylor St", "City": "E LONGMEADOW", "PostalCode": "01028", "State": "MA"}, {"AddressLine1": "9 STEARNS AVE APT  2", "City": "MEDFORD", "PostalCode": "02155", "State": "MA"}, {"AddressLine1": "315 PURCHASE STLOT 1", "City": "MILFORD", "PostalCode": "01757", "State": "MA"}, {"AddressLine1": "15 STONE ST APT N", "City": "BEVERLY", "PostalCode": "01915", "State": "MA"}, {"AddressLine1": "64 HANCOCK ST LOT 34", "City": "FRANKLIN", "PostalCode": "02038", "State": "MA"}, {"AddressLine1": "98 MORTON ST 59", "City": "JAMAICA PL", "PostalCode": "02130", "State": "MA"}, {"AddressLine1": "90 Heritage Dr", "City": "NEW BEDFRD", "PostalCode": "02745", "State": "MA"}, {"AddressLine1": "22 Westglow St", "City": "DORCHESTER", "PostalCode": "02122", "State": "MA"}, {"AddressLine1": "47 CODJER LN", "City": "SUDBURY", "PostalCode": "01776", "State": "MA"}, {"AddressLine1": "297 Willis Rd", "City": "SUDBURY", "PostalCode": "01776", "State": "MA"}, {"AddressLine1": "489 WASHINGTON ST 1", "City": "WOBURN", "PostalCode": "01801", "State": "MA"}, {"AddressLine1": "151 N MAIN ST APT 2115", "City": "BELLINGHAM", "PostalCode": "02019", "State": "MA"}, {"AddressLine1": "119 Marshall St", "City": "TEWKSBURY", "PostalCode": "01876", "State": "MA"}, {"AddressLine1": "159 Main St Apt 37A", "City": "STONEHAM", "PostalCode": "02180", "State": "MA"}, {"AddressLine1": "8 JOHN-POULTER RD", "City": "LEXINGTON", "PostalCode": "02421", "State": "MA"}, {"AddressLine1": "45 ORANGE RD", "City": "WARWICK", "PostalCode": "01378", "State": "MA"}, {"AddressLine1": "85 Andover St Apt 2", "City": "LAWRENCE", "PostalCode": "01843", "State": "MA"}, {"AddressLine1": "15 HAZEL ST", "City": "UXBRIDGE", "PostalCode": "01569", "State": "MA"}, {"AddressLine1": "27  GEORGE ST", "City": "GREENFIELD", "PostalCode": "01301", "State": "MA"}, {"AddressLine1": "7 New Crest St", "City": "LUDLOW", "PostalCode": "01056", "State": "MA"}, {"AddressLine1": "35 Longwood Ave", "City": "BROCKTON", "PostalCode": "02301", "State": "MA"}, {"AddressLine1": "19 UNION ST APT  27", "City": "LYNN", "PostalCode": "01902", "State": "MA"}, {"AddressLine1": "120 Plainfield Ave", "City": "MALDEN", "PostalCode": "02148", "State": "MA"}, {"AddressLine1": "34 Standish Ave", "City": "E WAREHAM", "PostalCode": "02538", "State": "MA"}, {"AddressLine1": "22 Venetian Way", "City": "S YARMOUTH", "PostalCode": "02664", "State": "MA"}, {"AddressLine1": "27 BAR-NECK RD", "City": "WOODS HOLE", "PostalCode": "02543", "State": "MA"}, {"AddressLine1": "363 RIVET ST HSE", "City": "NEW BEDFRD", "PostalCode": "02744", "State": "MA"}]
