[{"AddressLine1": "2925 Olszewski Rd", "City": "MONTROSE", "PostalCode": "18801", "State": "PA"}, {"AddressLine1": "2610 Old Hickory Ct Unit 23", "City": "HERMITAGE", "PostalCode": "16148", "State": "PA"}, {"AddressLine1": "2048 Mercer Rd", "City": "FREDONIA", "PostalCode": "16124", "State": "PA"}, {"AddressLine1": "300 Seminole Ave", "City": "PITTSBURGH", "PostalCode": "15237", "State": "PA"}, {"AddressLine1": "327 VETERANS RD", "City": "MERCER", "PostalCode": "16137", "State": "PA"}, {"AddressLine1": "255 UPPER BOYD SCHOOL RD", "City": "WAMPUM", "PostalCode": "16157", "State": "PA"}, {"AddressLine1": "1576 Pymatuning Dr", "City": "JAMESTOWN", "PostalCode": "16134", "State": "PA"}, {"AddressLine1": "1900 KENNETH AVE", "City": "ARNOLD", "PostalCode": "15068", "State": "PA"}, {"AddressLine1": "123 Arjay Dr", "City": "LOWER BURRELL", "PostalCode": "15068", "State": "PA"}, {"AddressLine1": "310 Misty Patch Rd", "City": "COATESVILLE", "PostalCode": "19320", "State": "PA"}, {"AddressLine1": "833 Estella Ave", "City": "PITTSBURGH", "PostalCode": "15210", "State": "PA"}, {"AddressLine1": "120 NELSON ST", "City": "CLARKS GREEN", "PostalCode": "18411", "State": "PA"}, {"AddressLine1": "205 E MOHLER CHURCH RD", "City": "EPHRATA", "PostalCode": "17522", "State": "PA"}, {"AddressLine1": "242 Wertman Hollow Rd", "City": "ANDREAS", "PostalCode": "18211", "State": "PA"}, {"AddressLine1": "1212 Lakeland Dr", "City": "SCOTT TOWNSHIP", "PostalCode": "18433", "State": "PA"}, {"AddressLine1": "206 Madison St", "City": "WILKES BARRE", "PostalCode": "18702", "State": "PA"}, {"AddressLine1": "516 HEMLOCK RD", "City": "TAMAQUA", "PostalCode": "18252", "State": "PA"}, {"AddressLine1": "1796 Chardonnay Dr", "City": "EASTON", "PostalCode": "18045", "State": "PA"}, {"AddressLine1": "94 Wyoming St Apt 3", "City": "WILKES BARRE", "PostalCode": "18702", "State": "PA"}, {"AddressLine1": "8 WHITEHALL RD", "City": "BLOOMSBURG", "PostalCode": "17815", "State": "PA"}, {"AddressLine1": "821 Carlton Ave", "City": "BETHLEHEM", "PostalCode": "18015", "State": "PA"}, {"AddressLine1": "1110 Market St", "City": "WILLIAMSPORT", "PostalCode": "17701", "State": "PA"}, {"AddressLine1": "755 N Franklin St", "City": "LANCASTER", "PostalCode": "17602", "State": "PA"}, {"AddressLine1": "2120 SUNNYVALE DR, LOT 134", "City": "PENNSBURG", "PostalCode": "18073", "State": "PA"}, {"AddressLine1": "45 Phyllese Dr", "City": "NORTHAMPTON", "PostalCode": "18067", "State": "PA"}, {"AddressLine1": "904 Orrs Bridge Rd", "City": "MECHANICSBURG", "PostalCode": "17050", "State": "PA"}, {"AddressLine1": "168 SPRING HILL RD", "City": "KIRKWOOD", "PostalCode": "17536", "State": "PA"}, {"AddressLine1": "566 Echo Rd", "City": "MINERAL POINT", "PostalCode": "15942", "State": "PA"}, {"AddressLine1": "901 Selinger Ave", "City": "ERIE", "PostalCode": "16505", "State": "PA"}, {"AddressLine1": "466 RAYSTOWN RD", "City": "EVERETT", "PostalCode": "15537", "State": "PA"}, {"AddressLine1": "5426 Lake Shore Dr", "City": "ERIE", "PostalCode": "16505", "State": "PA"}, {"AddressLine1": "133 Wilsey Rd", "City": "FRANKLIN", "PostalCode": "16323", "State": "PA"}, {"AddressLine1": "5758 FRESHCORN RD", "City": "CRANBERRY TOWNSHIP", "PostalCode": "16066", "State": "PA"}, {"AddressLine1": "147 MOTT ST", "City": "CORRY", "PostalCode": "16407", "State": "PA"}, {"AddressLine1": "4209 W State St", "City": "EDINBURG", "PostalCode": "16116", "State": "PA"}, {"AddressLine1": "5283 S Reidsburg Rd", "City": "SLIGO", "PostalCode": "16255", "State": "PA"}, {"AddressLine1": "310 Wood St", "City": "SCOTTDALE", "PostalCode": "15683", "State": "PA"}, {"AddressLine1": "1030 Amity Ridge Rd", "City": "AMITY", "PostalCode": "15311", "State": "PA"}, {"AddressLine1": "8634 Lake Pleasant Rd", "City": "ERIE", "PostalCode": "16509", "State": "PA"}, {"AddressLine1": "15 Nicholas Ave", "City": "SLOVAN", "PostalCode": "15078", "State": "PA"}, {"AddressLine1": "1738 W CEDAR ST APT 4", "City": "ALLENTOWN", "PostalCode": "18104", "State": "PA"}, {"AddressLine1": "2626 N Bancroft St", "City": " PHILADELPHIA", "PostalCode": "19132", "State": "PA"}, {"AddressLine1": "209 Glenburn Rd Apt 2", "City": "CLARKS GREEN", "PostalCode": "18411", "State": "PA"}, {"AddressLine1": "718 Poplar St", "City": "WILLIAMSPORT", "PostalCode": "17701", "State": "PA"}, {"AddressLine1": "216 N SECOND ST", "City": "GIRARDVILLE", "PostalCode": "17935", "State": "PA"}, {"AddressLine1": "901 Long Ridge Rd", "City": "HAWLEY", "PostalCode": "18428", "State": "PA"}, {"AddressLine1": "180 Magnolia St", "City": "HOMESTEAD", "PostalCode": "15120", "State": "PA"}, {"AddressLine1": "3854 Alberta Pl", "City": "PHILADELPHIA", "PostalCode": "19154", "State": "PA"}, {"AddressLine1": "3806 HAMPTON ST", "City": "COOPERSBURG", "PostalCode": "18036", "State": "PA"}, {"AddressLine1": "33 tamarack dr", "City": "GOULDSBORO", "PostalCode": "18424", "State": "PA"}, {"AddressLine1": "434 Camilla St", "City": "BADEN", "PostalCode": "15005", "State": "PA"}, {"AddressLine1": "112 Lenox Dr", "City": "IMPERIAL", "PostalCode": "15126", "State": "PA"}, {"AddressLine1": "265 Quarry Hill Rd", "City": "NEWVILLE", "PostalCode": "17241", "State": "PA"}, {"AddressLine1": "2126 Cedar Hollow Rd", "City": "GREEN LANE", "PostalCode": "18054", "State": "PA"}, {"AddressLine1": "15 Swartz Valley Rd", "City": "SPRING BROOK TWP", "PostalCode": "18444", "State": "PA"}, {"AddressLine1": "1935 W Beckert Ave", "City": "PITTSBURGH", "PostalCode": "15212", "State": "PA"}, {"AddressLine1": "331 Weatherstone Dr", "City": "NEW CUMBERLAND", "PostalCode": "17070", "State": "PA"}, {"AddressLine1": "302 TURKEY PATH RD", "City": "NEWPORT", "PostalCode": "17074", "State": "PA"}, {"AddressLine1": "17 Martin Ln", "City": "STRASBURG", "PostalCode": "17579", "State": "PA"}, {"AddressLine1": "327 KEYSTONE AVE", "City": "EMMAUS", "PostalCode": "18049", "State": "PA"}, {"AddressLine1": "2509 MCCLELLAND AVE", "City": "ERIE", "PostalCode": "16510", "State": "PA"}, {"AddressLine1": "622 E Freedom Ave", "City": "BURNHAM", "PostalCode": "17009", "State": "PA"}, {"AddressLine1": "442 Frew Rd", "City": "ELLWOOD CITY", "PostalCode": "16117", "State": "PA"}, {"AddressLine1": "6658 HATCHERY DR", "City": "NEW TRIPOLI", "PostalCode": "18066", "State": "PA"}, {"AddressLine1": "591 Spring Ave", "City": "HANOVER", "PostalCode": "17331", "State": "PA"}, {"AddressLine1": "10736 Center Ave", "City": "CONNEAUT LAKE", "PostalCode": "16316", "State": "PA"}, {"AddressLine1": "279 Trotwood Dr", "City": "PITTSBURGH", "PostalCode": "15241", "State": "PA"}, {"AddressLine1": "2291 Porter Way", "City": "LANCASTER", "PostalCode": "17601", "State": "PA"}, {"AddressLine1": "4724 Mountain View Rd", "City": "HARRISBURG", "PostalCode": "17110", "State": "PA"}, {"AddressLine1": "102 Forest Dr", "City": "CAMP HILL", "PostalCode": "17011", "State": "PA"}, {"AddressLine1": "6 SERENE LA", "City": "YARDLEY", "PostalCode": "19067", "State": "PA"}, {"AddressLine1": "303-1/2 TULIP CIR", "City": "CLARKS SUMMIT", "PostalCode": "18411", "State": "PA"}, {"AddressLine1": "3 E Catawissa St", "City": "NESQUEHONING", "PostalCode": "18240", "State": "PA"}, {"AddressLine1": "85 SONES RD", "City": "MILLVILLE", "PostalCode": "17846", "State": "PA"}, {"AddressLine1": "322 River St", "City": "OLD FORGE", "PostalCode": "18518", "State": "PA"}, {"AddressLine1": "10294 SR 147", "City": "SUNBURY", "PostalCode": "17801", "State": "PA"}, {"AddressLine1": "2020 SILVER LA", "City": "WILLOW STREET", "PostalCode": "17584", "State": "PA"}, {"AddressLine1": "44 BLUE MOUNTAIN VISTA", "City": "MECHANICSBURG", "PostalCode": "17050", "State": "PA"}, {"AddressLine1": "360 Appenzell Ter", "City": "STROUDSBURG", "PostalCode": "18360", "State": "PA"}, {"AddressLine1": "2714 4th St", "City": "MONROEVILLE", "PostalCode": "15146", "State": "PA"}, {"AddressLine1": "145 Spook Ln", "City": "NARVON", "PostalCode": "17555", "State": "PA"}, {"AddressLine1": "1508 STATE ROUTE 890,MOBL HM", "City": "PAXINOS", "PostalCode": "17860", "State": "PA"}, {"AddressLine1": "102 Algonquin Dr", "City": "HAZLETON", "PostalCode": "18202", "State": "PA"}, {"AddressLine1": "908 Bath Ave", "City": "CATASAUQUA", "PostalCode": "18032", "State": "PA"}, {"AddressLine1": "180 Nazareth Dr Apt B", "City": "NAZARETH", "PostalCode": "18064", "State": "PA"}, {"AddressLine1": "208 BALDWIN BLVD", "City": "SHAMOKIN DAM", "PostalCode": "17876", "State": "PA"}, {"AddressLine1": "851 SHEELY LN", "City": "MECHANICSBURG", "PostalCode": "17055", "State": "PA"}, {"AddressLine1": "214 WYOMISSING", "City": "WYOMISSING", "PostalCode": "19610", "State": "PA"}, {"AddressLine1": "624 Black Horse Rd", "City": "REINHOLDS", "PostalCode": "17569", "State": "PA"}, {"AddressLine1": "159 Clark Rd", "City": "EAST STROUDSBURG", "PostalCode": "18301", "State": "PA"}, {"AddressLine1": "MUDDY RUN RD, NEW", "City": "MILTON", "PostalCode": "17847", "State": "PA"}, {"AddressLine1": "320 E Locust St", "City": "PHILIPSBURG", "PostalCode": "16866", "State": "PA"}, {"AddressLine1": "893 Chestnut Hill Rd", "City": "KINGSLEY", "PostalCode": "18826", "State": "PA"}, {"AddressLine1": "633 Hess Ave", "City": "ERIE", "PostalCode": "16503", "State": "PA"}, {"AddressLine1": "2733 Spring Garden St", "City": "EASTON", "PostalCode": "18045", "State": "PA"}, {"AddressLine1": "4661 W Main St", "City": "EDINBURG", "PostalCode": "16116", "State": "PA"}, {"AddressLine1": "130 CHESTNUT ST", "City": "KANE", "PostalCode": "16735", "State": "PA"}, {"AddressLine1": "243 Cool Springs Rd", "City": "WHITE OAK", "PostalCode": "15131", "State": "PA"}, {"AddressLine1": "700 SALEM RD", "City": "ETTERS", "PostalCode": "17319", "State": "PA"}, {"AddressLine1": "4699 Green Valley Rd", "City": "HUGHESVILLE", "PostalCode": "17737", "State": "PA"}, {"AddressLine1": "36 Jeff Dr", "City": "CORAOPOLIS", "PostalCode": "15108", "State": "PA"}, {"AddressLine1": "481 CYPRESS DR", "City": "CORAOPOLIS", "PostalCode": "15108", "State": "PA"}, {"AddressLine1": "245 OAK DR", "City": "CORAOPOLIS", "PostalCode": "15108", "State": "PA"}, {"AddressLine1": "257 OAK DR", "City": "CORAOPOLIS", "PostalCode": "15108", "State": "PA"}, {"AddressLine1": "1606 Scott St", "City": "WILLIAMSPORT", "PostalCode": "17701", "State": "PA"}, {"AddressLine1": "36 Jeff Dr", "City": "CORAOPOLIS", "PostalCode": "15108", "State": "PA"}, {"AddressLine1": "417 S Dallas Ave", "City": "PITTSBURGH", "PostalCode": "15208", "State": "PA"}, {"AddressLine1": "5 Anita Dr", "City": "LITITZ", "PostalCode": "17543", "State": "PA"}, {"AddressLine1": "1715 Carnation St", "City": "HARRISBURG", "PostalCode": "17103", "State": "PA"}, {"AddressLine1": "2014 MILLTOWN RD", "City": "CAMP HILL", "PostalCode": "17011", "State": "PA"}, {"AddressLine1": "1317 W 4th St", "City": "LOCK HAVEN", "PostalCode": "17745", "State": "PA"}, {"AddressLine1": "75 Riverdale Rd", "City": "FOREST CITY", "PostalCode": "18421", "State": "PA"}, {"AddressLine1": "2464 Henderson Pl", "City": "BETHLEHEM", "PostalCode": "18017", "State": "PA"}, {"AddressLine1": "5379 KISSIMMEE RD", "City": "MIDDLEBURG", "PostalCode": "17842", "State": "PA"}, {"AddressLine1": "215 SHELLY ST", "City": "TATAMY", "PostalCode": "18085", "State": "PA"}, {"AddressLine1": "111 PENN AVE", "City": "PORTAGE", "PostalCode": "15946", "State": "PA"}, {"AddressLine1": "15 W Leasure Ave", "City": "NEW CASTLE", "PostalCode": "16105", "State": "PA"}, {"AddressLine1": "21 Montgomery Dam Rd", "City": "GROVE CITY", "PostalCode": "16127", "State": "PA"}, {"AddressLine1": "13742 Ridge Rd", "City": "WEST SPRINGFIELD", "PostalCode": "16443", "State": "PA"}, {"AddressLine1": "9912 Bateman Ave", "City": "CRANESVILLE", "PostalCode": "16410", "State": "PA"}, {"AddressLine1": "107 Buttermilk Ln", "City": "HOPWOOD", "PostalCode": "15445", "State": "PA"}, {"AddressLine1": "8625 Fairway Ct", "City": "SEVEN VALLEYS", "PostalCode": "17360", "State": "PA"}, {"AddressLine1": "25 S LIME ST", "City": "QUARRYVILLE", "PostalCode": "17566", "State": "PA"}, {"AddressLine1": "FL 1ST     1805 N 52ND ST", "City": " PHILADELPHIA", "PostalCode": "19131", "State": "PA"}, {"AddressLine1": "205 CONSTANCE DR", "City": "MCKEES ROCKS", "PostalCode": "15136", "State": "PA"}, {"AddressLine1": "5859 FEREE ST", "City": "PITTSBURGH", "PostalCode": "15217", "State": "PA"}, {"AddressLine1": "1205 NEW HAMPSHIRE DR", "City": "ALIQUIPPA", "PostalCode": "15001", "State": "PA"}, {"AddressLine1": "730 S Mill St", "City": "DANVILLE", "PostalCode": "17821", "State": "PA"}, {"AddressLine1": "113 DEVONSHIRE WAY", "City": "SELLERSVILLE", "PostalCode": "18960", "State": "PA"}, {"AddressLine1": "2020 Wilmot St", "City": " PHILADELPHIA", "PostalCode": "19124", "State": "PA"}, {"AddressLine1": "320 Washington St", "City": "SPRINGDALE", "PostalCode": "15144", "State": "PA"}, {"AddressLine1": "460 W 3RD ST", "City": "ERIE", "PostalCode": "16507", "State": "PA"}, {"AddressLine1": "1314 13th St", "City": "WEST PITTSBURG", "PostalCode": "16160", "State": "PA"}, {"AddressLine1": "519 Helsel Rd", "City": "JOHNSTOWN", "PostalCode": "15904", "State": "PA"}, {"AddressLine1": "2708 Everett Dr", "City": "ERIE", "PostalCode": "16510", "State": "PA"}, {"AddressLine1": "531 CEMENTARY RD", "City": "BOYERS", "PostalCode": "16020", "State": "PA"}, {"AddressLine1": "APT B     700 PINE ST", "City": "DARBY", "PostalCode": "19023", "State": "PA"}, {"AddressLine1": "529 STEINER ST", "City": "PITTSBURGH", "PostalCode": "15227", "State": "PA"}, {"AddressLine1": "49 RIVERFRONT ST", "City": "OAKMONT", "PostalCode": "15139", "State": "PA"}, {"AddressLine1": "232 Yankee Rd Lot 371", "City": "QUAKERTOWN", "PostalCode": "18951", "State": "PA"}, {"AddressLine1": "113 Arnold Rd", "City": "ENOLA", "PostalCode": "17025", "State": "PA"}, {"AddressLine1": "273 S Grant St", "City": "WILKES BARRE", "PostalCode": "18702", "State": "PA"}, {"AddressLine1": "861 Willow Dr", "City": "CATASAUQUA", "PostalCode": "18032", "State": "PA"}, {"AddressLine1": "2279 E High St", "City": "SANATOGA", "PostalCode": "19464", "State": "PA"}, {"AddressLine1": "4945 Arnold Ave", "City": "GIBSONIA", "PostalCode": "15044", "State": "PA"}, {"AddressLine1": "3373 RIDGE RD", "City": "BLOOMSBURG", "PostalCode": "17815", "State": "PA"}, {"AddressLine1": "1335 Orchard St", "City": "FREEDOM", "PostalCode": "15042", "State": "PA"}, {"AddressLine1": "161 Towering Ct", "City": "SAYLORSBURG", "PostalCode": "18353", "State": "PA"}, {"AddressLine1": "520 Kishon St", "City": "FARRELL", "PostalCode": "16121", "State": "PA"}, {"AddressLine1": "1366 Porters Rd", "City": "SPRING GROVE", "PostalCode": "17362", "State": "PA"}, {"AddressLine1": "3 EMMERT ST", "City": "NEW OXFORD", "PostalCode": "17350", "State": "PA"}, {"AddressLine1": "8080 REVERE LN", "City": "JAMESTOWN", "PostalCode": "16134", "State": "PA"}, {"AddressLine1": "2102 Pulaski Rd", "City": "NEW CASTLE", "PostalCode": "16105", "State": "PA"}, {"AddressLine1": "1003 Bechtol Ave", "City": "SHARON", "PostalCode": "16146", "State": "PA"}, {"AddressLine1": "1745 Washington Rd", "City": "APOLLO", "PostalCode": "15613", "State": "PA"}, {"AddressLine1": "1044 Old West Creek Rd", "City": "EMPORIUM", "PostalCode": "15834", "State": "PA"}, {"AddressLine1": "6013 Triple Crown Cir", "City": "GREENSBURG", "PostalCode": "15601", "State": "PA"}, {"AddressLine1": "410 McClain Rd", "City": "BEAVER FALLS", "PostalCode": "15010", "State": "PA"}, {"AddressLine1": "228 Millersdale Rd", "City": "GREENSBURG", "PostalCode": "15601", "State": "PA"}, {"AddressLine1": "4593 Ackermans Ln", "City": "COOPERSBURG", "PostalCode": "18036", "State": "PA"}, {"AddressLine1": "5120 Elmwood Dr", "City": "PITTSBURGH", "PostalCode": "15227", "State": "PA"}, {"AddressLine1": "231 SCOTT ST", "City": "WILKES BARRE", "PostalCode": "18702", "State": "PA"}, {"AddressLine1": "1067 Raven Dr", "City": "PITTSBURGH", "PostalCode": "15243", "State": "PA"}, {"AddressLine1": "2401 PIONEER AVE", "City": "PITTSBURGH", "PostalCode": "15226", "State": "PA"}, {"AddressLine1": "28 Birch St", "City": "WILKES BARRE", "PostalCode": "18702", "State": "PA"}, {"AddressLine1": "2918 Whitemarsh Pl", "City": "MACUNGIE", "PostalCode": "18062", "State": "PA"}, {"AddressLine1": "1425 White Oak Dr", "City": "VERONA", "PostalCode": "15147", "State": "PA"}, {"AddressLine1": "108 Cloudcrest Dr", "City": "HAWLEY", "PostalCode": "18428", "State": "PA"}, {"AddressLine1": "3829 MAPLE ST", "City": "ALLENTOWN", "PostalCode": "18104", "State": "PA"}, {"AddressLine1": "153 Hartwood Dr", "City": "PITTSBURGH", "PostalCode": "15208", "State": "PA"}, {"AddressLine1": "3029 S CHANDLER DR", "City": "MORRISVILLE", "PostalCode": "19067", "State": "PA"}, {"AddressLine1": "321 SHADY LN UNIT B", "City": "ENOLA", "PostalCode": "17025", "State": "PA"}, {"AddressLine1": "24 Green Pine Road Ext", "City": "MONTGOMERY", "PostalCode": "17752", "State": "PA"}, {"AddressLine1": "259 PETRARCH TRL", "City": "ALBRIGHTSVILLE", "PostalCode": "18210", "State": "PA"}, {"AddressLine1": "102 E Main St", "City": "ELVERSON", "PostalCode": "19520", "State": "PA"}, {"AddressLine1": "113 Village Way", "City": "CHALFONT", "PostalCode": "18914", "State": "PA"}, {"AddressLine1": "679 Bennett Ln", "City": "PERKASIE", "PostalCode": "18944", "State": "PA"}, {"AddressLine1": "537 11th St", "City": "OAKMONT", "PostalCode": "15139", "State": "PA"}, {"AddressLine1": "84 SILVER BIRCH DR, LOT 7", "City": "LANCASTER", "PostalCode": "17602", "State": "PA"}, {"AddressLine1": "611 Regency Dr", "City": "PITTSBURGH", "PostalCode": "15239", "State": "PA"}, {"AddressLine1": "2504 Fleiner St", "City": "PITTSBURGH", "PostalCode": "15212", "State": "PA"}, {"AddressLine1": "138 Hemlock Ter S", "City": "GREENTOWN", "PostalCode": "18426", "State": "PA"}, {"AddressLine1": "585 Suedberg Rd", "City": "PINE GROVE", "PostalCode": "17963", "State": "PA"}, {"AddressLine1": "1601 Penn Ave Apt 213", "City": "WILKINSBURG", "PostalCode": "15221", "State": "PA"}, {"AddressLine1": "171 East Valley Rd", "City": "DENVER", "PostalCode": "17517", "State": "PA"}, {"AddressLine1": "819 ANTHONY DR, LOT 4.2", "City": "HARRISBURG", "PostalCode": "17111", "State": "PA"}, {"AddressLine1": "1512 UNION ST", "City": "MCKEESPORT", "PostalCode": "15132", "State": "PA"}, {"AddressLine1": "1792 SHAWNEE RD", "City": "SIDMAN", "PostalCode": "15955", "State": "PA"}, {"AddressLine1": "420 W 4TH ST APT 3FL", "City": "WILLIAMSPORT", "PostalCode": "17701", "State": "PA"}, {"AddressLine1": "100 3rd St Apt 6", "City": "DRAVOSBURG", "PostalCode": "15034", "State": "PA"}, {"AddressLine1": "70 Fleming Rd", "City": "GROVE CITY", "PostalCode": "16127", "State": "PA"}, {"AddressLine1": "872 Latonka Dr", "City": "MERCER", "PostalCode": "16137", "State": "PA"}, {"AddressLine1": "3310 STONER AVE", "City": "READING", "PostalCode": "19606", "State": "PA"}, {"AddressLine1": "2211 Shannon Mills Dr", "City": "RENFREW", "PostalCode": "16053", "State": "PA"}, {"AddressLine1": "204 MEADOW BROOK DR", "City": "CRANBERRY TWP", "PostalCode": "16066", "State": "PA"}, {"AddressLine1": "401 State Route 168", "City": "DARLINGTON", "PostalCode": "16115", "State": "PA"}, {"AddressLine1": "239 La Ray Dr", "City": "BUTLER", "PostalCode": "16001", "State": "PA"}, {"AddressLine1": "309 Dewey Ave", "City": " WASHINGTON", "PostalCode": "15301", "State": "PA"}, {"AddressLine1": "22 Orchard Rd", "City": "HEGINS", "PostalCode": "17938", "State": "PA"}, {"AddressLine1": "225 Jamison City Rd", "City": "BENTON", "PostalCode": "17814", "State": "PA"}, {"AddressLine1": "240 Sunset Dr", "City": "PITTSBURGH", "PostalCode": "15235", "State": "PA"}, {"AddressLine1": "25 Rocklynn Pl", "City": "PITTSBURGH", "PostalCode": "15228", "State": "PA"}, {"AddressLine1": "237 Indianola Rd", "City": "CHESWICK", "PostalCode": "15024", "State": "PA"}, {"AddressLine1": "5050 Nuangola Rd", "City": "MOUNTAIN TOP", "PostalCode": "18707", "State": "PA"}, {"AddressLine1": "535 Dogwood Dr", "City": "MECHANICSBURG", "PostalCode": "17055", "State": "PA"}, {"AddressLine1": "1415 S Philip St", "City": " PHILADELPHIA", "PostalCode": "19147", "State": "PA"}, {"AddressLine1": "95 S MAIN ST", "City": "HUGHESVILLE", "PostalCode": "17737", "State": "PA"}, {"AddressLine1": "2223 N Bouvier St", "City": " PHILADELPHIA", "PostalCode": "19132", "State": "PA"}, {"AddressLine1": "217 Venard Rd", "City": "CLARKS GREEN", "PostalCode": "18411", "State": "PA"}, {"AddressLine1": "307 S Park Way Apt 202M", "City": "BROOMALL", "PostalCode": "19008", "State": "PA"}, {"AddressLine1": "111 Wendover Dr", "City": "NORRISTOWN", "PostalCode": "19403", "State": "PA"}, {"AddressLine1": "9579 Allegheny Ave", "City": "LAKE CITY", "PostalCode": "16423", "State": "PA"}, {"AddressLine1": "600 FRANKLIN HTS", "City": "SHIPPENSBURG", "PostalCode": "17257", "State": "PA"}, {"AddressLine1": "1266 Muhlenberg St", "City": "READING", "PostalCode": "19602", "State": "PA"}, {"AddressLine1": "181 Steeple Dr", "City": "ROBESONIA", "PostalCode": "19551", "State": "PA"}, {"AddressLine1": "168 ACORN DR", "City": "DU BOIS", "PostalCode": "15801", "State": "PA"}, {"AddressLine1": "9905 RTE 249 N", "City": "KNOXVILLE", "PostalCode": "16928", "State": "PA"}, {"AddressLine1": "556 1/2 Alcott St", "City": " PHILADELPHIA", "PostalCode": "19120", "State": "PA"}, {"AddressLine1": "50 MAPLEWOOD ST FLR 1", "City": "PITTSBURGH", "PostalCode": "15223", "State": "PA"}, {"AddressLine1": "233A S Carpenter St", "City": "NEWMANSTOWN", "PostalCode": "17073", "State": "PA"}, {"AddressLine1": "650 Northampton St Apt 306", "City": "HELLERTOWN", "PostalCode": "18055", "State": "PA"}, {"AddressLine1": "2842 Mannsville Rd", "City": "ELLIOTTSBURG", "PostalCode": "17024", "State": "PA"}, {"AddressLine1": "39 Conyngham Crest Dr", "City": "SUGARLOAF", "PostalCode": "18249", "State": "PA"}, {"AddressLine1": "343 E Granada Ave", "City": "HERSHEY", "PostalCode": "17033", "State": "PA"}, {"AddressLine1": "51 Highland Dr", "City": "LANCASTER", "PostalCode": "17602", "State": "PA"}, {"AddressLine1": "1081 WEAVERLAND RD", "City": "EAST EARL", "PostalCode": "17519", "State": "PA"}, {"AddressLine1": "656 MARION ST, BLDG 3", "City": "MOOSIC", "PostalCode": "18507", "State": "PA"}, {"AddressLine1": "1815 CLARENDON AVE", "City": "HYDE", "PostalCode": "16843", "State": "PA"}, {"AddressLine1": "305 E Lockhart St", "City": "SAYRE", "PostalCode": "18840", "State": "PA"}, {"AddressLine1": "911 S 16TH ST", "City": "ALTOONA", "PostalCode": "16602", "State": "PA"}, {"AddressLine1": "264 New Castle Ave", "City": "SHARON", "PostalCode": "16146", "State": "PA"}, {"AddressLine1": "900 LEWIS AVE.", "City": "JEANNETTE", "PostalCode": "15644", "State": "PA"}, {"AddressLine1": "481 TOMS RD", "City": "HARRISBURG", "PostalCode": "17112", "State": "PA"}, {"AddressLine1": "10 CHATHAM CTR APT A", "City": "PITTSBURGH", "PostalCode": "15219", "State": "PA"}, {"AddressLine1": "1316 Capouse Ave", "City": "SCRANTON", "PostalCode": "18509", "State": "PA"}, {"AddressLine1": "633 Manor Dr", "City": "HORSHAM", "PostalCode": "19044", "State": "PA"}, {"AddressLine1": "894 Drager Rd", "City": "COLUMBIA", "PostalCode": "17512", "State": "PA"}, {"AddressLine1": "204 N Nice St Apt 1", "City": "FRACKVILLE", "PostalCode": "17931", "State": "PA"}, {"AddressLine1": "4869 HAWTHORN DR RR 1", "City": "HARRISBURG", "PostalCode": "17111", "State": "PA"}, {"AddressLine1": "1505 HOPKINS CT, 15-5", "City": "HOLLAND", "PostalCode": "18966", "State": "PA"}, {"AddressLine1": "6230 Bayberry Ave", "City": "MANHEIM", "PostalCode": "17545", "State": "PA"}, {"AddressLine1": "14 LAKESIDE COMMONS", "City": "CLARKS SUMMIT", "PostalCode": "18411", "State": "PA"}, {"AddressLine1": "119 Brummett Dr", "City": "BEAVERTOWN", "PostalCode": "17813", "State": "PA"}, {"AddressLine1": "131 SUGAR MAPLE AVE", "City": "HOLLSOPPLE", "PostalCode": "15935", "State": "PA"}, {"AddressLine1": "414 5th St", "City": "TYRONE", "PostalCode": "16686", "State": "PA"}, {"AddressLine1": "960 Admiral Peary Hwy", "City": "JOHNSTOWN", "PostalCode": "15909", "State": "PA"}, {"AddressLine1": "25 E Main St", "City": "LUDLOW", "PostalCode": "16333", "State": "PA"}, {"AddressLine1": "109 S CHESTNUT ST", "City": "LINESVILLE", "PostalCode": "16424", "State": "PA"}, {"AddressLine1": "321 S Easton Belmont Pike", "City": "SAYLORSBURG", "PostalCode": "18353", "State": "PA"}, {"AddressLine1": "449 E Butler St", "City": "MERCER", "PostalCode": "16137", "State": "PA"}, {"AddressLine1": "1013 Enterprise Rd", "City": "GROVE CITY", "PostalCode": "16127", "State": "PA"}, {"AddressLine1": "136 MARDULA RD", "City": "LILLY", "PostalCode": "15938", "State": "PA"}, {"AddressLine1": "101 Old Orchard Rd", "City": "DILLSBURG", "PostalCode": "17019", "State": "PA"}, {"AddressLine1": "442 LEHMAN ST", "City": "LEBANON", "PostalCode": "17046", "State": "PA"}, {"AddressLine1": "108 BRIAR SCOT LANE", "City": "TROUT RUN", "PostalCode": "17771", "State": "PA"}, {"AddressLine1": "539 CREEK CT", "City": "STROUDSBURG", "PostalCode": "18360", "State": "PA"}, {"AddressLine1": "296 Haney Rd", "City": "BROOKVILLE", "PostalCode": "15825", "State": "PA"}, {"AddressLine1": "152 Terrace Dr", "City": "EAST STROUDSBURG", "PostalCode": "18301", "State": "PA"}, {"AddressLine1": "3 Ellsworth Ter", "City": "PITTSBURGH", "PostalCode": "15213", "State": "PA"}, {"AddressLine1": "333 Cedar Waxwing Dr", "City": "WARRINGTON", "PostalCode": "18976", "State": "PA"}, {"AddressLine1": "492 Oregon Ave # 1", "City": "ROCHESTER", "PostalCode": "15074", "State": "PA"}, {"AddressLine1": "308 E 8th St", "City": "BERWICK", "PostalCode": "18603", "State": "PA"}, {"AddressLine1": "531 Rosewood Dr", "City": "PITTSBURGH", "PostalCode": "15236", "State": "PA"}, {"AddressLine1": "1520 Reed St", "City": " PHILADELPHIA", "PostalCode": "19146", "State": "PA"}, {"AddressLine1": "3690 SAXONBURG BLV", "City": "PITTSBURGH", "PostalCode": "15238", "State": "PA"}, {"AddressLine1": "1564 Rudolph Dr", "City": "BETHLEHEM", "PostalCode": "18018", "State": "PA"}, {"AddressLine1": "5345 PRINCETON RD", "City": "MACUNGIE", "PostalCode": "18062", "State": "PA"}, {"AddressLine1": "104 Kenyon Ct", "City": "PITTSBURGH", "PostalCode": "15229", "State": "PA"}, {"AddressLine1": "2530 Woodlawn Dr", "City": "MONROEVILLE", "PostalCode": "15146", "State": "PA"}, {"AddressLine1": "3367 GRUBBS CHURCH RD, SHM", "City": "MT PLEASANT MILLS", "PostalCode": "17853", "State": "PA"}, {"AddressLine1": "585 KNARR RD OTHR", "City": "JERSEY SHORE", "PostalCode": "17740", "State": "PA"}, {"AddressLine1": "4007 Eastbrook Rd", "City": "HARRISBURG", "PostalCode": "17109", "State": "PA"}, {"AddressLine1": "151 Deerfield Dr", "City": "SOUDERTON", "PostalCode": "18964", "State": "PA"}, {"AddressLine1": "117 Fox Run Cir", "City": "SOUTH ABINGTON TOWNSHIP", "PostalCode": "18411", "State": "PA"}, {"AddressLine1": "APT 811     811 MILL GROVE DR", "City": "NORRISTOWN", "PostalCode": "19403", "State": "PA"}, {"AddressLine1": "1891BRYNDALE AVE", "City": "CORAOPOLIS", "PostalCode": "15108", "State": "PA"}, {"AddressLine1": "637 S College St", "City": "CARLISLE", "PostalCode": "17013", "State": "PA"}, {"AddressLine1": "103 W Carey St", "City": "PLAINS", "PostalCode": "18705", "State": "PA"}, {"AddressLine1": "330 E Jackson St", "City": "JOHNSTOWN", "PostalCode": "15909", "State": "PA"}, {"AddressLine1": "308 Newtonburg Rd", "City": "MAHAFFEY", "PostalCode": "15757", "State": "PA"}, {"AddressLine1": "514 Saybrook Rd", "City": "SHEFFIELD", "PostalCode": "16347", "State": "PA"}, {"AddressLine1": "6450 Heidler Rd", "City": "FAIRVIEW", "PostalCode": "16415", "State": "PA"}, {"AddressLine1": "1699 CHRISTOFF ST", "City": "NANTY GLO", "PostalCode": "15943", "State": "PA"}, {"AddressLine1": "177 Shirey Rd", "City": "FRENCHVILLE", "PostalCode": "16836", "State": "PA"}, {"AddressLine1": "13048 RTE 6", "City": "CLARENDON", "PostalCode": "16313", "State": "PA"}, {"AddressLine1": "505 Leesburg Station Rd", "City": "NEW WILMINGTON", "PostalCode": "16142", "State": "PA"}, {"AddressLine1": "5691 RT 322", "City": "SHIPPENVILLE", "PostalCode": "16254", "State": "PA"}, {"AddressLine1": "18082 Bertschy Rd", "City": "MEADVILLE", "PostalCode": "16335", "State": "PA"}, {"AddressLine1": "1421 Shawna Rd", "City": "CHERRY TREE", "PostalCode": "15724", "State": "PA"}, {"AddressLine1": "1049 PHILADELPHIA ST APT 1 FR", "City": "INDIANA", "PostalCode": "15701", "State": "PA"}, {"AddressLine1": "4508 State Route 158", "City": "NEW WILMINGTON", "PostalCode": "16142", "State": "PA"}, {"AddressLine1": "1200 ORCHARD VIEW RD", "City": "READING", "PostalCode": "19606", "State": "PA"}, {"AddressLine1": "1676 SWAMP PIKE", "City": "GILBERTSVILLE", "PostalCode": "19525", "State": "PA"}, {"AddressLine1": "252 Boyden St", "City": "SUSQUEHANNA", "PostalCode": "18847", "State": "PA"}, {"AddressLine1": "273 Maple Dr", "City": "HANOVER", "PostalCode": "17331", "State": "PA"}, {"AddressLine1": "1102 Marcia Dr", "City": "NORTH HUNTINGDON", "PostalCode": "15642", "State": "PA"}, {"AddressLine1": "1721 Moore Ave", "City": "NORTH APOLLO", "PostalCode": "15673", "State": "PA"}, {"AddressLine1": "111 Sidney Ln", "City": "FALLS", "PostalCode": "18615", "State": "PA"}, {"AddressLine1": "22 Overlook St", "City": "SOUTH PARK", "PostalCode": "15129", "State": "PA"}, {"AddressLine1": "678 Frenchville Rd", "City": "FRENCHVILLE", "PostalCode": "16836", "State": "PA"}]
