[{"AddressLine1": "628 6TH ST", "City": "NORTH CHARLEROI", "PostalCode": "15022", "State": "PA"}, {"AddressLine1": "2426 BURNT CHURCH RD", "City": "HONEY GROVE", "PostalCode": "17035", "State": "PA"}, {"AddressLine1": "2113 Pendleton Dr", "City": "MONROEVILLE", "PostalCode": "15146", "State": "PA"}, {"AddressLine1": "429 Greenwood Ave", "City": "MCKEESPORT", "PostalCode": "15132", "State": "PA"}, {"AddressLine1": "2312 Teaberry Ln", "City": "LOCK HAVEN", "PostalCode": "17745", "State": "PA"}, {"AddressLine1": "62 S Parsons Dr", "City": "MILL HALL", "PostalCode": "17751", "State": "PA"}, {"AddressLine1": "10 Hilltop Ave", "City": "AKRON", "PostalCode": "17501", "State": "PA"}, {"AddressLine1": "113 Winston Dr", "City": "MECHANICSBURG", "PostalCode": "17055", "State": "PA"}, {"AddressLine1": "300 BARRINGTON DR", "City": "READING", "PostalCode": "19607", "State": "PA"}, {"AddressLine1": "304 DUSTER LANE", "City": "POCONO PINES", "PostalCode": "18350", "State": "PA"}, {"AddressLine1": "227 LORRETTA DR", "City": "MONROEVILLE", "PostalCode": "15146", "State": "PA"}, {"AddressLine1": "332 Holiday Park Dr", "City": "PITTSBURGH", "PostalCode": "15239", "State": "PA"}, {"AddressLine1": "729 MAIN ST, 3FL", "City": "SLATINGTON", "PostalCode": "18080", "State": "PA"}, {"AddressLine1": "1014 E RAY STREET", "City": "COAL TOWNSHIP", "PostalCode": "17866", "State": "PA"}, {"AddressLine1": "120 N MARKET ST 2ND FL", "City": "ELIZABETHTOWN", "PostalCode": "17022", "State": "PA"}, {"AddressLine1": "3461 Miriam Dr", "City": "EMMAUS", "PostalCode": "18049", "State": "PA"}, {"AddressLine1": "1500 N 6TH ST UNIT 211", "City": "HARRISBURG", "PostalCode": "17102", "State": "PA"}, {"AddressLine1": "58 TAVERN HOUSE HILL LOT 40", "City": "MECHANICSBURG", "PostalCode": "17050", "State": "PA"}, {"AddressLine1": "15 Radnor Ave", "City": "BARNESVILLE", "PostalCode": "18214", "State": "PA"}, {"AddressLine1": "29 Union School Rd", "City": "UPPER BLACK EDDY", "PostalCode": "18972", "State": "PA"}, {"AddressLine1": "107 Bella Dr", "City": "SAXONBURG", "PostalCode": "16056", "State": "PA"}, {"AddressLine1": "773 Beechwood Rd", "City": "FALLS CREEK", "PostalCode": "15840", "State": "PA"}, {"AddressLine1": "1559 MAPLE AVE", "City": "LAKE CITY", "PostalCode": "16423", "State": "PA"}, {"AddressLine1": "716 W Siddonsburg Rd", "City": "DILLSBURG", "PostalCode": "17019", "State": "PA"}, {"AddressLine1": "96 Mozes Rd", "City": "GREENVILLE", "PostalCode": "16125", "State": "PA"}, {"AddressLine1": "483 Bedford Rd", "City": "WEST MIDDLESEX", "PostalCode": "16159", "State": "PA"}, {"AddressLine1": "46 Dusty Ln", "City": "GROVE CITY", "PostalCode": "16127", "State": "PA"}, {"AddressLine1": "8 Dick St", "City": "MEADVILLE", "PostalCode": "16335", "State": "PA"}, {"AddressLine1": "609 JACKSON RUN RD", "City": "WARREN", "PostalCode": "16365", "State": "PA"}, {"AddressLine1": "315 Hoover Dr", "City": "COGAN STATION", "PostalCode": "17728", "State": "PA"}, {"AddressLine1": "17 Greenbush St", "City": "PITTSBURGH", "PostalCode": "15211", "State": "PA"}, {"AddressLine1": "266 HUNSBERGER LA", "City": "HARLEYSVILLE", "PostalCode": "19438", "State": "PA"}, {"AddressLine1": "1130 Spring St", "City": "BETHLEHEM", "PostalCode": "18018", "State": "PA"}, {"AddressLine1": "547 N Hobart St", "City": " PHILADELPHIA", "PostalCode": "19131", "State": "PA"}, {"AddressLine1": "1109 Wood St", "City": "BETHLEHEM", "PostalCode": "18018", "State": "PA"}, {"AddressLine1": "115 MAPLE DR", "City": "GREENTOWN", "PostalCode": "18426", "State": "PA"}, {"AddressLine1": "1532 W Broad St", "City": "BETHLEHEM", "PostalCode": "18018", "State": "PA"}, {"AddressLine1": "1147 Reservoir Rd", "City": "NEW HOLLAND", "PostalCode": "17557", "State": "PA"}, {"AddressLine1": "472 SERPENTINE DR", "City": "PITTSBURGH", "PostalCode": "15243", "State": "PA"}, {"AddressLine1": "7 Hiland Valley Dr Apt 705", "City": "PITTSBURGH", "PostalCode": "15229", "State": "PA"}, {"AddressLine1": "3729 Ivanhoe Rd", "City": "SHARPSVILLE", "PostalCode": "16150", "State": "PA"}, {"AddressLine1": "462 Service Ave", "City": "SHARON", "PostalCode": "16146", "State": "PA"}, {"AddressLine1": "16220 US Highway 6 and 19", "City": "SAEGERTOWN", "PostalCode": "16433", "State": "PA"}, {"AddressLine1": "2860 PERRY HWY", "City": "HADLEY", "PostalCode": "16130", "State": "PA"}, {"AddressLine1": "4837 Burkholder Rd", "City": "CHAMBERSBURG", "PostalCode": "17202", "State": "PA"}, {"AddressLine1": "1213 Lincoln St", "City": "VANDERGRIFT", "PostalCode": "15690", "State": "PA"}, {"AddressLine1": "2834 Willowood Dr", "City": "ERIE", "PostalCode": "16506", "State": "PA"}, {"AddressLine1": "1605 MEXICO RD", "City": "MILTON", "PostalCode": "17847", "State": "PA"}, {"AddressLine1": "2901 SHAWNEE GRN", "City": "AMBLER", "PostalCode": "19002", "State": "PA"}, {"AddressLine1": "600 Chemung St", "City": "WHITE HAVEN", "PostalCode": "18661", "State": "PA"}, {"AddressLine1": "432 MELROSE ST", "City": "MARION HEIGHTS", "PostalCode": "17832", "State": "PA"}, {"AddressLine1": "21 E Main St", "City": "SHIREMANSTOWN", "PostalCode": "17011", "State": "PA"}, {"AddressLine1": "241 SQUIRREL WOOD CT", "City": "EFFORT", "PostalCode": "18330", "State": "PA"}, {"AddressLine1": "484 Redbud Ct", "City": "WARRINGTON", "PostalCode": "18976", "State": "PA"}, {"AddressLine1": "217 STONEY CREEK DR, APT 56", "City": "MIFFLINTOWN", "PostalCode": "17059", "State": "PA"}, {"AddressLine1": "6145 OLD RT 22", "City": "BERNVILLE", "PostalCode": "19506", "State": "PA"}, {"AddressLine1": "517 E Weidman St", "City": "LEBANON", "PostalCode": "17046", "State": "PA"}, {"AddressLine1": "311 Farmall Rd", "City": "GRANTVILLE", "PostalCode": "17028", "State": "PA"}, {"AddressLine1": "2454 River Rd", "City": "BAINBRIDGE", "PostalCode": "17502", "State": "PA"}, {"AddressLine1": "70 Dylan Dr", "City": "YORK", "PostalCode": "17404", "State": "PA"}, {"AddressLine1": "1172 Swede Hill Rd", "City": "GREENSBURG", "PostalCode": "15601", "State": "PA"}, {"AddressLine1": "130 SPRINGDALE LN, LOT   123", "City": "MILLERSVILLE", "PostalCode": "17551", "State": "PA"}, {"AddressLine1": "1600 BLUE MOUNTAIN PKY", "City": "HARRISBURG", "PostalCode": "17112", "State": "PA"}, {"AddressLine1": "38 W Lancaster Ave Rear", "City": "SHILLINGTON", "PostalCode": "19607", "State": "PA"}, {"AddressLine1": "118 Homestead Dr", "City": "ROARING BROOK TWP", "PostalCode": "18444", "State": "PA"}, {"AddressLine1": "2365 Washington Ave", "City": "NORTHAMPTON", "PostalCode": "18067", "State": "PA"}, {"AddressLine1": "10 E FRONT ST APT H", "City": "SHIREMANSTOWN", "PostalCode": "17011", "State": "PA"}, {"AddressLine1": "11 N Hershey Ave", "City": "LEOLA", "PostalCode": "17540", "State": "PA"}, {"AddressLine1": "182 State Route 690", "City": "SPRING BROOK TOWNSHIP", "PostalCode": "18444", "State": "PA"}, {"AddressLine1": "2953 Brinser Rd", "City": " MIDDLETOWN", "PostalCode": "17057", "State": "PA"}, {"AddressLine1": "50 Wagner Ln", "City": "REEDSVILLE", "PostalCode": "17084", "State": "PA"}, {"AddressLine1": "71 Wentzel Rd", "City": "MOHNTON", "PostalCode": "19540", "State": "PA"}, {"AddressLine1": "255 Stewart Ln", "City": "HAMBURG", "PostalCode": "19526", "State": "PA"}, {"AddressLine1": "1115 RT 419", "City": "WOMELSDORF", "PostalCode": "19567", "State": "PA"}, {"AddressLine1": "229 ADA DR", "City": "BIRDSBORO", "PostalCode": "19508", "State": "PA"}, {"AddressLine1": "65 Tracy Dr", "City": "YORK SPRINGS", "PostalCode": "17372", "State": "PA"}, {"AddressLine1": "3002 Wedgewood Ct", "City": "MURRYSVILLE", "PostalCode": "15668", "State": "PA"}, {"AddressLine1": "108 Bank St Apt 108", "City": "GRINDSTONE", "PostalCode": "15442", "State": "PA"}, {"AddressLine1": "19 Weil Rd", "City": "BECHTELSVILLE", "PostalCode": "19505", "State": "PA"}, {"AddressLine1": "801 Southgate Dr", "City": "STATE COLLEGE", "PostalCode": "16801", "State": "PA"}, {"AddressLine1": "2783 Ironville Pike", "City": "COLUMBIA", "PostalCode": "17512", "State": "PA"}, {"AddressLine1": "434 N Hanover St", "City": "HERSHEY", "PostalCode": "17033", "State": "PA"}, {"AddressLine1": "1310 Hilton St", "City": "BETHLEHEM", "PostalCode": "18017", "State": "PA"}, {"AddressLine1": "18 Mountainwoods Dr", "City": "LAKE HARMONY", "PostalCode": "18624", "State": "PA"}, {"AddressLine1": "620 MINERAL AVE APT 2", "City": "SCRANTON", "PostalCode": "18509", "State": "PA"}, {"AddressLine1": "28 WASHINGTON ST, 1-FL", "City": "SHILLINGTON", "PostalCode": "19607", "State": "PA"}, {"AddressLine1": "1052 Walt Rd", "City": "PENNSBURG", "PostalCode": "18073", "State": "PA"}, {"AddressLine1": "205 2nd St", "City": "WERNERSVILLE", "PostalCode": "19565", "State": "PA"}, {"AddressLine1": "1084 Brownsville Rd", "City": "WERNERSVILLE", "PostalCode": "19565", "State": "PA"}, {"AddressLine1": "331 Hill Rd", "City": "GEORGETOWN", "PostalCode": "15043", "State": "PA"}, {"AddressLine1": "410 Valley Dr", "City": "PITTSBURGH", "PostalCode": "15215", "State": "PA"}, {"AddressLine1": "494 Harrison Ave", "City": "SCHWENKSVILLE", "PostalCode": "19473", "State": "PA"}, {"AddressLine1": "25 E High St", "City": "HUMMELSTOWN", "PostalCode": "17036", "State": "PA"}, {"AddressLine1": "1120 COLUMBUS AVE APT 8", "City": "LEMOYNE", "PostalCode": "17043", "State": "PA"}, {"AddressLine1": "6525 CLARK RD", "City": "ERIE", "PostalCode": "16510", "State": "PA"}, {"AddressLine1": "118 Pine Tree Ln", "City": "TOWANDA", "PostalCode": "18848", "State": "PA"}, {"AddressLine1": "526 Florida Ave", "City": "READING", "PostalCode": "19605", "State": "PA"}, {"AddressLine1": "1217 WINDSOR ST", "City": "READING", "PostalCode": "19604", "State": "PA"}, {"AddressLine1": "524 Market St", "City": "BANGOR", "PostalCode": "18013", "State": "PA"}, {"AddressLine1": "45 JOHNS DR", "City": "YORK", "PostalCode": "17402", "State": "PA"}, {"AddressLine1": "625 York St", "City": "HANOVER", "PostalCode": "17331", "State": "PA"}, {"AddressLine1": "49 Lininger Rd", "City": "GREENVILLE", "PostalCode": "16125", "State": "PA"}, {"AddressLine1": "1608 HIGHLAND AVE", "City": "NEW CASTLE", "PostalCode": "16105", "State": "PA"}, {"AddressLine1": "4653 New Castle Rd Unit A", "City": "NEW WILMINGTON", "PostalCode": "16142", "State": "PA"}, {"AddressLine1": "848 New Lebanon Rd", "City": "CARLTON", "PostalCode": "16311", "State": "PA"}, {"AddressLine1": "802 Rose Stop Rd", "City": "NEW CASTLE", "PostalCode": "16101", "State": "PA"}, {"AddressLine1": "30 Brigham Way", "City": "KEMPTON", "PostalCode": "19529", "State": "PA"}, {"AddressLine1": "35 Hickory Ln", "City": "BERNVILLE", "PostalCode": "19506", "State": "PA"}, {"AddressLine1": "2706 Hunters Crest Dr", "City": "YORK", "PostalCode": "17402", "State": "PA"}, {"AddressLine1": "341 IRONBITE DR", "City": "TARRS", "PostalCode": "15688", "State": "PA"}, {"AddressLine1": "14014 Harbaugh Church Rd", "City": "WAYNESBORO", "PostalCode": "17268", "State": "PA"}, {"AddressLine1": "573 W Main Street Ext", "City": "KERSEY", "PostalCode": "15846", "State": "PA"}, {"AddressLine1": "2049 Dantry Dr", "City": "CANONSBURG", "PostalCode": "15317", "State": "PA"}, {"AddressLine1": "3305 OREGAN ST", "City": "HENRYVILLE", "PostalCode": "18332", "State": "PA"}, {"AddressLine1": "379 N Middlesex Rd", "City": "CARLISLE", "PostalCode": "17013", "State": "PA"}, {"AddressLine1": "222 Main Entrance Dr", "City": "PITTSBURGH", "PostalCode": "15228", "State": "PA"}, {"AddressLine1": "APT 50013     91 N YORK RD", "City": "WILLOW GROVE", "PostalCode": "19090", "State": "PA"}, {"AddressLine1": "328 MAIN ST APT 2FL,  REAR", "City": "EMMAUS", "PostalCode": "18049", "State": "PA"}, {"AddressLine1": "3010 Avon Rd", "City": "BETHLEHEM", "PostalCode": "18017", "State": "PA"}, {"AddressLine1": "452 S Plum St", "City": "MOUNT JOY", "PostalCode": "17552", "State": "PA"}, {"AddressLine1": "3013 Anchor Rd", "City": "WASHINGTON BORO", "PostalCode": "17582", "State": "PA"}, {"AddressLine1": "143 N FRONT ST 3FL", "City": "STEELTON", "PostalCode": "17113", "State": "PA"}, {"AddressLine1": "1890 Golf Course Rd", "City": "MILTON", "PostalCode": "17847", "State": "PA"}, {"AddressLine1": "458 Spruce Rd", "City": "NEW CUMBERLAND", "PostalCode": "17070", "State": "PA"}, {"AddressLine1": "254 Trapper Springs Ln", "City": "DRUMS", "PostalCode": "18222", "State": "PA"}, {"AddressLine1": "2422 Rustic Ridge Dr", "City": "SEWICKLEY", "PostalCode": "15143", "State": "PA"}, {"AddressLine1": "391 Capitol Hill Rd", "City": "GLEN RICHEY", "PostalCode": "16837", "State": "PA"}, {"AddressLine1": "7949 Bayard Dr", "City": "HUMMELSTOWN", "PostalCode": "17036", "State": "PA"}, {"AddressLine1": "11467 Raystown Rd", "City": "HUNTINGDON", "PostalCode": "16652", "State": "PA"}, {"AddressLine1": "1396 Hunterstown Rd", "City": "GETTYSBURG", "PostalCode": "17325", "State": "PA"}, {"AddressLine1": "179 Sheakleyville Rd", "City": "CLARKS MILLS", "PostalCode": "16114", "State": "PA"}, {"AddressLine1": "164 Cherry Valley Rd", "City": "SAXONBURG", "PostalCode": "16056", "State": "PA"}, {"AddressLine1": "499 Coal Hill Rd", "City": "GREENVILLE", "PostalCode": "16125", "State": "PA"}, {"AddressLine1": "432 W Theresia Rd", "City": "SAINT MARYS", "PostalCode": "15857", "State": "PA"}, {"AddressLine1": "310 HIGHLAND AVE", "City": "BURGETTSTOWN", "PostalCode": "15021", "State": "PA"}, {"AddressLine1": "110 Washington Ave", "City": "HICKORY", "PostalCode": "15340", "State": "PA"}, {"AddressLine1": "74 Liberty St", "City": "MOUNT PLEASANT", "PostalCode": "15666", "State": "PA"}, {"AddressLine1": "170 Maple Spring Dr", "City": "KUNKLETOWN", "PostalCode": "18058", "State": "PA"}, {"AddressLine1": "41 SHALE RD", "City": "BEACH LAKE", "PostalCode": "18405", "State": "PA"}, {"AddressLine1": "1090 Cronrath Rd", "City": "WATSONTOWN", "PostalCode": "17777", "State": "PA"}, {"AddressLine1": "84 Dennis Rd", "City": "HONESDALE", "PostalCode": "18431", "State": "PA"}, {"AddressLine1": "1299 ROUTE 168", "City": "GEORGETOWN", "PostalCode": "15043", "State": "PA"}, {"AddressLine1": "603 Pamela Dr", "City": "SOUTH ABINGTON TOWNSHIP", "PostalCode": "18411", "State": "PA"}, {"AddressLine1": "244-1/2 E FAIRVIEW ST", "City": "ALLENTOWN", "PostalCode": "18109", "State": "PA"}, {"AddressLine1": "904 Pleasure Rd", "City": "LANCASTER", "PostalCode": "17601", "State": "PA"}, {"AddressLine1": "136 Victoria Dr", "City": "WHITE OAK", "PostalCode": "15131", "State": "PA"}, {"AddressLine1": "120 Crystal Dr", "City": "LONG POND", "PostalCode": "18334", "State": "PA"}, {"AddressLine1": "692 WOODRIDGE DR", "City": "LAKE ARIEL", "PostalCode": "18436", "State": "PA"}, {"AddressLine1": "770 Greenville Rd", "City": "DENVER", "PostalCode": "17517", "State": "PA"}, {"AddressLine1": "269 NEWBURY DR", "City": "MONROEVILLE", "PostalCode": "15146", "State": "PA"}, {"AddressLine1": "9648 CRESCENT LN UNIT 243", "City": "BREINIGSVILLE", "PostalCode": "18031", "State": "PA"}, {"AddressLine1": "1201 Fleetwood Dr", "City": "CARLISLE", "PostalCode": "17013", "State": "PA"}, {"AddressLine1": "1975 Forest Inn Rd", "City": "PALMERTON", "PostalCode": "18071", "State": "PA"}, {"AddressLine1": "1215 Caldwell Ave", "City": "PORTAGE", "PostalCode": "15946", "State": "PA"}, {"AddressLine1": "127 Memorial Hwy", "City": "FLEETWOOD", "PostalCode": "19522", "State": "PA"}, {"AddressLine1": "1014 McCleary Ave", "City": "NEW CASTLE", "PostalCode": "16101", "State": "PA"}, {"AddressLine1": "349 Valley Rd", "City": "DARLINGTON", "PostalCode": "16115", "State": "PA"}, {"AddressLine1": "2802 Mercer Butler Pike", "City": "GROVE CITY", "PostalCode": "16127", "State": "PA"}, {"AddressLine1": "10633 Shale Rd", "City": "SHIPPENSBURG", "PostalCode": "17257", "State": "PA"}, {"AddressLine1": "2669 State Route 3006", "City": "SPRINGVILLE", "PostalCode": "18844", "State": "PA"}, {"AddressLine1": "PO Box 97", "City": "WEBSTER", "PostalCode": "15087", "State": "PA"}, {"AddressLine1": "210 Liberty St", "City": "BOALSBURG", "PostalCode": "16827", "State": "PA"}, {"AddressLine1": "812 State St", "City": "LANCASTER", "PostalCode": "17603", "State": "PA"}, {"AddressLine1": "263 MAIN ST, 2FL", "City": "FREEMANSBURG", "PostalCode": "18017", "State": "PA"}, {"AddressLine1": "143 BEAVERDALE", "City": "MOUNT CARMEL", "PostalCode": "17851", "State": "PA"}, {"AddressLine1": "FL 1ST     246 LONG LN", "City": "UPPER DARBY", "PostalCode": "19082", "State": "PA"}, {"AddressLine1": "101 Namy Dr", "City": "PITTSBURGH", "PostalCode": "15220", "State": "PA"}, {"AddressLine1": "1603 Hunter St", "City": "HARRISBURG", "PostalCode": "17104", "State": "PA"}, {"AddressLine1": "647 E NORTH ST", "City": "BETHLEHEM", "PostalCode": "18018", "State": "PA"}, {"AddressLine1": "3168 Irishtown Rd", "City": "GORDONVILLE", "PostalCode": "17529", "State": "PA"}, {"AddressLine1": "232 HUMMEL ST, 1ST FLR", "City": "HARRISBURG", "PostalCode": "17104", "State": "PA"}, {"AddressLine1": "129 Primrose Ln", "City": "READING", "PostalCode": "19610", "State": "PA"}, {"AddressLine1": "2014 McKinney Rd", "City": "MONROEVILLE", "PostalCode": "15146", "State": "PA"}, {"AddressLine1": "FL 2ND     6958 CEDAR PARK AVE", "City": " PHILADELPHIA", "PostalCode": "19138", "State": "PA"}, {"AddressLine1": "2347 NARROWS RD", "City": "LOGANTON", "PostalCode": "17747", "State": "PA"}, {"AddressLine1": "1332 LIBERTY ST", "City": "ALLENTOWN", "PostalCode": "18102", "State": "PA"}, {"AddressLine1": "4523 Plummer St", "City": "PITTSBURGH", "PostalCode": "15201", "State": "PA"}, {"AddressLine1": "420 INDEPENDENCE LN LOT 205", "City": "FREEDOM", "PostalCode": "15042", "State": "PA"}, {"AddressLine1": "87 Crestview Blvd", "City": "WARREN", "PostalCode": "16365", "State": "PA"}, {"AddressLine1": "203 Woods View Dr", "City": "SAYLORSBURG", "PostalCode": "18353", "State": "PA"}, {"AddressLine1": "2466 Eastbrook Rd", "City": "NEW CASTLE", "PostalCode": "16105", "State": "PA"}, {"AddressLine1": "650 S Irvine Ave", "City": "SHARON", "PostalCode": "16146", "State": "PA"}, {"AddressLine1": "90 COUNTRY VILLAGE LN", "City": "SPRING CREEK", "PostalCode": "16436", "State": "PA"}, {"AddressLine1": "143 COUNTRY VILLAGE LN", "City": "SPRING CREEK", "PostalCode": "16436", "State": "PA"}, {"AddressLine1": "107 Loves Hill Ext", "City": "WAYNESBURG", "PostalCode": "15370", "State": "PA"}, {"AddressLine1": "209 Village Green Dr", "City": "CANONSBURG", "PostalCode": "15317", "State": "PA"}, {"AddressLine1": "1041 Stone Stack Dr", "City": "BETHLEHEM", "PostalCode": "18015", "State": "PA"}, {"AddressLine1": "1290 Rydal Ln", "City": "SOUTHAMPTON", "PostalCode": "18966", "State": "PA"}, {"AddressLine1": "23 Oliver St", "City": "WILKES BARRE", "PostalCode": "18705", "State": "PA"}, {"AddressLine1": "403 S Grant St", "City": "WILKES BARRE", "PostalCode": "18702", "State": "PA"}, {"AddressLine1": "3883 QUARRY DRIVE", "City": "EMMAUS", "PostalCode": "18049", "State": "PA"}, {"AddressLine1": "1296 SCHUYLKILL MT RD RR 1", "City": "SCHUYLKILL HAVEN", "PostalCode": "17972", "State": "PA"}, {"AddressLine1": "90 Bartholomew Dr", "City": "PALMERTON", "PostalCode": "18071", "State": "PA"}, {"AddressLine1": "22 COUNTRY CLUB PL WAPT 1FL", "City": "CAMP HILL", "PostalCode": "17011", "State": "PA"}, {"AddressLine1": "101 Brentwater Rd", "City": "CAMP HILL", "PostalCode": "17011", "State": "PA"}, {"AddressLine1": "125 Poplar Pl", "City": "BLAKESLEE", "PostalCode": "18610", "State": "PA"}, {"AddressLine1": "3110 Little Gap Rd", "City": "PALMERTON", "PostalCode": "18071", "State": "PA"}, {"AddressLine1": "465 SILVER SPRINGS BLVD GAR", "City": "KUNKLETOWN", "PostalCode": "18058", "State": "PA"}, {"AddressLine1": "175 Blossom Hill Dr", "City": "LANCASTER", "PostalCode": "17601", "State": "PA"}, {"AddressLine1": "465 AMSLER ROAD", "City": "SEWICKLEY", "PostalCode": "15143", "State": "PA"}, {"AddressLine1": "2 Wade Dr", "City": "LITITZ", "PostalCode": "17543", "State": "PA"}, {"AddressLine1": "6841 ROBERTS RD", "City": "COOPERSBURG", "PostalCode": "18036", "State": "PA"}, {"AddressLine1": "426 HUDSON AVE", "City": "ALTOONA", "PostalCode": "16602", "State": "PA"}, {"AddressLine1": "318 Canal St", "City": "LEBANON", "PostalCode": "17046", "State": "PA"}, {"AddressLine1": "2629 Broad St", "City": "EASTON", "PostalCode": "18045", "State": "PA"}, {"AddressLine1": "1833 Main Street Ext", "City": "BROGUE", "PostalCode": "17309", "State": "PA"}, {"AddressLine1": "235 Quaker Meeting Rd", "City": "WELLSVILLE", "PostalCode": "17365", "State": "PA"}, {"AddressLine1": "1520 Old Butler Rd", "City": "NEW CASTLE", "PostalCode": "16101", "State": "PA"}, {"AddressLine1": "10423 Bowman Ave", "City": "CRANESVILLE", "PostalCode": "16410", "State": "PA"}, {"AddressLine1": "414 Pine Swamp Rd", "City": "KEMPTON", "PostalCode": "19529", "State": "PA"}, {"AddressLine1": "204 DEPOT ST", "City": "WESTFIELD", "PostalCode": "16950", "State": "PA"}, {"AddressLine1": "2519 German St Fl 1", "City": "ERIE", "PostalCode": "16503", "State": "PA"}, {"AddressLine1": "1663 Citation Dr", "City": "SOUTH PARK", "PostalCode": "15129", "State": "PA"}, {"AddressLine1": "3043 BENVENUE DR", "City": "GREENSBURG", "PostalCode": "15601", "State": "PA"}, {"AddressLine1": "799 Bear Creek Rd", "City": "CABOT", "PostalCode": "16023", "State": "PA"}, {"AddressLine1": "127 W Patterson Ave", "City": "BUTLER", "PostalCode": "16001", "State": "PA"}, {"AddressLine1": "6397 Greenbriar Ln", "City": "FAYETTEVILLE", "PostalCode": "17222", "State": "PA"}, {"AddressLine1": "2550 LYNNROSE DR", "City": "NORTH HUNTINGDON", "PostalCode": "15642", "State": "PA"}, {"AddressLine1": "3447 Camp Robin Hood Rd", "City": "CHAMBERSBURG", "PostalCode": "17202", "State": "PA"}, {"AddressLine1": "7800 NOBLESTOWN RD", "City": "MC DONALD", "PostalCode": "15057", "State": "PA"}, {"AddressLine1": "51 Bittern Dr", "City": "GETTYSBURG", "PostalCode": "17325", "State": "PA"}, {"AddressLine1": "2012 Winchester Ct", "City": "RENFREW", "PostalCode": "16053", "State": "PA"}, {"AddressLine1": "219 N 9TH ST", "City": "READING", "PostalCode": "19601", "State": "PA"}, {"AddressLine1": "53 PARSONAGE ST, 1FL REAR #2", "City": "PITTSTON", "PostalCode": "18640", "State": "PA"}, {"AddressLine1": "501 James St", "City": "MECHANICSBURG", "PostalCode": "17055", "State": "PA"}, {"AddressLine1": "2901 N FRONT ST", "City": "HARRISBURG", "PostalCode": "17110", "State": "PA"}, {"AddressLine1": "288 QUARRY RD", "City": "HUMMELSTOWN", "PostalCode": "17036", "State": "PA"}, {"AddressLine1": "608 N 3RD ST", "City": "HARRISBURG", "PostalCode": "17101", "State": "PA"}, {"AddressLine1": "1445 KAYLOR RD RR 6", "City": "HUMMELSTOWN", "PostalCode": "17036", "State": "PA"}, {"AddressLine1": "1267 DRY TAVERN ROAD RR 1", "City": "DENVER", "PostalCode": "17517", "State": "PA"}, {"AddressLine1": "107 Stadden Rd", "City": "STROUDSBURG", "PostalCode": "18360", "State": "PA"}, {"AddressLine1": "FRNT 1ST     1024 DEKALB ST", "City": "NORRISTOWN", "PostalCode": "19401", "State": "PA"}, {"AddressLine1": "30 Westfields Dr", "City": "MECHANICSBURG", "PostalCode": "17050", "State": "PA"}, {"AddressLine1": "208 Demetrio Ln", "City": "NEW KENSINGTON", "PostalCode": "15068", "State": "PA"}, {"AddressLine1": "136 HEMLOCK TER", "City": "GREENTOWN", "PostalCode": "18426", "State": "PA"}, {"AddressLine1": "631 Lehigh Rd", "City": "COVINGTON TOWNSHIP", "PostalCode": "18424", "State": "PA"}, {"AddressLine1": "2936 N Van Pelt St", "City": " PHILADELPHIA", "PostalCode": "19132", "State": "PA"}, {"AddressLine1": "120 ORIOLE LN", "City": "LAKE ARIEL", "PostalCode": "18436", "State": "PA"}, {"AddressLine1": "3209 Berry Brow Dr", "City": "CHALFONT", "PostalCode": "18914", "State": "PA"}, {"AddressLine1": "3302 Stafford St", "City": "PITTSBURGH", "PostalCode": "15204", "State": "PA"}, {"AddressLine1": "8803 Crefeld St", "City": "PHILADELPHIA", "PostalCode": "19118", "State": "PA"}, {"AddressLine1": "2776 IRONVILLE PIKE", "City": "COLUMBIA", "PostalCode": "17512", "State": "PA"}, {"AddressLine1": "129 Oakhaven Dr", "City": "FREEDOM", "PostalCode": "15042", "State": "PA"}, {"AddressLine1": "513 CAYS RD", "City": "STROUDSBURG", "PostalCode": "18360", "State": "PA"}, {"AddressLine1": "1210 PEGGY DR", "City": "HUMMELSTOWN", "PostalCode": "17036", "State": "PA"}, {"AddressLine1": "98 N LAUREL ST APT 2", "City": "HAZLETON", "PostalCode": "18201", "State": "PA"}, {"AddressLine1": "4232 Havencrest Dr", "City": "GIBSONIA", "PostalCode": "15044", "State": "PA"}, {"AddressLine1": "208 N HIGHLAND DRIVE", "City": "PITTSTON", "PostalCode": "18640", "State": "PA"}, {"AddressLine1": "2842 Brocktown Rd", "City": "TOWANDA", "PostalCode": "18848", "State": "PA"}, {"AddressLine1": "104 Loop Rd", "City": "HASTINGS", "PostalCode": "16646", "State": "PA"}, {"AddressLine1": "475 Chapel Church Rd", "City": "RED LION", "PostalCode": "17356", "State": "PA"}, {"AddressLine1": "509 Moul Ave", "City": "HANOVER", "PostalCode": "17331", "State": "PA"}, {"AddressLine1": "261 Fox Hill Rd", "City": "BIGLERVILLE", "PostalCode": "17307", "State": "PA"}, {"AddressLine1": "569 Fleming Rd", "City": "SARVER", "PostalCode": "16055", "State": "PA"}, {"AddressLine1": "1548 Park Terrace Dr", "City": "CHAMBERSBURG", "PostalCode": "17202", "State": "PA"}, {"AddressLine1": "275 Stoney Springs Rd", "City": "GREENSBURG", "PostalCode": "15601", "State": "PA"}, {"AddressLine1": "10 7TH ST", "City": "MARIANNA", "PostalCode": "15345", "State": "PA"}, {"AddressLine1": "410 EDGETREE DR", "City": "MURRYSVILLE", "PostalCode": "15668", "State": "PA"}, {"AddressLine1": "4406 LOGANS FERRY RD", "City": "MURRYSVILLE", "PostalCode": "15668", "State": "PA"}, {"AddressLine1": "249 DEERFIELD DR", "City": "CANONSBURG", "PostalCode": "15317", "State": "PA"}, {"AddressLine1": "110 Pine Nut Dr", "City": "EIGHTY FOUR", "PostalCode": "15330", "State": "PA"}, {"AddressLine1": "1654 W Mentor St", "City": " PHILADELPHIA", "PostalCode": "19141", "State": "PA"}, {"AddressLine1": "4601 Veman Ave", "City": "PITTSBURGH", "PostalCode": "15227", "State": "PA"}, {"AddressLine1": "119 Madison Ave", "City": "NORTHUMBERLAND", "PostalCode": "17857", "State": "PA"}, {"AddressLine1": "924 W TRINDLE DR, APT", "City": "MECHANICSBURG", "PostalCode": "17055", "State": "PA"}, {"AddressLine1": "5735 Hillside Ln", "City": "MECHANICSBURG", "PostalCode": "17050", "State": "PA"}, {"AddressLine1": "5153 Garfield Ave", "City": "WHITEHALL", "PostalCode": "18052", "State": "PA"}, {"AddressLine1": "4107 REDBUD DR E, TRW 32", "City": "WHITEHALL", "PostalCode": "18052", "State": "PA"}, {"AddressLine1": "1032 MONROE ST", "City": "STEELTON", "PostalCode": "17113", "State": "PA"}, {"AddressLine1": "818 Larimer Ave", "City": "NORTH VERSAILLES", "PostalCode": "15137", "State": "PA"}, {"AddressLine1": "301 W 22nd St", "City": "CHESTER", "PostalCode": "19013", "State": "PA"}, {"AddressLine1": "18 Sherwood Dr", "City": "CARLISLE", "PostalCode": "17015", "State": "PA"}, {"AddressLine1": "4106 RED BUD DR", "City": "WHITEHALL", "PostalCode": "18052", "State": "PA"}, {"AddressLine1": "220 Thistle Dr", "City": "WEST MIFFLIN", "PostalCode": "15122", "State": "PA"}, {"AddressLine1": "167 Kilbuck Dr", "City": "MONROEVILLE", "PostalCode": "15146", "State": "PA"}, {"AddressLine1": "819 N 41ST ST     1ST FL", "City": " PHILADELPHIA", "PostalCode": "19104", "State": "PA"}, {"AddressLine1": "408 LOUISA ST, 1ST FLR", "City": "WILLIAMSPORT", "PostalCode": "17701", "State": "PA"}, {"AddressLine1": "325 WESTVIEW DR UNIT 18", "City": "AKRON", "PostalCode": "17501", "State": "PA"}, {"AddressLine1": "348 Avi Dr", "City": "ALBURTIS", "PostalCode": "18011", "State": "PA"}, {"AddressLine1": "609 N 2ND ST APT, C", "City": "LYKENS", "PostalCode": "17048", "State": "PA"}, {"AddressLine1": "240 Walnut St", "City": "WRIGHTSVILLE", "PostalCode": "17368", "State": "PA"}, {"AddressLine1": "904 Suellen Dr", "City": "READING", "PostalCode": "19605", "State": "PA"}, {"AddressLine1": "108 State Route 168", "City": "DARLINGTON", "PostalCode": "16115", "State": "PA"}, {"AddressLine1": "8925 Leach Rd", "City": "CONNEAUT LAKE", "PostalCode": "16316", "State": "PA"}, {"AddressLine1": "600 Adare Ct", "City": "CRANBERRY TOWNSHIP", "PostalCode": "16066", "State": "PA"}, {"AddressLine1": "15 Timber Dr", "City": "ALBURTIS", "PostalCode": "18011", "State": "PA"}, {"AddressLine1": "569 Fleming Rd", "City": "SARVER", "PostalCode": "16055", "State": "PA"}, {"AddressLine1": "67 TOWER HILL VLG", "City": "REPUBLIC", "PostalCode": "15475", "State": "PA"}, {"AddressLine1": "215 Jefferson Ave", "City": "CHESWICK", "PostalCode": "15024", "State": "PA"}, {"AddressLine1": "1464 N Neshannock Rd", "City": "HERMITAGE", "PostalCode": "16148", "State": "PA"}, {"AddressLine1": "555 Lockhart St", "City": " WASHINGTON", "PostalCode": "15301", "State": "PA"}, {"AddressLine1": "216 Hazelwood Ave", "City": "PITTSBURGH", "PostalCode": "15202", "State": "PA"}, {"AddressLine1": "APT C2     6649 N 16TH ST", "City": " PHILADELPHIA", "PostalCode": "19126", "State": "PA"}, {"AddressLine1": "811 Sheridan St Apt D", "City": "WILLIAMSPORT", "PostalCode": "17701", "State": "PA"}, {"AddressLine1": "5 LAKE COURT LOT 5FFUNIT FF", "City": "GOULDSBORO", "PostalCode": "18424", "State": "PA"}, {"AddressLine1": "4831 SR 487", "City": "BENTON", "PostalCode": "17814", "State": "PA"}, {"AddressLine1": "4452 Hanoverville Rd", "City": "BETHLEHEM", "PostalCode": "18020", "State": "PA"}, {"AddressLine1": "1073 Deer Valley Rd", "City": "LAKE ARIEL", "PostalCode": "18436", "State": "PA"}, {"AddressLine1": "6 Red Oak Ct", "City": "DENVER", "PostalCode": "17517", "State": "PA"}, {"AddressLine1": "3306 IOWA ST FLR 1", "City": "PITTSBURGH", "PostalCode": "15219", "State": "PA"}]
