[{"AddressLine1": "98 SPRING AVE", "City": "ARLINGTON", "PostalCode": "02476", "State": "MA"}, {"AddressLine1": "123 Rosewood Dr", "City": "GARDNER", "PostalCode": "01440", "State": "MA"}, {"AddressLine1": "114 PEARL ST 1", "City": "CAMBRIDGE", "PostalCode": "02139", "State": "MA"}, {"AddressLine1": "2 Garden St", "City": "AUBURN", "PostalCode": "01501", "State": "MA"}, {"AddressLine1": "315 A ST 1503", "City": "S BOSTON", "PostalCode": "02210", "State": "MA"}, {"AddressLine1": "929  LIBERTY STFL 1", "City": "SPRINGFIELD", "PostalCode": "01104", "State": "MA"}, {"AddressLine1": "67  ATHOL ST", "City": "SPRINGFIELD", "PostalCode": "01107", "State": "MA"}, {"AddressLine1": "580 S MAIN STUNIT 2-4", "City": "LANESBOROUGH", "PostalCode": "01237", "State": "MA"}, {"AddressLine1": "179  LOWER STFL 1", "City": "BUCKLAND", "PostalCode": "01338", "State": "MA"}, {"AddressLine1": "110 CANTERBURY ST APT 2", "City": "WORCESTER", "PostalCode": "01603", "State": "MA"}, {"AddressLine1": "34 Lakeview Rd", "City": "FOXBORO", "PostalCode": "02035", "State": "MA"}, {"AddressLine1": "78 Sycamore Rd", "City": "MELROSE", "PostalCode": "02176", "State": "MA"}, {"AddressLine1": "6 Nottingham Rd", "City": "TYNGSBORO", "PostalCode": "01879", "State": "MA"}, {"AddressLine1": "168 Main St Apt 204", "City": "WEBSTER", "PostalCode": "01570", "State": "MA"}, {"AddressLine1": "43 Pine Tree Dr", "City": "BUZZARDS BAY", "PostalCode": "02532", "State": "MA"}, {"AddressLine1": "580 BRIDGE ST APT 23C", "City": "WEYMOUTH", "PostalCode": "02191", "State": "MA"}, {"AddressLine1": "81 PIRATES CV", "City": "OSTERVILLE", "PostalCode": "02655", "State": "MA"}, {"AddressLine1": "12 Jewett St", "City": "PEPPERELL", "PostalCode": "01463", "State": "MA"}, {"AddressLine1": "52 Frye Rd", "City": "BOLTON", "PostalCode": "01740", "State": "MA"}, {"AddressLine1": "48 Harmony Hl", "City": "DEDHAM", "PostalCode": "02026", "State": "MA"}, {"AddressLine1": "91 Glenellen Rd", "City": "W ROXBURY", "PostalCode": "02132", "State": "MA"}, {"AddressLine1": "534 WASHINGTON ST 2", "City": "WINCHESTER", "PostalCode": "01890", "State": "MA"}, {"AddressLine1": "72 Dabney St", "City": "ROXBURY", "PostalCode": "02119", "State": "MA"}, {"AddressLine1": "55 Eustis St", "City": "ARLINGTON", "PostalCode": "02476", "State": "MA"}, {"AddressLine1": "14 Bonad Rd", "City": "MILTON", "PostalCode": "02186", "State": "MA"}, {"AddressLine1": "5 Rockwell Pl", "City": "MILTON", "PostalCode": "02186", "State": "MA"}, {"AddressLine1": "11 Mark Newton Rd", "City": "WESTMINSTER", "PostalCode": "01473", "State": "MA"}, {"AddressLine1": "55 Cedar St Apt 2315", "City": "WOBURN", "PostalCode": "01801", "State": "MA"}, {"AddressLine1": "114 BAILEY ST APT   1", "City": "LAWRENCE", "PostalCode": "01843", "State": "MA"}, {"AddressLine1": "100 STOCKTON ST 351", "City": "CHELSEA", "PostalCode": "02150", "State": "MA"}, {"AddressLine1": "169 SAM-TURNER RD", "City": "HATCHVILLE", "PostalCode": "02536", "State": "MA"}, {"AddressLine1": "167 KINGSBURY AVE    COGEN", "City": "BRADFORD", "PostalCode": "01835", "State": "MA"}, {"AddressLine1": "144 S MAIN ST APT 2", "City": "GARDNER", "PostalCode": "01440", "State": "MA"}, {"AddressLine1": "4 Teaberry Ln", "City": "HOPKINTON", "PostalCode": "01748", "State": "MA"}, {"AddressLine1": "37 Larkin Rd", "City": "BYFIELD", "PostalCode": "01922", "State": "MA"}, {"AddressLine1": "61 HOVENDON AVE", "City": "BROCKTON", "PostalCode": "02302", "State": "MA"}, {"AddressLine1": "16 Knowlton St Apt 1", "City": "GARDNER", "PostalCode": "01440", "State": "MA"}, {"AddressLine1": "134 PINEDALE ST", "City": "SOUTHBRIDGE", "PostalCode": "01550", "State": "MA"}, {"AddressLine1": "30 Butternut Ln", "City": "METHUEN", "PostalCode": "01844", "State": "MA"}, {"AddressLine1": "41 SIXTH ST", "City": "MEDFORD", "PostalCode": "02155", "State": "MA"}, {"AddressLine1": "13 TOLMAN AVE LEFT", "City": "SHIRLEY", "PostalCode": "01464", "State": "MA"}, {"AddressLine1": "21 Ferndale Dr", "City": "HALIFAX", "PostalCode": "02338", "State": "MA"}, {"AddressLine1": "617 Sanford Rd", "City": "WESTPORT", "PostalCode": "02790", "State": "MA"}, {"AddressLine1": "1248  WORCESTER STFL 2", "City": "INDIAN ORCHARD", "PostalCode": "01151", "State": "MA"}, {"AddressLine1": "10  HOMESTEAD AVE", "City": "AGAWAM", "PostalCode": "01001", "State": "MA"}, {"AddressLine1": "107  SHAKER RD", "City": "LONGMEADOW", "PostalCode": "01106", "State": "MA"}, {"AddressLine1": "64  JEFFERSON AVEFL 2", "City": "SPRINGFIELD", "PostalCode": "01107", "State": "MA"}, {"AddressLine1": "42 Park Rd", "City": "SUNDERLAND", "PostalCode": "01375", "State": "MA"}, {"AddressLine1": "253  AMHERST RDAPT A6", "City": "SUNDERLAND", "PostalCode": "01375", "State": "MA"}, {"AddressLine1": "51 N East St", "City": "AMHERST", "PostalCode": "01002", "State": "MA"}, {"AddressLine1": "37  WARREN ST", "City": "LUDLOW", "PostalCode": "01056", "State": "MA"}, {"AddressLine1": "54  THYME LN", "City": "SPRINGFIELD", "PostalCode": "01129", "State": "MA"}, {"AddressLine1": "15  PINE GROVE DRLOT 10", "City": "BERNARDSTON", "PostalCode": "01337", "State": "MA"}, {"AddressLine1": "20 Water St", "City": "ADAMS", "PostalCode": "01220", "State": "MA"}, {"AddressLine1": "497 Webster St", "City": "ROCKLAND", "PostalCode": "02370", "State": "MA"}, {"AddressLine1": "71 East St", "City": "UXBRIDGE", "PostalCode": "01569", "State": "MA"}, {"AddressLine1": "8 Alfred Ter", "City": "RANDOLPH", "PostalCode": "02368", "State": "MA"}, {"AddressLine1": "149 Andover St Apt 4", "City": "ANDOVER", "PostalCode": "01810", "State": "MA"}, {"AddressLine1": "911 Johnson St", "City": "NORTH ANDOVER", "PostalCode": "01845", "State": "MA"}, {"AddressLine1": "KIRALI CT LOT 2 L2", "City": "WESTMINSTER", "PostalCode": "01473", "State": "MA"}, {"AddressLine1": "37 Larkin Rd", "City": "BYFIELD", "PostalCode": "01922", "State": "MA"}, {"AddressLine1": "593 Main St Apt 302", "City": "LEOMINSTER", "PostalCode": "01453", "State": "MA"}, {"AddressLine1": "207 Green Rd", "City": "BOLTON", "PostalCode": "01740", "State": "MA"}, {"AddressLine1": "198 SARGENT ST APT 2", "City": "REVERE", "PostalCode": "02151", "State": "MA"}, {"AddressLine1": "15 Thorny Lea Ter", "City": "BROCKTON", "PostalCode": "02301", "State": "MA"}, {"AddressLine1": "41 Hagar Ln", "City": "WALTHAM", "PostalCode": "02453", "State": "MA"}, {"AddressLine1": "251  HERMITAGE DR", "City": "SPRINGFIELD", "PostalCode": "01129", "State": "MA"}, {"AddressLine1": "67 Valley St", "City": "MARLBOROUGH", "PostalCode": "01752", "State": "MA"}, {"AddressLine1": "4700 N MAIN STAPT 4F   F B  4", "City": "FALL RIVER", "PostalCode": "02720", "State": "MA"}, {"AddressLine1": "34 Lakeview Rd", "City": "FOXBORO", "PostalCode": "02035", "State": "MA"}, {"AddressLine1": "284  WESTERLY CIR", "City": "LUDLOW", "PostalCode": "01056", "State": "MA"}, {"AddressLine1": "11 Carver Cir", "City": "WESTFORD", "PostalCode": "01886", "State": "MA"}, {"AddressLine1": "92 WASHINGTON STAPT 1C", "City": "TOPSFIELD", "PostalCode": "01983", "State": "MA"}, {"AddressLine1": "160 Spring St", "City": "PEMBROKE", "PostalCode": "02359", "State": "MA"}, {"AddressLine1": "2A DUNLAP ST", "City": "SALEM", "PostalCode": "01970", "State": "MA"}, {"AddressLine1": "52 Hartley St Apt 22", "City": "WEBSTER", "PostalCode": "01570", "State": "MA"}, {"AddressLine1": "1015 Southern Artery Apt 708", "City": "QUINCY", "PostalCode": "02169", "State": "MA"}, {"AddressLine1": "48 GRANITE ST APT 1 POLE 12", "City": "WEBSTER", "PostalCode": "01570", "State": "MA"}, {"AddressLine1": "61 CENTRAL AVE", "City": "MEDFORD", "PostalCode": "02155", "State": "MA"}, {"AddressLine1": "12 Euclid Rd", "City": "LYNN", "PostalCode": "01904", "State": "MA"}, {"AddressLine1": "65 Oakridge Ave", "City": "ATTLEBORO", "PostalCode": "02703", "State": "MA"}, {"AddressLine1": "1112 Greendale Ave", "City": "NEEDHAM", "PostalCode": "02492", "State": "MA"}, {"AddressLine1": "1 LAFAYETTE PK", "City": "E FREETOWN", "PostalCode": "02717", "State": "MA"}, {"AddressLine1": "4 Parker St", "City": "ROCHDALE", "PostalCode": "01542", "State": "MA"}, {"AddressLine1": "85 Edgewater Dr", "City": "WAREHAM", "PostalCode": "02571", "State": "MA"}, {"AddressLine1": "4 SUMMIT ST APT  1", "City": "GLOUCESTER", "PostalCode": "01930", "State": "MA"}, {"AddressLine1": "37 Pine St", "City": "ATHOL", "PostalCode": "01331", "State": "MA"}, {"AddressLine1": "57 HITCHCOCK RD", "City": "WORCESTER", "PostalCode": "01603", "State": "MA"}, {"AddressLine1": "248 CAMP ST I2", "City": "W YARMOUTH", "PostalCode": "02673", "State": "MA"}, {"AddressLine1": "11 MANELLA AVE    COGEN", "City": "MILFORD", "PostalCode": "01757", "State": "MA"}, {"AddressLine1": "10 Blackberry Ln", "City": "DENNIS", "PostalCode": "02638", "State": "MA"}, {"AddressLine1": "56 Mercury Dr", "City": "S YARMOUTH", "PostalCode": "02664", "State": "MA"}, {"AddressLine1": "39 Moonalis Rd", "City": "EAST FALMOUTH", "PostalCode": "02536", "State": "MA"}, {"AddressLine1": "114 Falmouth Heights Rd", "City": "FALMOUTH", "PostalCode": "02540", "State": "MA"}, {"AddressLine1": "43 HICKORY RD    SOLAR", "City": "HALIFAX", "PostalCode": "02338", "State": "MA"}, {"AddressLine1": "PO Box 546", "City": "EDGARTOWN", "PostalCode": "02539", "State": "MA"}, {"AddressLine1": "16 Old Ridge Hl", "City": "CHILMARK", "PostalCode": "02535", "State": "MA"}, {"AddressLine1": "327 FERRY ST", "City": "MARSHFIELD", "PostalCode": "02050", "State": "MA"}, {"AddressLine1": "3 Pleasant St", "City": "MAYNARD", "PostalCode": "01754", "State": "MA"}, {"AddressLine1": "64 Cedar St", "City": "ROXBURY", "PostalCode": "02119", "State": "MA"}, {"AddressLine1": "23 JOHNSON RD 2", "City": "ARLINGTON", "PostalCode": "02474", "State": "MA"}, {"AddressLine1": "20 Kings Rd", "City": "CANTON", "PostalCode": "02021", "State": "MA"}, {"AddressLine1": "5 Tannery Rd", "City": "MEDFIELD", "PostalCode": "02052", "State": "MA"}, {"AddressLine1": "85 Newton St", "City": "WESTON", "PostalCode": "02493", "State": "MA"}, {"AddressLine1": "39 OXFORD ST A", "City": "SOMERVILLE", "PostalCode": "02143", "State": "MA"}, {"AddressLine1": "12 VALLEY ST UNIT 439", "City": "EVERETT", "PostalCode": "02149", "State": "MA"}, {"AddressLine1": "77 Leighton Rd", "City": "HYDE PARK", "PostalCode": "02136", "State": "MA"}, {"AddressLine1": "61 Bullard Rd", "City": "WESTON", "PostalCode": "02493", "State": "MA"}, {"AddressLine1": "871 WASHINGTON ST 3", "City": "DORCHESTER", "PostalCode": "02124", "State": "MA"}, {"AddressLine1": "89 SALTWIND DRLOT 8 L8 POLE 7", "City": "HANOVER", "PostalCode": "02339", "State": "MA"}, {"AddressLine1": "319 Summer St", "City": "ROCKLAND", "PostalCode": "02370", "State": "MA"}, {"AddressLine1": "173 Bishops Forest Dr", "City": "WALTHAM", "PostalCode": "02452", "State": "MA"}, {"AddressLine1": "112 WILLIAMSVILLE RDPOLE 92 1", "City": "HUBBARDSTON", "PostalCode": "01452", "State": "MA"}, {"AddressLine1": "20 Wigwam Hill Dr", "City": "WORCESTER", "PostalCode": "01605", "State": "MA"}, {"AddressLine1": "12 SUTTON ST 2", "City": "MATTAPAN", "PostalCode": "02126", "State": "MA"}, {"AddressLine1": "11 WINSLOW ST APT 3R", "City": "WORCESTER", "PostalCode": "01609", "State": "MA"}, {"AddressLine1": "18 DOYLE AVE POLE 4", "City": "WINCHENDON", "PostalCode": "01475", "State": "MA"}, {"AddressLine1": "57 Wachusett St Apt 2", "City": "JAMAICA PLAIN", "PostalCode": "02130", "State": "MA"}, {"AddressLine1": "256 HIGH ST", "City": "RANDOLPH", "PostalCode": "02368", "State": "MA"}, {"AddressLine1": "35 FOURTH ST", "City": "LEOMINSTER", "PostalCode": "01453", "State": "MA"}, {"AddressLine1": "12 WHISPERING PINE LN", "City": "ANDOVER", "PostalCode": "01810", "State": "MA"}, {"AddressLine1": "153 WILLOW ST FL 1", "City": "LAWRENCE", "PostalCode": "01841", "State": "MA"}, {"AddressLine1": "501 Auburn St Apt 303", "City": "WHITMAN", "PostalCode": "02382", "State": "MA"}, {"AddressLine1": "20 McCordick Ave", "City": "E BRIDGEWATER", "PostalCode": "02333", "State": "MA"}, {"AddressLine1": "55 Downey Rd", "City": "BROCKTON", "PostalCode": "02302", "State": "MA"}, {"AddressLine1": "10 Tanglewood Park Dr", "City": "HAVERHILL", "PostalCode": "01830", "State": "MA"}, {"AddressLine1": "299 PLEASANT ST APT 1R", "City": "GARDNER", "PostalCode": "01440", "State": "MA"}, {"AddressLine1": "14 JOHNSON ST   NEW COGEN", "City": "NEWBURYPORT", "PostalCode": "01950", "State": "MA"}, {"AddressLine1": "J2 Franklin Sq", "City": "RANDOLPH", "PostalCode": "02368", "State": "MA"}, {"AddressLine1": "740 CENTRAL ST APT A14", "City": "LEOMINSTER", "PostalCode": "01453", "State": "MA"}, {"AddressLine1": "9 Simon Atherton Row", "City": "HARVARD", "PostalCode": "01451", "State": "MA"}, {"AddressLine1": "32 CALDWELL CRESNT", "City": "LYNN", "PostalCode": "01902", "State": "MA"}, {"AddressLine1": "10 Berkshire St Apt 1", "City": "WORCESTER", "PostalCode": "01609", "State": "MA"}, {"AddressLine1": "99 Oxford St", "City": "REVERE", "PostalCode": "02151", "State": "MA"}, {"AddressLine1": "80 CHATHAM RD POLE 6", "City": "BROCKTON", "PostalCode": "02301", "State": "MA"}, {"AddressLine1": "191  MAYNARD ST", "City": "FEEDING HILLS", "PostalCode": "01030", "State": "MA"}, {"AddressLine1": "87 Hemlock Rd", "City": "PITTSFIELD", "PostalCode": "01201", "State": "MA"}, {"AddressLine1": "156  TWIN HILLS DR", "City": "LONGMEADOW", "PostalCode": "01106", "State": "MA"}, {"AddressLine1": "115  BRONSON TER", "City": "SPRINGFIELD", "PostalCode": "01108", "State": "MA"}, {"AddressLine1": "122A  SAND GULLY RD   NDUPL LEFT", "City": "SOUTH DEERFIELD", "PostalCode": "01373", "State": "MA"}, {"AddressLine1": "326 Davis St Apt F", "City": "GREENFIELD", "PostalCode": "01301", "State": "MA"}, {"AddressLine1": "256  HIGH ST", "City": "AGAWAM", "PostalCode": "01001", "State": "MA"}, {"AddressLine1": "377 N Loomis St", "City": "SOUTHWICK", "PostalCode": "01077", "State": "MA"}, {"AddressLine1": "6  PARK DR", "City": "LANESBOROUGH", "PostalCode": "01201", "State": "MA"}, {"AddressLine1": "300 METHUEN ST UNIT 221", "City": "LAWRENCE", "PostalCode": "01840", "State": "MA"}, {"AddressLine1": "118 Belair Hts", "City": "LEOMINSTER", "PostalCode": "01453", "State": "MA"}, {"AddressLine1": "332 High St", "City": "PEMBROKE", "PostalCode": "02359", "State": "MA"}, {"AddressLine1": "1 Palfrey Rd", "City": "GLOUCESTER", "PostalCode": "01930", "State": "MA"}, {"AddressLine1": "67 Garfield St Apt 1", "City": "FALL RIVER", "PostalCode": "02721", "State": "MA"}, {"AddressLine1": "196 Locust St Apt 2-707", "City": "LYNN", "PostalCode": "01904", "State": "MA"}, {"AddressLine1": "32 TYLER AVE APT  2", "City": "MEDFORD", "PostalCode": "02155", "State": "MA"}, {"AddressLine1": "PO Box 99", "City": "SOUTH BARRE", "PostalCode": "01074", "State": "MA"}, {"AddressLine1": "239 Haverhill St", "City": "DRACUT", "PostalCode": "01826", "State": "MA"}, {"AddressLine1": "180 Charger St", "City": "REVERE", "PostalCode": "02151", "State": "MA"}, {"AddressLine1": "7 NICHOLS ST APT 2  1ST", "City": "HAVERHILL", "PostalCode": "01830", "State": "MA"}, {"AddressLine1": "139 BROADMEADOW RD APT 8BLDG B", "City": "MARLBOROUGH", "PostalCode": "01752", "State": "MA"}, {"AddressLine1": "64 Woodcock St", "City": "LOWELL", "PostalCode": "01854", "State": "MA"}, {"AddressLine1": "119 MESSENGER STLOT 3", "City": "PLAINVILLE", "PostalCode": "02762", "State": "MA"}, {"AddressLine1": "203 DIMAN STAPT 2", "City": "FALL RIVER", "PostalCode": "02721", "State": "MA"}, {"AddressLine1": "29 STETSON HEIGHTS RD POLE 5", "City": "PEMBROKE", "PostalCode": "02359", "State": "MA"}, {"AddressLine1": "11 Exeter Pl", "City": "BILLERICA", "PostalCode": "01821", "State": "MA"}, {"AddressLine1": "100 Franklin St Apt C3", "City": "WHITMAN", "PostalCode": "02382", "State": "MA"}, {"AddressLine1": "26 ANDERSON AVE", "City": "THREE RIVERS", "PostalCode": "01080", "State": "MA"}, {"AddressLine1": "14 Plumbley Rd", "City": "UPTON", "PostalCode": "01568", "State": "MA"}, {"AddressLine1": "24 Sunset Dr", "City": "SOUTH EASTON", "PostalCode": "02375", "State": "MA"}, {"AddressLine1": "41 Lenox St", "City": "BROCKTON", "PostalCode": "02301", "State": "MA"}, {"AddressLine1": "24 Adams Ave", "City": "PEMBROKE", "PostalCode": "02359", "State": "MA"}, {"AddressLine1": "29 FIRST ST APT B APT B", "City": "SALEM", "PostalCode": "01970", "State": "MA"}, {"AddressLine1": "22 KIMBERLY LN    COGEN", "City": "RANDOLPH", "PostalCode": "02368", "State": "MA"}, {"AddressLine1": "49 Floyd St", "City": "EVERETT", "PostalCode": "02149", "State": "MA"}, {"AddressLine1": "18 Iroquois Ln", "City": "WILBRAHAM", "PostalCode": "01095", "State": "MA"}, {"AddressLine1": "2 Electric St Apt A", "City": "WORCESTER", "PostalCode": "01610", "State": "MA"}, {"AddressLine1": "5 Sherwood Dr", "City": "GRANBY", "PostalCode": "01033", "State": "MA"}, {"AddressLine1": "101 McKinley Dr", "City": "ABINGTON", "PostalCode": "02351", "State": "MA"}, {"AddressLine1": "189 Tall Oaks Dr Unit C", "City": "SOUTH WEYMOUTH", "PostalCode": "02190", "State": "MA"}, {"AddressLine1": "11 WESTMINSTER AVE FL 1 1ST", "City": "S ATTLEBORO", "PostalCode": "02703", "State": "MA"}, {"AddressLine1": "87 GLEN HEATHER LN", "City": "EAST LONGMEADOW", "PostalCode": "01028", "State": "MA"}, {"AddressLine1": "41 Basket St", "City": "HUNTINGTON", "PostalCode": "01050", "State": "MA"}, {"AddressLine1": "521 Chauncey Walker St", "City": "BELCHERTOWN", "PostalCode": "01007", "State": "MA"}, {"AddressLine1": "7 GARRISON CIR", "City": "METHUEN", "PostalCode": "01844", "State": "MA"}, {"AddressLine1": "19 PLUMBLY RD LOT 48  L48", "City": "UPTON", "PostalCode": "01568", "State": "MA"}, {"AddressLine1": "45 Hitching Post Rd", "City": "NORTH ANDOVER", "PostalCode": "01845", "State": "MA"}, {"AddressLine1": "150 Maple St", "City": "DOUGLAS", "PostalCode": "01516", "State": "MA"}, {"AddressLine1": "23 Johnson St Apt A", "City": "WORCESTER", "PostalCode": "01604", "State": "MA"}, {"AddressLine1": "57 Valley St Apt 11", "City": "SPENCER", "PostalCode": "01562", "State": "MA"}, {"AddressLine1": "160 TRACY AVE    SOLAR", "City": "LYNN", "PostalCode": "01902", "State": "MA"}, {"AddressLine1": "109 ADAMS ST   COGEN", "City": "MALDEN", "PostalCode": "02148", "State": "MA"}, {"AddressLine1": "15 TREADWAY RD 3", "City": "DORCHESTER", "PostalCode": "02125", "State": "MA"}, {"AddressLine1": "12 Tucker St", "City": "DORCHESTER CENTER", "PostalCode": "02124", "State": "MA"}, {"AddressLine1": "8 Deerfield Dr", "City": "WALPOLE", "PostalCode": "02081", "State": "MA"}, {"AddressLine1": "736 Lynnfield St", "City": "LYNN", "PostalCode": "01904", "State": "MA"}, {"AddressLine1": "362 W Water St", "City": "ROCKLAND", "PostalCode": "02370", "State": "MA"}, {"AddressLine1": "63 MARSH HILL RD POLE 17 51", "City": "BRIMFIELD", "PostalCode": "01010", "State": "MA"}, {"AddressLine1": "5 1 2 HARRISON AVE FL 2 2ND", "City": "AMESBURY", "PostalCode": "01913", "State": "MA"}, {"AddressLine1": "9 GOV PEABODY RD", "City": "BILLERICA", "PostalCode": "01821", "State": "MA"}, {"AddressLine1": "29 Common St", "City": "WEYMOUTH", "PostalCode": "02188", "State": "MA"}, {"AddressLine1": "106 McCormick Rd", "City": "SPENCER", "PostalCode": "01562", "State": "MA"}, {"AddressLine1": "105 Killam Hill Rd", "City": "BOXFORD", "PostalCode": "01921", "State": "MA"}, {"AddressLine1": "47 WEBSTER ST APT  1", "City": "LYNN", "PostalCode": "01902", "State": "MA"}, {"AddressLine1": "51 Glenview Dr", "City": "WEST SPRINGFIELD", "PostalCode": "01089", "State": "MA"}, {"AddressLine1": "22  MCINTOSH DRBLDG B", "City": "AMHERST", "PostalCode": "01002", "State": "MA"}, {"AddressLine1": "80 Leisurewoods Dr", "City": "ROCKLAND", "PostalCode": "02370", "State": "MA"}, {"AddressLine1": "148 Quincy St", "City": "BROCKTON", "PostalCode": "02302", "State": "MA"}, {"AddressLine1": "45 Harrison Ave", "City": "SAUGUS", "PostalCode": "01906", "State": "MA"}, {"AddressLine1": "618 Broad St", "City": "WEYMOUTH", "PostalCode": "02189", "State": "MA"}, {"AddressLine1": "84 Larned Rd", "City": "OXFORD", "PostalCode": "01540", "State": "MA"}, {"AddressLine1": "168  SOUTHWOOD DRLOT 16", "City": "LUDLOW", "PostalCode": "01056", "State": "MA"}, {"AddressLine1": "118 Elijah St", "City": "SPRINGFIELD", "PostalCode": "01109", "State": "MA"}, {"AddressLine1": "30 Granite St", "City": "AVON", "PostalCode": "02322", "State": "MA"}, {"AddressLine1": "17 Seminole St", "City": "SAUGUS", "PostalCode": "01906", "State": "MA"}, {"AddressLine1": "8 MYSTIC AVE APT 2", "City": "MELROSE", "PostalCode": "02176", "State": "MA"}, {"AddressLine1": "178 CRAPO ST F1", "City": "NEW BEDFRD", "PostalCode": "02744", "State": "MA"}, {"AddressLine1": "37 Ord St", "City": "SALEM", "PostalCode": "01970", "State": "MA"}, {"AddressLine1": "110 Elm St", "City": "METHUEN", "PostalCode": "01844", "State": "MA"}, {"AddressLine1": "13 West St Apt 201", "City": "DOUGLAS", "PostalCode": "01516", "State": "MA"}, {"AddressLine1": "40 Windsor Rd", "City": "SANDWICH", "PostalCode": "02563", "State": "MA"}, {"AddressLine1": "130 CAPT-ELLIS LN", "City": "HYANNIS", "PostalCode": "02601", "State": "MA"}, {"AddressLine1": "43 Lucia Ave", "City": "REVERE", "PostalCode": "02151", "State": "MA"}, {"AddressLine1": "4 Pearson St Apt 3", "City": "SAUGUS", "PostalCode": "01906", "State": "MA"}, {"AddressLine1": "4 HOWE TER", "City": "DORCHESTER", "PostalCode": "02125", "State": "MA"}, {"AddressLine1": "36 HALLETT-HILL RD", "City": "WESTON", "PostalCode": "02493", "State": "MA"}, {"AddressLine1": "22 Liberty Hill Cir", "City": "ASHLAND", "PostalCode": "01721", "State": "MA"}, {"AddressLine1": "4 TURIN ST LOT 2", "City": "MILFORD", "PostalCode": "01757", "State": "MA"}, {"AddressLine1": "11 Spring St Apt S2", "City": "EVERETT", "PostalCode": "02149", "State": "MA"}, {"AddressLine1": "128 SOUTH ST", "City": "TEWKSBURY", "PostalCode": "01876", "State": "MA"}, {"AddressLine1": "269 Primrose Hill Rd", "City": "DRACUT", "PostalCode": "01826", "State": "MA"}, {"AddressLine1": "12 Theresa Rd", "City": "BROCKTON", "PostalCode": "02302", "State": "MA"}, {"AddressLine1": "1 Perry Pl", "City": "AUBURN", "PostalCode": "01501", "State": "MA"}, {"AddressLine1": "65 THIRD ST", "City": "NORTH ANDOVER", "PostalCode": "01845", "State": "MA"}, {"AddressLine1": "32 Kenwood Ave", "City": "SAUGUS", "PostalCode": "01906", "State": "MA"}, {"AddressLine1": "118 Atlantic St", "City": "GLOUCESTER", "PostalCode": "01930", "State": "MA"}, {"AddressLine1": "8 Country Club Rd", "City": "ROCKPORT", "PostalCode": "01966", "State": "MA"}, {"AddressLine1": "106  AMHERST ST", "City": "LUDLOW", "PostalCode": "01056", "State": "MA"}, {"AddressLine1": "26 Amos Dr", "City": "SPRINGFIELD", "PostalCode": "01118", "State": "MA"}, {"AddressLine1": "71 Will Scarlet Dr", "City": "BECKET", "PostalCode": "01223", "State": "MA"}, {"AddressLine1": "219  MIDDLE STDUPL LEFT", "City": "SPRINGFIELD", "PostalCode": "01104", "State": "MA"}, {"AddressLine1": "104  TECUMSEH DR", "City": "LONGMEADOW", "PostalCode": "01106", "State": "MA"}, {"AddressLine1": "98  SHELBURNE RD", "City": "GREENFIELD", "PostalCode": "01301", "State": "MA"}, {"AddressLine1": "464 RIVER RD FL 2", "City": "ANDOVER", "PostalCode": "01810", "State": "MA"}, {"AddressLine1": "947 Great Pond Rd", "City": "NORTH ANDOVER", "PostalCode": "01845", "State": "MA"}, {"AddressLine1": "7 Hamlet St", "City": "LAWRENCE", "PostalCode": "01843", "State": "MA"}, {"AddressLine1": "67 APPLE BLOSSOM LN LOT 9L9 POLE HH8 01", "City": "LYNN", "PostalCode": "01904", "State": "MA"}, {"AddressLine1": "335 W Hawley Rd", "City": "HAWLEY", "PostalCode": "01339", "State": "MA"}, {"AddressLine1": "1 University Ln", "City": "CHELMSFORD", "PostalCode": "01824", "State": "MA"}, {"AddressLine1": "29 PARK AVE LOT 29", "City": "STURBRIDGE", "PostalCode": "01566", "State": "MA"}, {"AddressLine1": "1 COURAGEOUS CT APT S505", "City": "SALEM", "PostalCode": "01970", "State": "MA"}, {"AddressLine1": "9 Brittania Cir", "City": "SALEM", "PostalCode": "01970", "State": "MA"}, {"AddressLine1": "642 Pinedale Ave", "City": "ATHOL", "PostalCode": "01331", "State": "MA"}, {"AddressLine1": "52 Summer St", "City": "ANDOVER", "PostalCode": "01810", "State": "MA"}, {"AddressLine1": "15 Fallon St", "City": "LAWRENCE", "PostalCode": "01843", "State": "MA"}, {"AddressLine1": "125 North St", "City": "BRIDGEWATER", "PostalCode": "02324", "State": "MA"}, {"AddressLine1": "26 Hawthorne St", "City": "MALDEN", "PostalCode": "02148", "State": "MA"}, {"AddressLine1": "10 Neck Rd", "City": "WARD HILL", "PostalCode": "01835", "State": "MA"}, {"AddressLine1": "6 Millbrook Rd", "City": "MENDON", "PostalCode": "01756", "State": "MA"}, {"AddressLine1": "33 Landing Dr", "City": "METHUEN", "PostalCode": "01844", "State": "MA"}, {"AddressLine1": "52 Washington Ave Fl 1", "City": "HAVERHILL", "PostalCode": "01832", "State": "MA"}, {"AddressLine1": "117 Hawthorn Ave", "City": "NEEDHAM", "PostalCode": "02492", "State": "MA"}, {"AddressLine1": "248 Mattapoisett Rd", "City": "ACUSHNET", "PostalCode": "02743", "State": "MA"}, {"AddressLine1": "553 COGGESHALL ST F1", "City": "NEW BEDFRD", "PostalCode": "02746", "State": "MA"}, {"AddressLine1": "27 Bradford Ter", "City": "LYNN", "PostalCode": "01905", "State": "MA"}, {"AddressLine1": "23 DUNHAM RD L58", "City": "ASSONET", "PostalCode": "02702", "State": "MA"}, {"AddressLine1": "40 Upland Rd", "City": "PLYMPTON", "PostalCode": "02367", "State": "MA"}, {"AddressLine1": "128 Hampshire Rd", "City": "METHUEN", "PostalCode": "01844", "State": "MA"}, {"AddressLine1": "30 W WIND ACRE", "City": "NORWELL", "PostalCode": "02061", "State": "MA"}, {"AddressLine1": "6 Parker St", "City": "ROCKPORT", "PostalCode": "01966", "State": "MA"}, {"AddressLine1": "1155 SAMOSET RD PUMP", "City": "EASTHAM", "PostalCode": "02642", "State": "MA"}, {"AddressLine1": "48 Walker Rd", "City": "MANCHESTER", "PostalCode": "01944", "State": "MA"}, {"AddressLine1": "190 High St Apt 312", "City": "MEDFORD", "PostalCode": "02155", "State": "MA"}, {"AddressLine1": "53 College Ave", "City": "MEDFORD", "PostalCode": "02155", "State": "MA"}, {"AddressLine1": "2 Redwing Pl", "City": "DENNISPORT", "PostalCode": "02639", "State": "MA"}, {"AddressLine1": "30 BAILEY RD    COGEN", "City": "ANDOVER", "PostalCode": "01810", "State": "MA"}, {"AddressLine1": "56 WARREN ST APT 1", "City": "FALL RIVER", "PostalCode": "02721", "State": "MA"}, {"AddressLine1": "73 Haddon Ave", "City": "FALMOUTH", "PostalCode": "02540", "State": "MA"}, {"AddressLine1": "8 Goodell St", "City": "LYNN", "PostalCode": "01902", "State": "MA"}, {"AddressLine1": "13 JARVES ST BLD MTR", "City": "SANDWICH", "PostalCode": "02563", "State": "MA"}, {"AddressLine1": "43 Main St", "City": "SANDWICH", "PostalCode": "02563", "State": "MA"}, {"AddressLine1": "57 KENNEBEC AVE", "City": "OAK BLUFFS", "PostalCode": "02557", "State": "MA"}, {"AddressLine1": "290 Clifton St", "City": "MALDEN", "PostalCode": "02148", "State": "MA"}, {"AddressLine1": "363 389 RANTOUL ST APT 104", "City": "BEVERLY", "PostalCode": "01915", "State": "MA"}, {"AddressLine1": "6 Rawson Rd Apt 2", "City": "ARLINGTON", "PostalCode": "02474", "State": "MA"}, {"AddressLine1": "23 Maryvale Rd", "City": "BURLINGTON", "PostalCode": "01803", "State": "MA"}, {"AddressLine1": "26 Kilby St", "City": "WOBURN", "PostalCode": "01801", "State": "MA"}, {"AddressLine1": "80 W-COTTAGE ST 1", "City": "DORCHESTER", "PostalCode": "02125", "State": "MA"}, {"AddressLine1": "10 OLD MERRILL ST POLE 62 5", "City": "SALISBURY", "PostalCode": "01952", "State": "MA"}, {"AddressLine1": "88 S Hampton Rd", "City": "AMESBURY", "PostalCode": "01913", "State": "MA"}, {"AddressLine1": "20 CODMAN-HILL AVE 2", "City": "DORCHESTER", "PostalCode": "02124", "State": "MA"}, {"AddressLine1": "6 KENT ST", "City": "CLINTON", "PostalCode": "01510", "State": "MA"}, {"AddressLine1": "6 LORING HILLS AVE APT B2", "City": "SALEM", "PostalCode": "01970", "State": "MA"}, {"AddressLine1": "1 Woodward St", "City": "NORTON", "PostalCode": "02766", "State": "MA"}, {"AddressLine1": "32 FELKER AVEPOLE 8   COGEN", "City": "TEWKSBURY", "PostalCode": "01876", "State": "MA"}, {"AddressLine1": "15 Christopher Rd", "City": "RANDOLPH", "PostalCode": "02368", "State": "MA"}, {"AddressLine1": "150 South St", "City": "NEEDHAM", "PostalCode": "02492", "State": "MA"}, {"AddressLine1": "7 Rowe Ave", "City": "ROCKPORT", "PostalCode": "01966", "State": "MA"}, {"AddressLine1": "9 Sevilla Rd", "City": "ANDOVER", "PostalCode": "01810", "State": "MA"}, {"AddressLine1": "15 Vine St", "City": "MANCHESTER", "PostalCode": "01944", "State": "MA"}, {"AddressLine1": "571 Lynn St", "City": "MALDEN", "PostalCode": "02148", "State": "MA"}, {"AddressLine1": "816 Gifford Rd", "City": "WESTPORT", "PostalCode": "02790", "State": "MA"}, {"AddressLine1": "19 COBBLESTONE WAY LOT 11", "City": "E SANDWICH", "PostalCode": "02537", "State": "MA"}, {"AddressLine1": "183 Ferry St", "City": "LAWRENCE", "PostalCode": "01841", "State": "MA"}, {"AddressLine1": "9 Garrison Way", "City": "CARLISLE", "PostalCode": "01741", "State": "MA"}]
