[{"AddressLine1": "602 ROCKFORD AVEAPT  2", "City": "DAYTON", "PostalCode": "45405", "State": "OH"}, {"AddressLine1": "6906 PALMETTO ST", "City": "CINCINNATI", "PostalCode": "45227", "State": "OH"}, {"AddressLine1": "2238 ASH RD", "City": "LOVELAND", "PostalCode": "45140", "State": "OH"}, {"AddressLine1": "3601 Hillstone Pl", "City": "DAYTON", "PostalCode": "45424", "State": "OH"}, {"AddressLine1": "346 Plyleys Ln", "City": "CHILLICOTHE", "PostalCode": "45601", "State": "OH"}, {"AddressLine1": "2221 Noe Bixby Rd", "City": "COLUMBUS", "PostalCode": "43232", "State": "OH"}, {"AddressLine1": "4662 Tamarack Blvd Apt C13", "City": "COLUMBUS", "PostalCode": "43229", "State": "OH"}, {"AddressLine1": "5822 Place de la Concorde St W", "City": "COLUMBUS", "PostalCode": "43229", "State": "OH"}, {"AddressLine1": "5368 Blue Bell Ct", "City": "GROVE CITY", "PostalCode": "43123", "State": "OH"}, {"AddressLine1": "2735 Allegheny Ave", "City": "BEXLEY", "PostalCode": "43209", "State": "OH"}, {"AddressLine1": "6351 Beaumont Sq", "City": "LEWIS CENTER", "PostalCode": "43035", "State": "OH"}, {"AddressLine1": "1049 Harmon Ave Lot C69", "City": "COLUMBUS", "PostalCode": "43223", "State": "OH"}, {"AddressLine1": "1308 Williamson Ave Apt 5B", "City": "NEW MATAMORAS", "PostalCode": "45767", "State": "OH"}, {"AddressLine1": "4844 Bay Grove Ct", "City": "GROVEPORT", "PostalCode": "43125", "State": "OH"}, {"AddressLine1": "5571 Endicott Ave", "City": "SCIOTOVILLE", "PostalCode": "45662", "State": "OH"}, {"AddressLine1": "1346 Luckee Ave", "City": "HEATH", "PostalCode": "43056", "State": "OH"}, {"AddressLine1": "777 LEX ONTARIO RD", "City": "MANSFIELD", "PostalCode": "44903", "State": "OH"}, {"AddressLine1": "160 Sycamore St", "City": "ADENA", "PostalCode": "43901", "State": "OH"}, {"AddressLine1": "343 W Fair Ave", "City": "LANCASTER", "PostalCode": "43130", "State": "OH"}, {"AddressLine1": "2752 Swallen Ave", "City": "LOUISVILLE", "PostalCode": "44641", "State": "OH"}, {"AddressLine1": "512 W Line St", "City": "MINERVA", "PostalCode": "44657", "State": "OH"}, {"AddressLine1": "160 Sycamore St", "City": "ADENA", "PostalCode": "43901", "State": "OH"}, {"AddressLine1": "20291 Priday Ave", "City": "EUCLID", "PostalCode": "44123", "State": "OH"}, {"AddressLine1": "806 Saint Annes Dr", "City": "HOLLAND", "PostalCode": "43528", "State": "OH"}, {"AddressLine1": "2917 Creekside Dr", "City": "WESTLAKE", "PostalCode": "44145", "State": "OH"}, {"AddressLine1": "88 MAY AVE", "City": "NORTHFIELD", "PostalCode": "44067", "State": "OH"}, {"AddressLine1": "850 MILLER SW ST", "City": "WARREN", "PostalCode": "44485", "State": "OH"}, {"AddressLine1": "10941 Vaughn Rd", "City": "HIRAM", "PostalCode": "44234", "State": "OH"}, {"AddressLine1": "830 SOUTHWESTERN RUN", "City": "POLAND", "PostalCode": "44514", "State": "OH"}, {"AddressLine1": "4682 WALFORD RD", "City": "WARRENSVILLE HEIGHTS", "PostalCode": "44128", "State": "OH"}, {"AddressLine1": "111 S Centennial Rd", "City": "HOLLAND", "PostalCode": "43528", "State": "OH"}, {"AddressLine1": "93 Avalon Dr", "City": "BEDFORD", "PostalCode": "44146", "State": "OH"}, {"AddressLine1": "905 National Ave", "City": "AKRON", "PostalCode": "44314", "State": "OH"}, {"AddressLine1": "1930 FOWL RD", "City": "ELYRIA", "PostalCode": "44035", "State": "OH"}, {"AddressLine1": "57 Halls Heights Ave", "City": "YOUNGSTOWN", "PostalCode": "44509", "State": "OH"}, {"AddressLine1": "593 Smith Ave Apt 2", "City": "XENIA", "PostalCode": "45385", "State": "OH"}, {"AddressLine1": "131 VOLKENAND ST", "City": "DAYTON", "PostalCode": "45410", "State": "OH"}, {"AddressLine1": "1536 UNION RD", "City": "XENIA", "PostalCode": "45385", "State": "OH"}, {"AddressLine1": "08215 MADDOX DR", "City": "WEST CHESTER", "PostalCode": "45069", "State": "OH"}, {"AddressLine1": "3138 MAYRIDGE CT", "City": "CINCINNATI", "PostalCode": "45211", "State": "OH"}, {"AddressLine1": "3615 Pendent Ln", "City": "COLUMBUS", "PostalCode": "43207", "State": "OH"}, {"AddressLine1": "1586 Hillcrest Ave", "City": "OBETZ", "PostalCode": "43207", "State": "OH"}, {"AddressLine1": "1944 Rocklake Ct", "City": "LEWIS CENTER", "PostalCode": "43035", "State": "OH"}, {"AddressLine1": "100 Whaley Pl Apt L", "City": "CHILLICOTHE", "PostalCode": "45601", "State": "OH"}, {"AddressLine1": "1135 Essex Dr", "City": "LIMA", "PostalCode": "45804", "State": "OH"}, {"AddressLine1": "210 PIGEON ALY E", "City": "LEESVILLE", "PostalCode": "44695", "State": "OH"}, {"AddressLine1": "12446 Dennis St Apt 10", "City": "PAULDING", "PostalCode": "45879", "State": "OH"}, {"AddressLine1": "17011 Road 105", "City": "CECIL", "PostalCode": "45821", "State": "OH"}, {"AddressLine1": "2612 Paradise Rd", "City": "ORRVILLE", "PostalCode": "44667", "State": "OH"}, {"AddressLine1": "3829 Beck Ave", "City": "LOUISVILLE", "PostalCode": "44641", "State": "OH"}, {"AddressLine1": "8464 Valleybrook St SE", "City": "EAST CANTON", "PostalCode": "44730", "State": "OH"}, {"AddressLine1": "9874 Beaver Pike", "City": "JACKSON", "PostalCode": "45640", "State": "OH"}, {"AddressLine1": "559 Keresan Trl", "City": "LIMA", "PostalCode": "45805", "State": "OH"}, {"AddressLine1": "1640 Cherry Ave NE", "City": " CANTON", "PostalCode": "44714", "State": "OH"}, {"AddressLine1": "2529 EMBREE RD", "City": "STOCKPORT", "PostalCode": "43787", "State": "OH"}, {"AddressLine1": "707 Saint Clair Ave Apt 25", "City": "EAST LIVERPOOL", "PostalCode": "43920", "State": "OH"}, {"AddressLine1": "530 E Sandusky St", "City": "FINDLAY", "PostalCode": "45840", "State": "OH"}, {"AddressLine1": "3666 LINDHOLM RD", "City": "SHAKER HEIGHTS", "PostalCode": "44120", "State": "OH"}, {"AddressLine1": "9042 Vista Dr", "City": "NORTH ROYALTON", "PostalCode": "44133", "State": "OH"}, {"AddressLine1": "945 East Ave", "City": "TALLMADGE", "PostalCode": "44278", "State": "OH"}, {"AddressLine1": "1689 E Sapphire Dr", "City": "HUDSON", "PostalCode": "44236", "State": "OH"}, {"AddressLine1": "5141 NEWTON FALLS RD", "City": "RAVENNA", "PostalCode": "44266", "State": "OH"}, {"AddressLine1": "915 Taylor Rd", "City": "SANDUSKY", "PostalCode": "44870", "State": "OH"}, {"AddressLine1": "208 Noble Ave", "City": "AKRON", "PostalCode": "44320", "State": "OH"}, {"AddressLine1": "4290 E 131st St", "City": "CLEVELAND", "PostalCode": "44105", "State": "OH"}, {"AddressLine1": "9190 SPRINGFIELD RD", "City": "YOUNGSTOWN", "PostalCode": "44514", "State": "OH"}, {"AddressLine1": "305 College Ave", "City": "ASHLAND", "PostalCode": "44805", "State": "OH"}, {"AddressLine1": "311 E Court St", "City": "SIDNEY", "PostalCode": "45365", "State": "OH"}, {"AddressLine1": "07473 VALLEYVIEW PL", "City": "CINCINNATI", "PostalCode": "45244", "State": "OH"}, {"AddressLine1": "506 Greenmanor Ct", "City": "DAYTON", "PostalCode": "45415", "State": "OH"}, {"AddressLine1": "00525 LOWELL", "City": "CINCINNATI", "PostalCode": "45220", "State": "OH"}, {"AddressLine1": "4692 Curundu Ave", "City": "DAYTON", "PostalCode": "45416", "State": "OH"}, {"AddressLine1": "1351 Oakdale Ave", "City": "DAYTON", "PostalCode": "45420", "State": "OH"}, {"AddressLine1": "08463 ANTHONY WAYNE", "City": "CINCINNATI", "PostalCode": "45216", "State": "OH"}, {"AddressLine1": "137 Jonquil St", "City": "DAYTON", "PostalCode": "45417", "State": "OH"}, {"AddressLine1": "3997 Mayview Dr", "City": "DAYTON", "PostalCode": "45416", "State": "OH"}, {"AddressLine1": "04602 MITCHELL W", "City": "CINCINNATI", "PostalCode": "45232", "State": "OH"}, {"AddressLine1": " 35 HOLLISTER W FL: 1", "City": "CINCINNATI", "PostalCode": "45219", "State": "OH"}, {"AddressLine1": "900 Cheltenham Pl", "City": "MAINEVILLE", "PostalCode": "45039", "State": "OH"}, {"AddressLine1": "6915 LESLEY LN", "City": "MIDDLETOWN", "PostalCode": "45042", "State": "OH"}, {"AddressLine1": "4096 Raft Ln", "City": "COLUMBUS", "PostalCode": "43207", "State": "OH"}, {"AddressLine1": "1574 Elizabeth St Apt A", "City": "BELPRE", "PostalCode": "45714", "State": "OH"}, {"AddressLine1": "5720 US HIGHWAY 50 TRLR", "City": "HILLSBORO", "PostalCode": "45133", "State": "OH"}, {"AddressLine1": "23084 State Route 93 S", "City": "LOGAN", "PostalCode": "43138", "State": "OH"}, {"AddressLine1": "527 S DREXEL AVE APT 12", "City": "BEXLEY", "PostalCode": "43209", "State": "OH"}, {"AddressLine1": "613 S MARKET ST APT A3", "City": "WAVERLY", "PostalCode": "45690", "State": "OH"}, {"AddressLine1": "10781 Sugar Creek Rd", "City": "HARROD", "PostalCode": "45850", "State": "OH"}, {"AddressLine1": "919 MONTICELLO PL", "City": "EAST LIVERPOOL", "PostalCode": "43920", "State": "OH"}, {"AddressLine1": "438 Lenwood Dr", "City": "LANCASTER", "PostalCode": "43130", "State": "OH"}, {"AddressLine1": "124 E Wood Ave", "City": "WEST LAFAYETTE", "PostalCode": "43845", "State": "OH"}, {"AddressLine1": "14674 Liberty Church St SE", "City": "MINERVA", "PostalCode": "44657", "State": "OH"}, {"AddressLine1": "2915 Tremont Cir NW", "City": "CANTON", "PostalCode": "44708", "State": "OH"}, {"AddressLine1": "57 Neal Ave", "City": "NEWARK", "PostalCode": "43055", "State": "OH"}, {"AddressLine1": "330 Water St Lot 13", "City": "SHREVE", "PostalCode": "44676", "State": "OH"}, {"AddressLine1": "670 Broadview Cir", "City": "EAST LIVERPOOL", "PostalCode": "43920", "State": "OH"}, {"AddressLine1": "2139 PEBBLE CREEK DR", "City": "TWINSBURG", "PostalCode": "44087", "State": "OH"}, {"AddressLine1": "773 Shoshone Ave", "City": "AKRON", "PostalCode": "44305", "State": "OH"}, {"AddressLine1": "25370 Drakefield Ave", "City": "EUCLID", "PostalCode": "44132", "State": "OH"}, {"AddressLine1": "4459 STATE ROUTE 13", "City": "SHILOH", "PostalCode": "44878", "State": "OH"}, {"AddressLine1": "639 Morningview Ave", "City": "AKRON", "PostalCode": "44305", "State": "OH"}, {"AddressLine1": "34448 Frances St", "City": "NORTH RIDGEVILLE", "PostalCode": "44039", "State": "OH"}, {"AddressLine1": "17958 Short St", "City": "BELOIT", "PostalCode": "44609", "State": "OH"}, {"AddressLine1": "933 Garfield St", "City": "AKRON", "PostalCode": "44310", "State": "OH"}, {"AddressLine1": "10121 Woodstock Dr", "City": "CINCINNATI", "PostalCode": "45215", "State": "OH"}, {"AddressLine1": "1351 Pursell Ave", "City": "DAYTON", "PostalCode": "45420", "State": "OH"}, {"AddressLine1": "2792 Millbank Row", "City": "MAINEVILLE", "PostalCode": "45039", "State": "OH"}, {"AddressLine1": "3910 Alkire Rd", "City": "GROVE CITY", "PostalCode": "43123", "State": "OH"}, {"AddressLine1": "6527 Blain Hwy", "City": "CHILLICOTHE", "PostalCode": "45601", "State": "OH"}, {"AddressLine1": "222 KLEE CTAPT  D", "City": "DAYTON", "PostalCode": "45403", "State": "OH"}, {"AddressLine1": "6758 DARBY BLVD", "City": "GROVE CITY", "PostalCode": "43123", "State": "OH"}, {"AddressLine1": "72 Hildegarten St", "City": "CHILLICOTHE", "PostalCode": "45601", "State": "OH"}, {"AddressLine1": "3274 Dunloe Rd", "City": "COLUMBUS", "PostalCode": "43232", "State": "OH"}, {"AddressLine1": "602 Howard St", "City": "BRIDGEPORT", "PostalCode": "43912", "State": "OH"}, {"AddressLine1": "215 Spring St", "City": "AKRON", "PostalCode": "44304", "State": "OH"}, {"AddressLine1": "4088 Chalmette Dr", "City": "DAYTON", "PostalCode": "45440", "State": "OH"}, {"AddressLine1": "1272 Bunker Hill Blvd Apt 202", "City": "COLUMBUS", "PostalCode": "43220", "State": "OH"}, {"AddressLine1": "5303 Ruth Amy Ave", "City": "WESTERVILLE", "PostalCode": "43081", "State": "OH"}, {"AddressLine1": "2714 Buckeye Church Rd", "City": "JACKSON", "PostalCode": "45640", "State": "OH"}, {"AddressLine1": "381 Buck Ridge Rd Apt 64", "City": "BIDWELL", "PostalCode": "45614", "State": "OH"}, {"AddressLine1": "3816 Snap Dragon Dr", "City": "COLUMBUS", "PostalCode": "43207", "State": "OH"}, {"AddressLine1": "1670 Lakeview Dr Apt D", "City": "NEWARK", "PostalCode": "43055", "State": "OH"}, {"AddressLine1": "503 MORGANTOWN EXT APT 104", "City": "BARNESVILLE", "PostalCode": "43713", "State": "OH"}, {"AddressLine1": "4655 Township Road 177", "City": "RAYLAND", "PostalCode": "43943", "State": "OH"}, {"AddressLine1": "210 S Pershing Dr Apt E", "City": "LANCASTER", "PostalCode": "43130", "State": "OH"}, {"AddressLine1": "141 STARKDALE RD", "City": "WINTERSVILLE", "PostalCode": "43953", "State": "OH"}, {"AddressLine1": "215 S Harrison St", "City": "VAN WERT", "PostalCode": "45891", "State": "OH"}, {"AddressLine1": "1281 E 142ND ST", "City": "EAST CLEVELAND", "PostalCode": "44112", "State": "OH"}, {"AddressLine1": "10349 The Bend Rd", "City": "DEFIANCE", "PostalCode": "43512", "State": "OH"}, {"AddressLine1": "5331 FLEET RD", "City": "TOLEDO", "PostalCode": "43615", "State": "OH"}, {"AddressLine1": "1354 E 123rd St", "City": "CLEVELAND", "PostalCode": "44106", "State": "OH"}, {"AddressLine1": "710 ASHLAND RD", "City": "MANSFIELD", "PostalCode": "44905", "State": "OH"}, {"AddressLine1": "13474 Puritas Ave", "City": "CLEVELAND", "PostalCode": "44135", "State": "OH"}, {"AddressLine1": "1624 E 94th St", "City": "CLEVELAND", "PostalCode": "44106", "State": "OH"}, {"AddressLine1": "347 LAIRD SE AVE", "City": "WARREN", "PostalCode": "44483", "State": "OH"}, {"AddressLine1": "1785 STATE ROUTE 28", "City": "GOSHEN", "PostalCode": "45122", "State": "OH"}, {"AddressLine1": "410 S Central Ave", "City": "COLUMBUS", "PostalCode": "43223", "State": "OH"}, {"AddressLine1": "4308 Vineshire Dr", "City": "COLUMBUS", "PostalCode": "43227", "State": "OH"}, {"AddressLine1": "900 N West St", "City": "LIMA", "PostalCode": "45801", "State": "OH"}, {"AddressLine1": "405 Bedford Ave NW", "City": " CANTON", "PostalCode": "44708", "State": "OH"}, {"AddressLine1": "7489 WAYNESBURG DR SE", "City": "WAYNESBURG", "PostalCode": "44688", "State": "OH"}, {"AddressLine1": "640 E 349th St", "City": "EASTLAKE", "PostalCode": "44095", "State": "OH"}, {"AddressLine1": "296 Fairfield Rd", "City": "PAINESVILLE", "PostalCode": "44077", "State": "OH"}, {"AddressLine1": "10922 Orrville St NW", "City": "MASSILLON", "PostalCode": "44647", "State": "OH"}, {"AddressLine1": "472 Manning Rd", "City": "MOGADORE", "PostalCode": "44260", "State": "OH"}, {"AddressLine1": "17210 Melgrave Ave", "City": "CLEVELAND", "PostalCode": "44135", "State": "OH"}, {"AddressLine1": "1368 East Ave", "City": "ELYRIA", "PostalCode": "44035", "State": "OH"}, {"AddressLine1": "665 E Church St", "City": "MARION", "PostalCode": "43302", "State": "OH"}, {"AddressLine1": "697 Woodlawn Rd", "City": "CHARDON", "PostalCode": "44024", "State": "OH"}, {"AddressLine1": "10680 DAWSON DR", "City": "CHAGRIN FALLS", "PostalCode": "44023", "State": "OH"}, {"AddressLine1": "4066 Harwood Rd", "City": "SOUTH EUCLID", "PostalCode": "44121", "State": "OH"}, {"AddressLine1": "111 Hampshire Dr", "City": "EATON", "PostalCode": "45320", "State": "OH"}, {"AddressLine1": "3318 Earlham Dr", "City": "DAYTON", "PostalCode": "45406", "State": "OH"}, {"AddressLine1": "983 VASSAR CT", "City": "FAIRFIELD", "PostalCode": "45014", "State": "OH"}, {"AddressLine1": "1615 CHASE AVE", "City": "CINCINNATI", "PostalCode": "45223", "State": "OH"}, {"AddressLine1": "198 Marietta Rd", "City": "NELSONVILLE", "PostalCode": "45764", "State": "OH"}, {"AddressLine1": "7663 Foxboro Ln", "City": "COLUMBUS", "PostalCode": "43235", "State": "OH"}, {"AddressLine1": "41152 Heather Ln Apt 16", "City": "FLUSHING", "PostalCode": "43977", "State": "OH"}, {"AddressLine1": "1866 N Sandusky Ave", "City": "BUCYRUS", "PostalCode": "44820", "State": "OH"}, {"AddressLine1": "904 Lincoln Ave", "City": "FOSTORIA", "PostalCode": "44830", "State": "OH"}, {"AddressLine1": "28017 Starr Route Rd", "City": "LOGAN", "PostalCode": "43138", "State": "OH"}, {"AddressLine1": "74 Private Drive 9260 Apt 3", "City": "SOUTH POINT", "PostalCode": "45680", "State": "OH"}, {"AddressLine1": "3523 E 80th St", "City": "CLEVELAND", "PostalCode": "44105", "State": "OH"}, {"AddressLine1": "10540 CAROUSEL WOODS", "City": "NEW MIDDLETOWN", "PostalCode": "44442", "State": "OH"}, {"AddressLine1": "205 SHAWNEE PTH", "City": "AKRON", "PostalCode": "44305", "State": "OH"}, {"AddressLine1": "4960 Patricia Dr", "City": "AKRON", "PostalCode": "44319", "State": "OH"}, {"AddressLine1": "120 NORTH AVE", "City": "TALLMADGE", "PostalCode": "44278", "State": "OH"}, {"AddressLine1": "425 Evans Rd", "City": "MARION", "PostalCode": "43302", "State": "OH"}, {"AddressLine1": "2228 E 97th St", "City": "CLEVELAND", "PostalCode": "44106", "State": "OH"}, {"AddressLine1": "38260 TAMARAC BLVD", "City": "WILLOUGHBY", "PostalCode": "44094", "State": "OH"}, {"AddressLine1": "5020 US Highway 42", "City": "MOUNT GILEAD", "PostalCode": "43338", "State": "OH"}, {"AddressLine1": "335 S Walnut Ave", "City": "SIDNEY", "PostalCode": "45365", "State": "OH"}, {"AddressLine1": "00121 RIDGE DR", "City": "FAIRFIELD", "PostalCode": "45014", "State": "OH"}, {"AddressLine1": "3258 MCCALL ST", "City": "DAYTON", "PostalCode": "45417", "State": "OH"}, {"AddressLine1": "4931 N ARBOR WOODS CT", "City": "CINCINNATI", "PostalCode": "45248", "State": "OH"}, {"AddressLine1": "3310 LEHMAN RD", "City": "CINCINNATI", "PostalCode": "45205", "State": "OH"}, {"AddressLine1": "6795 Summer Field Dr", "City": "MASON", "PostalCode": "45040", "State": "OH"}, {"AddressLine1": "00655 NEAVE", "City": "CINCINNATI", "PostalCode": "45204", "State": "OH"}, {"AddressLine1": "425 Ringwald St", "City": "CHILLICOTHE", "PostalCode": "45601", "State": "OH"}, {"AddressLine1": "5009 DEER FOREST PL", "City": "WESTERVILLE", "PostalCode": "43081", "State": "OH"}, {"AddressLine1": "2010 Beech Rock Cir Apt A", "City": "ZANESVILLE", "PostalCode": "43701", "State": "OH"}, {"AddressLine1": "336 E 3rd St", "City": "LIMA", "PostalCode": "45804", "State": "OH"}, {"AddressLine1": "11209 STATE ROUTE 12", "City": "COLUMBUS GROVE", "PostalCode": "45830", "State": "OH"}, {"AddressLine1": "204 N 1ST STSTOVER BLG", "City": "OAKWOOD", "PostalCode": "45873", "State": "OH"}, {"AddressLine1": "615 FAIRGROUND ST", "City": "CALDWELL", "PostalCode": "43724", "State": "OH"}, {"AddressLine1": "7607 N SARASOTA DR", "City": "PARMA", "PostalCode": "44134", "State": "OH"}, {"AddressLine1": "15720 Birchcroft Dr", "City": "BROOK PARK", "PostalCode": "44142", "State": "OH"}, {"AddressLine1": "125 LABELLE AVE", "City": "YOUNGSTOWN", "PostalCode": "44507", "State": "OH"}, {"AddressLine1": "206 N Greenmount Ave", "City": "SPRINGFIELD", "PostalCode": "45503", "State": "OH"}, {"AddressLine1": "1708 Karg Dr", "City": "AKRON", "PostalCode": "44313", "State": "OH"}, {"AddressLine1": "2215 7th St SW", "City": "AKRON", "PostalCode": "44314", "State": "OH"}, {"AddressLine1": "732 BROAD-OAK DR", "City": "DAYTON", "PostalCode": "45426", "State": "OH"}, {"AddressLine1": "1110 Stillcreek Dr", "City": "DAYTON", "PostalCode": "45458", "State": "OH"}, {"AddressLine1": "7217 CREEKVIEW DR", "City": "CINCINNATI", "PostalCode": "45247", "State": "OH"}, {"AddressLine1": "1402 WITTEKIND TER", "City": "CINCINNATI", "PostalCode": "45224", "State": "OH"}, {"AddressLine1": "5034 US HIGHWAY 52", "City": "RIPLEY", "PostalCode": "45167", "State": "OH"}, {"AddressLine1": "97 N Sandusky St", "City": "TIFFIN", "PostalCode": "44883", "State": "OH"}, {"AddressLine1": "812 Charles St", "City": "WILLOWICK", "PostalCode": "44095", "State": "OH"}, {"AddressLine1": "2018 Lorena Ave", "City": "AKRON", "PostalCode": "44313", "State": "OH"}, {"AddressLine1": "1018 Grandview Ave", "City": "NEW MATAMORAS", "PostalCode": "45767", "State": "OH"}, {"AddressLine1": "10755 STATE ROUTE 139 APT A", "City": "MINFORD", "PostalCode": "45653", "State": "OH"}, {"AddressLine1": "6061 Horton Rd", "City": "CONNEAUT", "PostalCode": "44030", "State": "OH"}, {"AddressLine1": "4486 Wolf Rd", "City": "DAYTON", "PostalCode": "45416", "State": "OH"}, {"AddressLine1": "5431 Sherry Ln", "City": "FAIRFIELD", "PostalCode": "45014", "State": "OH"}, {"AddressLine1": "2586 Symington Ave", "City": "COLUMBUS", "PostalCode": "43204", "State": "OH"}, {"AddressLine1": "2684 Creekwillow Pl", "City": "GROVE CITY", "PostalCode": "43123", "State": "OH"}, {"AddressLine1": "1652 Melrose Ave", "City": "COLUMBUS", "PostalCode": "43224", "State": "OH"}, {"AddressLine1": "719 Wedgewood Dr", "City": "FINDLAY", "PostalCode": "45840", "State": "OH"}, {"AddressLine1": "FRAMOR MOBILE HOME PARK LOT 9", "City": "CROOKSVILLE", "PostalCode": "43731", "State": "OH"}, {"AddressLine1": "1408 E Wheeling St", "City": "LANCASTER", "PostalCode": "43130", "State": "OH"}, {"AddressLine1": "1333 Valley Dr NW", "City": "NORTH CANTON", "PostalCode": "44720", "State": "OH"}, {"AddressLine1": "2900 Lilly Dr", "City": "LIMA", "PostalCode": "45807", "State": "OH"}, {"AddressLine1": "115 Poplar St", "City": "N BALTIMORE", "PostalCode": "45872", "State": "OH"}, {"AddressLine1": "3315 Limerick Rd", "City": "CLYDE", "PostalCode": "43410", "State": "OH"}, {"AddressLine1": "2320 N FULTON LUCAS RD", "City": "SWANTON", "PostalCode": "43558", "State": "OH"}, {"AddressLine1": "1318 Yates St", "City": "TOLEDO", "PostalCode": "43608", "State": "OH"}, {"AddressLine1": "1285 E 135th St", "City": "EAST CLEVELAND", "PostalCode": "44112", "State": "OH"}, {"AddressLine1": "34441 BEACHPARK DR", "City": "EASTLAKE", "PostalCode": "44095", "State": "OH"}, {"AddressLine1": "3548 Orchard Dr", "City": "STOW", "PostalCode": "44224", "State": "OH"}, {"AddressLine1": "819 Rex Blvd NW", "City": "WARREN", "PostalCode": "44483", "State": "OH"}, {"AddressLine1": "4224 Southern Blvd", "City": "YOUNGSTOWN", "PostalCode": "44512", "State": "OH"}, {"AddressLine1": "1404 Ford Rd", "City": "ELYRIA", "PostalCode": "44035", "State": "OH"}, {"AddressLine1": "403 W Appleton Ter", "City": "HOLLAND", "PostalCode": "43528", "State": "OH"}, {"AddressLine1": "750 KING ST", "City": "MANSFIELD", "PostalCode": "44903", "State": "OH"}, {"AddressLine1": "5601 MONTG-SQ DRAPT  204", "City": "DAYTON", "PostalCode": "45440", "State": "OH"}, {"AddressLine1": "136 Colgate Ave", "City": "DAYTON", "PostalCode": "45417", "State": "OH"}, {"AddressLine1": "4568 ELIZABETH ST", "City": "CINCINNATI", "PostalCode": "45242", "State": "OH"}, {"AddressLine1": "3027 David Ct", "City": "COLUMBUS", "PostalCode": "43224", "State": "OH"}, {"AddressLine1": "6132 Inishmore Ln", "City": "DUBLIN", "PostalCode": "43017", "State": "OH"}, {"AddressLine1": "370 Sheridan St", "City": "ZANESVILLE", "PostalCode": "43701", "State": "OH"}, {"AddressLine1": "1045 LAKE VIEW DR", "City": "ZANESVILLE", "PostalCode": "43701", "State": "OH"}, {"AddressLine1": "109 S Butler St", "City": "BALTIC", "PostalCode": "43804", "State": "OH"}, {"AddressLine1": "6267 Market Ave N", "City": " CANTON", "PostalCode": "44721", "State": "OH"}, {"AddressLine1": "296 JULIEN CT", "City": "AKRON", "PostalCode": "44310", "State": "OH"}, {"AddressLine1": "11409 Methyl Ave", "City": "CLEVELAND", "PostalCode": "44120", "State": "OH"}, {"AddressLine1": "569 Hemlock Dr", "City": "EUCLID", "PostalCode": "44132", "State": "OH"}, {"AddressLine1": "34018 Victor Dr", "City": "EASTLAKE", "PostalCode": "44095", "State": "OH"}, {"AddressLine1": "782 Saxon Ave", "City": "AKRON", "PostalCode": "44314", "State": "OH"}, {"AddressLine1": "6347 W Calla Rd", "City": "CANFIELD", "PostalCode": "44406", "State": "OH"}, {"AddressLine1": "2542 Nesmith Lake Blvd", "City": "AKRON", "PostalCode": "44314", "State": "OH"}, {"AddressLine1": "362 Harker St", "City": "MANSFIELD", "PostalCode": "44903", "State": "OH"}, {"AddressLine1": "1857 Grantham Rd", "City": "CLEVELAND", "PostalCode": "44112", "State": "OH"}, {"AddressLine1": "208 E BRUCE AVEAPT  3", "City": "DAYTON", "PostalCode": "45405", "State": "OH"}, {"AddressLine1": "323 MARCHMONT DR", "City": "FAIRBORN", "PostalCode": "45324", "State": "OH"}, {"AddressLine1": "4721 Derwent Dr", "City": "DAYTON", "PostalCode": "45431", "State": "OH"}, {"AddressLine1": "6994 Haines Ave", "City": "CINCINNATI", "PostalCode": "45227", "State": "OH"}, {"AddressLine1": "5232 COLLEGE CORNER PIKE", "City": "OXFORD", "PostalCode": "45056", "State": "OH"}, {"AddressLine1": "7234 CREEKVIEW DR", "City": "CINCINNATI", "PostalCode": "45247", "State": "OH"}, {"AddressLine1": "244 Smith Ave SW", "City": " CANTON", "PostalCode": "44706", "State": "OH"}, {"AddressLine1": "4826 SWAUGER VALLEY RD", "City": "PORTSMOUTH", "PostalCode": "45662", "State": "OH"}, {"AddressLine1": "2445 Franciscan St NE", "City": " CANTON", "PostalCode": "44705", "State": "OH"}, {"AddressLine1": "2 W MAIN ST", "City": "SPARTA", "PostalCode": "43350", "State": "OH"}, {"AddressLine1": "145 Mount Marie Ave NW", "City": " CANTON", "PostalCode": "44708", "State": "OH"}, {"AddressLine1": "1784 Normandy Dr Apt 103", "City": "WOOSTER", "PostalCode": "44691", "State": "OH"}, {"AddressLine1": "856 Liberty St", "City": "FINDLAY", "PostalCode": "45840", "State": "OH"}, {"AddressLine1": "29148 CRAMER ST", "City": "MILLBURY", "PostalCode": "43447", "State": "OH"}, {"AddressLine1": "4727 Elizabeth Ln", "City": "BROOKLYN", "PostalCode": "44144", "State": "OH"}, {"AddressLine1": "12805 Parkhill Ave", "City": "CLEVELAND", "PostalCode": "44120", "State": "OH"}, {"AddressLine1": "1528 Holmden Rd", "City": "SOUTH EUCLID", "PostalCode": "44121", "State": "OH"}, {"AddressLine1": "1307 FORD RD", "City": "LYNDHURST", "PostalCode": "44124", "State": "OH"}, {"AddressLine1": "2086 Swartz Rd", "City": "MOGADORE", "PostalCode": "44260", "State": "OH"}, {"AddressLine1": "27450 EUCLID AVE", "City": "EUCLID", "PostalCode": "44132", "State": "OH"}, {"AddressLine1": "1603 Glenwood Ave", "City": "YOUNGSTOWN", "PostalCode": "44511", "State": "OH"}, {"AddressLine1": "3149 Fenmore Ln", "City": "AURORA", "PostalCode": "44202", "State": "OH"}, {"AddressLine1": "660 HEMLOCK DR", "City": "EUCLID", "PostalCode": "44132", "State": "OH"}, {"AddressLine1": "10430 AIRPORT HWY", "City": "SWANTON", "PostalCode": "43558", "State": "OH"}, {"AddressLine1": "9120 Amsterdam Rd", "City": "ANNA", "PostalCode": "45302", "State": "OH"}, {"AddressLine1": "85 Cottonwood Dr", "City": "MARYSVL", "PostalCode": "43040", "State": "OH"}, {"AddressLine1": "9135 West Rd", "City": "CLEVES", "PostalCode": "45002", "State": "OH"}, {"AddressLine1": "6714 DEVONWOOD DR", "City": "CINCINNATI", "PostalCode": "45224", "State": "OH"}, {"AddressLine1": "11733 Hanover Rd", "City": "CINCINNATI", "PostalCode": "45240", "State": "OH"}, {"AddressLine1": "6941 Hamilton Mason Rd", "City": "WEST CHESTER", "PostalCode": "45069", "State": "OH"}, {"AddressLine1": "5053 MOSIMAN RD", "City": "MIDDLETOWN", "PostalCode": "45042", "State": "OH"}, {"AddressLine1": "125 SYLVAN WAY", "City": "MARIETTA", "PostalCode": "45750", "State": "OH"}, {"AddressLine1": "4604 Collingville Way", "City": "GAHANNA", "PostalCode": "43230", "State": "OH"}, {"AddressLine1": "1546 Florence Ave", "City": "IRONTON", "PostalCode": "45638", "State": "OH"}, {"AddressLine1": "215 Arn Ave", "City": "TILTONSVILLE", "PostalCode": "43963", "State": "OH"}, {"AddressLine1": "52407 County Road 16", "City": "WEST LAFAYETTE", "PostalCode": "43845", "State": "OH"}, {"AddressLine1": "20617 Road 82", "City": "PAULDING", "PostalCode": "45879", "State": "OH"}, {"AddressLine1": "9161 Leopard Rd NW", "City": "MALVERN", "PostalCode": "44644", "State": "OH"}, {"AddressLine1": "2560 Redtail Ct", "City": "TWINSBURG", "PostalCode": "44087", "State": "OH"}, {"AddressLine1": "7851 N Boyden Rd", "City": "NORTHFIELD", "PostalCode": "44067", "State": "OH"}, {"AddressLine1": "2533 E 34th St", "City": "LORAIN", "PostalCode": "44055", "State": "OH"}, {"AddressLine1": "891 STONE CROSSING", "City": "SPRINGFIELD", "PostalCode": "45503", "State": "OH"}, {"AddressLine1": "6260 PEARL RD", "City": "PARMA HEIGHTS", "PostalCode": "44130", "State": "OH"}, {"AddressLine1": "216 Homer St", "City": "MARION", "PostalCode": "43302", "State": "OH"}, {"AddressLine1": "87 Corwin St", "City": "NORWALK", "PostalCode": "44857", "State": "OH"}, {"AddressLine1": "1111 Burleigh Ave", "City": "DAYTON", "PostalCode": "45402", "State": "OH"}, {"AddressLine1": "1795 HOCKER DRAPT  11", "City": "NEW CARLSL", "PostalCode": "45344", "State": "OH"}, {"AddressLine1": "02960 HIGHFOREST LN", "City": "CINCINNATI", "PostalCode": "45223", "State": "OH"}, {"AddressLine1": "6115 Coffin Station Rd", "City": "URBANA", "PostalCode": "43078", "State": "OH"}, {"AddressLine1": "08710 ST RT 123", "City": "BLANCHESTER", "PostalCode": "45107", "State": "OH"}, {"AddressLine1": "10681 Toulon Dr", "City": "CINCINNATI", "PostalCode": "45240", "State": "OH"}, {"AddressLine1": "2618 STANTON AVE", "City": "CINCINNATI", "PostalCode": "45206", "State": "OH"}, {"AddressLine1": "7331 CHARTER CUP LN", "City": "WEST CHESTER", "PostalCode": "45069", "State": "OH"}, {"AddressLine1": "4901 Powell Rd", "City": "HUBER HTS", "PostalCode": "45424", "State": "OH"}, {"AddressLine1": "703 E WEISHEIMER RD", "City": "COLUMBUS", "PostalCode": "43214", "State": "OH"}, {"AddressLine1": "189 N Harris Ave", "City": "COLUMBUS", "PostalCode": "43204", "State": "OH"}, {"AddressLine1": "2015 GERMANY HOLLOW RD", "City": "WHEELERSBURG", "PostalCode": "45694", "State": "OH"}, {"AddressLine1": "2015 GERMANY HOLLOW RD BARN", "City": "WHEELERSBURG", "PostalCode": "45694", "State": "OH"}, {"AddressLine1": "483 S Ashburton Rd Apt A", "City": "COLUMBUS", "PostalCode": "43213", "State": "OH"}]
