[{"AddressLine1": "1109 Ravine Ridge Dr", "City": "WORTHINGTON", "PostalCode": "43085", "State": "OH"}, {"AddressLine1": "3227 Oak Spring St", "City": "COLUMBUS", "PostalCode": "43219", "State": "OH"}, {"AddressLine1": "1395 N McClure Rd", "City": "LIMA", "PostalCode": "45801", "State": "OH"}, {"AddressLine1": "343 Jefferson St", "City": "TIFFIN", "PostalCode": "44883", "State": "OH"}, {"AddressLine1": "605 E Benita Dr", "City": "MINGO JUNCTION", "PostalCode": "43938", "State": "OH"}, {"AddressLine1": "7910 Buttonshoe Ave NW", "City": "NORTH CANTON", "PostalCode": "44720", "State": "OH"}, {"AddressLine1": "709 Township Road 115", "City": "RAYLAND", "PostalCode": "43943", "State": "OH"}, {"AddressLine1": "908 Rebecca St", "City": "WOOSTER", "PostalCode": "44691", "State": "OH"}, {"AddressLine1": "616 N 5th St", "City": "STEUBENVILLE", "PostalCode": "43952", "State": "OH"}, {"AddressLine1": "203 W Elm St", "City": "GRANVILLE", "PostalCode": "43023", "State": "OH"}, {"AddressLine1": "14680 LIBERTY CHURCH ST SE APT A", "City": "MINERVA", "PostalCode": "44657", "State": "OH"}, {"AddressLine1": "9224 State Route 139", "City": "MINFORD", "PostalCode": "45653", "State": "OH"}, {"AddressLine1": "13867 State Rd", "City": "VAN WERT", "PostalCode": "45891", "State": "OH"}, {"AddressLine1": "70 Bent Tree Dr Apt 1C", "City": "FAIRFIELD", "PostalCode": "45014", "State": "OH"}, {"AddressLine1": "2255 E DAVID RDAPT  C", "City": "DAYTON", "PostalCode": "45440", "State": "OH"}, {"AddressLine1": "250 E 320th St", "City": "WILLOWICK", "PostalCode": "44095", "State": "OH"}, {"AddressLine1": "6389 W 54th St", "City": "PARMA", "PostalCode": "44129", "State": "OH"}, {"AddressLine1": "1014 N Clink Blvd", "City": "CRESTLINE", "PostalCode": "44827", "State": "OH"}, {"AddressLine1": "400 W Laclede Ave", "City": "YOUNGSTOWN", "PostalCode": "44507", "State": "OH"}, {"AddressLine1": "1021 Coventry Ave", "City": "TOLEDO", "PostalCode": "43607", "State": "OH"}, {"AddressLine1": "21 W Euclid Ave", "City": "SPRINGFIELD", "PostalCode": "45506", "State": "OH"}, {"AddressLine1": "1327 Carol Dr", "City": "KENT", "PostalCode": "44240", "State": "OH"}, {"AddressLine1": "667 Columbia Ave", "City": "AKRON", "PostalCode": "44310", "State": "OH"}, {"AddressLine1": "6796 LAKE RD", "City": "GENEVA", "PostalCode": "44041", "State": "OH"}, {"AddressLine1": "901 Marks Rd Apt D", "City": "BRUNSWICK", "PostalCode": "44212", "State": "OH"}, {"AddressLine1": "216 KLEE CT", "City": "DAYTON", "PostalCode": "45403", "State": "OH"}, {"AddressLine1": "220 GREENWOOD BLVD#    5B", "City": "MARYSVL", "PostalCode": "43040", "State": "OH"}, {"AddressLine1": "2946 State Route 131", "City": "BATAVIA", "PostalCode": "45103", "State": "OH"}, {"AddressLine1": "7925 RAMBLE VW", "City": "CINCINNATI", "PostalCode": "45231", "State": "OH"}, {"AddressLine1": "6891 BRIDGETOWN RD", "City": "CINCINNATI", "PostalCode": "45248", "State": "OH"}, {"AddressLine1": "5702 Ludington Dr", "City": "LEWIS CENTER", "PostalCode": "43035", "State": "OH"}, {"AddressLine1": "6939 STATE ROUTE 73", "City": "OTWAY", "PostalCode": "45657", "State": "OH"}, {"AddressLine1": "47 E 12th Ave", "City": "COLUMBUS", "PostalCode": "43201", "State": "OH"}, {"AddressLine1": "112 Shawn Ct", "City": "GRANVILLE", "PostalCode": "43023", "State": "OH"}, {"AddressLine1": "14835 EUCLID AVE", "City": "EAST CLEVELAND", "PostalCode": "44112", "State": "OH"}, {"AddressLine1": "277 Lake St", "City": "AKRON", "PostalCode": "44301", "State": "OH"}, {"AddressLine1": "5603 CREEK VIEW CT", "City": "MILFORD", "PostalCode": "45150", "State": "OH"}, {"AddressLine1": "4477 W 150th St", "City": "CLEVELAND", "PostalCode": "44135", "State": "OH"}, {"AddressLine1": "5906 Homedale St", "City": "DAYTON", "PostalCode": "45449", "State": "OH"}, {"AddressLine1": "2990 Pinecone Ln", "City": "COLUMBUS", "PostalCode": "43231", "State": "OH"}, {"AddressLine1": "1831 Fleming Rd", "City": "COLUMBUS", "PostalCode": "43232", "State": "OH"}, {"AddressLine1": "503 SHERMAN PARK", "City": "CHILLICOTHE", "PostalCode": "45601", "State": "OH"}, {"AddressLine1": "1100 Jett Hill Rd", "City": "RENO", "PostalCode": "45773", "State": "OH"}, {"AddressLine1": "101 Arborgate Dr", "City": "MARIETTA", "PostalCode": "45750", "State": "OH"}, {"AddressLine1": "2213 Courtside Dr", "City": "COLUMBUS", "PostalCode": "43232", "State": "OH"}, {"AddressLine1": "1114 Cooks Hill Rd", "City": "CHILLICOTHE", "PostalCode": "45601", "State": "OH"}, {"AddressLine1": "11421 NORTH DRTRLR", "City": "ST MARYS", "PostalCode": "45885", "State": "OH"}, {"AddressLine1": "6480 Mickelson Ln", "City": "LIMA", "PostalCode": "45801", "State": "OH"}, {"AddressLine1": "1012 OVERLOOK DR SW", "City": " CANTON", "PostalCode": "44706", "State": "OH"}, {"AddressLine1": "3463 Briton Cir NW", "City": "CANTON", "PostalCode": "44708", "State": "OH"}, {"AddressLine1": "7777 Bliss Rd", "City": "ELIDA", "PostalCode": "45807", "State": "OH"}, {"AddressLine1": "2340 24th St NE", "City": " CANTON", "PostalCode": "44705", "State": "OH"}, {"AddressLine1": "7355 Capilano Dr", "City": "SOLON", "PostalCode": "44139", "State": "OH"}, {"AddressLine1": "1706 RED BIRD RD", "City": "MADISON", "PostalCode": "44057", "State": "OH"}, {"AddressLine1": "313 Timber Rdg", "City": "CUYAHOGA FALLS", "PostalCode": "44223", "State": "OH"}, {"AddressLine1": "2761 Byron Dr", "City": "NORTH CANTON", "PostalCode": "44720", "State": "OH"}, {"AddressLine1": "3607 Larchmont Pkwy", "City": "TOLEDO", "PostalCode": "43613", "State": "OH"}, {"AddressLine1": "1059 Belden Ave", "City": "AKRON", "PostalCode": "44310", "State": "OH"}, {"AddressLine1": "1080 E 169th St", "City": "CLEVELAND", "PostalCode": "44110", "State": "OH"}, {"AddressLine1": "00023 VERSAILLES", "City": "CINCINNATI", "PostalCode": "45240", "State": "OH"}, {"AddressLine1": "6725 E SINGER RD", "City": "DAYTON", "PostalCode": "45424", "State": "OH"}, {"AddressLine1": "11473 East Dr", "City": "ST MARYS", "PostalCode": "45885", "State": "OH"}, {"AddressLine1": "1708 S MAPLE AVE", "City": "FAIRBORN", "PostalCode": "45324", "State": "OH"}, {"AddressLine1": "5668 BENSMAN RD", "City": "MINSTER", "PostalCode": "45865", "State": "OH"}, {"AddressLine1": "2873 Norwood St", "City": "COLUMBUS", "PostalCode": "43224", "State": "OH"}, {"AddressLine1": "214 Ironclad Dr", "City": "COLUMBUS", "PostalCode": "43213", "State": "OH"}, {"AddressLine1": "197 Poff Rd Apt D", "City": "PATASKALA", "PostalCode": "43062", "State": "OH"}, {"AddressLine1": "1030 SUGAR CAMP RD", "City": "SOUTH WEBSTER", "PostalCode": "45682", "State": "OH"}, {"AddressLine1": "3038 Eby Rd", "City": "SMITHVILLE", "PostalCode": "44677", "State": "OH"}, {"AddressLine1": "1159 GIESSE DR", "City": "CLEVELAND", "PostalCode": "44124", "State": "OH"}, {"AddressLine1": "8706 Stearns Rd", "City": "OLMSTED FALLS", "PostalCode": "44138", "State": "OH"}, {"AddressLine1": "1074 Schocalog Rd", "City": "AKRON", "PostalCode": "44320", "State": "OH"}, {"AddressLine1": "122 W Decatur St Ste B", "City": "EATON", "PostalCode": "45320", "State": "OH"}, {"AddressLine1": "4567 Hannaford St", "City": "DAYTON", "PostalCode": "45439", "State": "OH"}, {"AddressLine1": "6601 MAD-RIVER RD", "City": "DAYTON", "PostalCode": "45459", "State": "OH"}, {"AddressLine1": "01861 ASHBROOK DR", "City": "CINCINNATI", "PostalCode": "45238", "State": "OH"}, {"AddressLine1": "128 W 68TH ST", "City": "CINCINNATI", "PostalCode": "45216", "State": "OH"}, {"AddressLine1": "5911 BRAMBLE AVE", "City": "CINCINNATI", "PostalCode": "45227", "State": "OH"}, {"AddressLine1": "1001 GARDEN AVE", "City": "MIDDLETOWN", "PostalCode": "45044", "State": "OH"}, {"AddressLine1": "2606 Brownfield Rd", "City": "COLUMBUS", "PostalCode": "43232", "State": "OH"}, {"AddressLine1": "300 Edgewood Dr", "City": "MARIETTA", "PostalCode": "45750", "State": "OH"}, {"AddressLine1": "8036 Golfview Ct", "City": "COLUMBUS", "PostalCode": "43235", "State": "OH"}, {"AddressLine1": "2959 Woodgrove Dr", "City": "GROVE CITY", "PostalCode": "43123", "State": "OH"}, {"AddressLine1": "747 Longvue Dr", "City": "WINTERSVILLE", "PostalCode": "43953", "State": "OH"}, {"AddressLine1": "5059 Willow Dr", "City": "ELIDA", "PostalCode": "45807", "State": "OH"}, {"AddressLine1": "405 Spring Valley Dr", "City": "ZANESVILLE", "PostalCode": "43701", "State": "OH"}, {"AddressLine1": "608 S Wayne St", "City": "VAN WERT", "PostalCode": "45891", "State": "OH"}, {"AddressLine1": "1169 Robin Ct", "City": "ZANESVILLE", "PostalCode": "43701", "State": "OH"}, {"AddressLine1": "2380 VISTA VIEW DR N APT C", "City": "NASHPORT", "PostalCode": "43830", "State": "OH"}, {"AddressLine1": "3220 133RD", "City": "TOLEDO", "PostalCode": "43611", "State": "OH"}, {"AddressLine1": "29113 Westwood Rd", "City": "BAY VILLAGE", "PostalCode": "44140", "State": "OH"}, {"AddressLine1": "13531 W Calla Rd", "City": "SALEM", "PostalCode": "44460", "State": "OH"}, {"AddressLine1": "560 Garry Rd", "City": "AKRON", "PostalCode": "44305", "State": "OH"}, {"AddressLine1": "2827 Wanamaker Dr", "City": "TOLEDO", "PostalCode": "43613", "State": "OH"}, {"AddressLine1": "4423 FT-LOR-SWAND RD", "City": "MINSTER", "PostalCode": "45865", "State": "OH"}, {"AddressLine1": "462 SOUTHBROOK DR", "City": "DAYTON", "PostalCode": "45459", "State": "OH"}, {"AddressLine1": "502 S Franklin St", "City": " ROCKFORD", "PostalCode": "45882", "State": "OH"}, {"AddressLine1": "6105 Brooktree Ct", "City": "MILFORD", "PostalCode": "45150", "State": "OH"}, {"AddressLine1": "6283 FIRESTONE DR", "City": "FAIRFIELD", "PostalCode": "45014", "State": "OH"}, {"AddressLine1": "3347 Whispering Trees Dr", "City": "AMELIA", "PostalCode": "45102", "State": "OH"}, {"AddressLine1": "4483 MCALISTER PARK DR", "City": "WESTERVILLE", "PostalCode": "43082", "State": "OH"}, {"AddressLine1": "4300 Vineshire Dr", "City": "COLUMBUS", "PostalCode": "43227", "State": "OH"}, {"AddressLine1": "722 N Pleasant St", "City": "NEW LEXINGTON", "PostalCode": "43764", "State": "OH"}, {"AddressLine1": "311 N Harrison St", "City": "VAN WERT", "PostalCode": "45891", "State": "OH"}, {"AddressLine1": "1963 S 14th St", "City": "COSHOCTON", "PostalCode": "43812", "State": "OH"}, {"AddressLine1": "00206 ESCALON", "City": "CINCINNATI", "PostalCode": "45216", "State": "OH"}, {"AddressLine1": "18113 COUNTY RD L1", "City": "NAPOLEON", "PostalCode": "43545", "State": "OH"}, {"AddressLine1": "24926 Nobottom Rd", "City": "OLMSTED TWP", "PostalCode": "44138", "State": "OH"}, {"AddressLine1": "62 PORT SIDE CIR", "City": "AKRON", "PostalCode": "44319", "State": "OH"}, {"AddressLine1": "503 W 26th St", "City": "LORAIN", "PostalCode": "44052", "State": "OH"}, {"AddressLine1": "3733 W 128th St", "City": "CLEVELAND", "PostalCode": "44111", "State": "OH"}, {"AddressLine1": "43 Victor Ave", "City": "DAYTON", "PostalCode": "45405", "State": "OH"}, {"AddressLine1": "370 MONROE-CNCRD RD", "City": " TROY ", "PostalCode": "45373", "State": "OH"}, {"AddressLine1": "16 AVONDALE DR", "City": "DAYTON", "PostalCode": "45404", "State": "OH"}, {"AddressLine1": "505 CRESCENT DRAPT  13A", "City": " TROY ", "PostalCode": "45373", "State": "OH"}, {"AddressLine1": "122 W DECATUR ST", "City": "EATON", "PostalCode": "45320", "State": "OH"}, {"AddressLine1": "5680 CHERRYWOOD CT", "City": "MASON", "PostalCode": "45040", "State": "OH"}, {"AddressLine1": "3954 The Ridings", "City": "MASON", "PostalCode": "45040", "State": "OH"}, {"AddressLine1": "8241 Marwithe Ct", "City": "NEW ALBANY", "PostalCode": "43054", "State": "OH"}, {"AddressLine1": "3329 Urban Hollow Ct Apt H", "City": "URBANCREST", "PostalCode": "43123", "State": "OH"}, {"AddressLine1": "5641 Barney Ln", "City": "COLUMBUS", "PostalCode": "43235", "State": "OH"}, {"AddressLine1": "205 W ELM ST REAR", "City": "GRANVILLE", "PostalCode": "43023", "State": "OH"}, {"AddressLine1": "214 S Main St", "City": "OTTAWA", "PostalCode": "45875", "State": "OH"}, {"AddressLine1": "5695 BERWICK AVE NE", "City": "CANTON", "PostalCode": "44721", "State": "OH"}, {"AddressLine1": "1231 32nd St NW", "City": " CANTON", "PostalCode": "44709", "State": "OH"}, {"AddressLine1": "23 Lookout Dr", "City": "TORONTO", "PostalCode": "43964", "State": "OH"}, {"AddressLine1": "25730 ZEMAN AVE", "City": "EUCLID", "PostalCode": "44132", "State": "OH"}, {"AddressLine1": "4463 Ranchview Ave", "City": "NORTH OLMSTED", "PostalCode": "44070", "State": "OH"}, {"AddressLine1": "15575 Church Rd", "City": "DALTON", "PostalCode": "44618", "State": "OH"}, {"AddressLine1": "7813 State Route 88", "City": "RAVENNA", "PostalCode": "44266", "State": "OH"}, {"AddressLine1": "528 Denison Ave", "City": "ELYRIA", "PostalCode": "44035", "State": "OH"}, {"AddressLine1": "1424 Kelsey Ave", "City": "TOLEDO", "PostalCode": "43605", "State": "OH"}, {"AddressLine1": "611 Rall Rd", "City": "TOLEDO", "PostalCode": "43617", "State": "OH"}, {"AddressLine1": "5840 Butler Grange Rd", "City": "SALEM", "PostalCode": "44460", "State": "OH"}, {"AddressLine1": "1113 S SOUTH STAPT  A", "City": "WILMINGTON", "PostalCode": "45177", "State": "OH"}, {"AddressLine1": "04222 LANGLAND", "City": "CINCINNATI", "PostalCode": "45223", "State": "OH"}, {"AddressLine1": "15 E Lowery Ave", "City": "WEST CARROLLTON", "PostalCode": "45449", "State": "OH"}, {"AddressLine1": "2913 Hummingbird Ct", "City": "DAYTON", "PostalCode": "45430", "State": "OH"}, {"AddressLine1": "5819 W FOUNTAIN CIR", "City": "MASON", "PostalCode": "45040", "State": "OH"}, {"AddressLine1": "467 PEDRETTI AVE", "City": "CINCINNATI", "PostalCode": "45238", "State": "OH"}, {"AddressLine1": "5754 LAWRENCE RD", "City": "CINCINNATI", "PostalCode": "45248", "State": "OH"}, {"AddressLine1": "15496 Bodman Rd", "City": "MOUNT ORAB", "PostalCode": "45154", "State": "OH"}, {"AddressLine1": "6424 VISITATION DR", "City": "CINCINNATI", "PostalCode": "45248", "State": "OH"}, {"AddressLine1": "200 Lakeview Dr", "City": "MASON", "PostalCode": "45040", "State": "OH"}, {"AddressLine1": "12076 Bayview Dr", "City": "LAKEVIEW", "PostalCode": "43331", "State": "OH"}, {"AddressLine1": "00944 SUMMIT", "City": "CINCINNATI", "PostalCode": "45204", "State": "OH"}, {"AddressLine1": "4435 7th St NW", "City": " CANTON", "PostalCode": "44708", "State": "OH"}, {"AddressLine1": "10918 Churchill Ave", "City": "CLEVELAND", "PostalCode": "44106", "State": "OH"}, {"AddressLine1": "631 Brent Blvd Apt B9", "City": "COLUMBUS", "PostalCode": "43228", "State": "OH"}, {"AddressLine1": "100 Wilding Rd", "City": "MARIETTA", "PostalCode": "45750", "State": "OH"}, {"AddressLine1": "255 Cobble Pond Rd", "City": "ZANESVILLE", "PostalCode": "43701", "State": "OH"}, {"AddressLine1": "824 S Broadway St", "City": "LIMA", "PostalCode": "45804", "State": "OH"}, {"AddressLine1": "3522 WOODBINE AVE", "City": "CINCINNATI", "PostalCode": "45211", "State": "OH"}, {"AddressLine1": "1720 CEDAR AVE", "City": "CINCINNATI", "PostalCode": "45224", "State": "OH"}, {"AddressLine1": "5294 EAGLESNEST DR", "City": "CINCINNATI", "PostalCode": "45248", "State": "OH"}, {"AddressLine1": "884 E 4th Ave", "City": "COLUMBUS", "PostalCode": "43201", "State": "OH"}, {"AddressLine1": "1280 Burnham Dr", "City": "COLUMBUS", "PostalCode": "43228", "State": "OH"}, {"AddressLine1": "246 Dailey Rd", "City": "ALBANY", "PostalCode": "45710", "State": "OH"}, {"AddressLine1": "5244 Big Run South Rd", "City": "GROVE CITY", "PostalCode": "43123", "State": "OH"}, {"AddressLine1": "6720 Fleur Dr", "City": "WESTERVILLE", "PostalCode": "43082", "State": "OH"}, {"AddressLine1": "745 Hidden Cir", "City": "CENTERVL", "PostalCode": "45458", "State": "OH"}, {"AddressLine1": "3846 11th St SW Apt 8004", "City": "CANTON", "PostalCode": "44710", "State": "OH"}, {"AddressLine1": "8434 FINLEY RD", "City": "WOOSTER", "PostalCode": "44691", "State": "OH"}, {"AddressLine1": "437 LINDEN AVE FL 1", "City": "STEUBENVILLE", "PostalCode": "43952", "State": "OH"}, {"AddressLine1": "1788 Hambletonian Ct", "City": "MIAMISBG", "PostalCode": "45342", "State": "OH"}, {"AddressLine1": "2915 Shirley St", "City": "ASHTABULA", "PostalCode": "44004", "State": "OH"}, {"AddressLine1": "741 Eugene St", "City": "AKRON", "PostalCode": "44306", "State": "OH"}, {"AddressLine1": "24626 BUCK RD", "City": "ALLIANCE", "PostalCode": "44601", "State": "OH"}, {"AddressLine1": "571 Daleview Dr", "City": "AURORA", "PostalCode": "44202", "State": "OH"}, {"AddressLine1": "3316 PERCENTUM RD", "City": "TOLEDO", "PostalCode": "43617", "State": "OH"}, {"AddressLine1": "778 Bennett St", "City": "MARION", "PostalCode": "43302", "State": "OH"}, {"AddressLine1": "108 SOUTH-COURT ST", "City": "EATON", "PostalCode": "45320", "State": "OH"}, {"AddressLine1": "9477 FARMCOURT LN", "City": "LOVELAND", "PostalCode": "45140", "State": "OH"}, {"AddressLine1": "2915 WESTWOOD NORTHERN BL", "City": "CINCINNATI", "PostalCode": "45211", "State": "OH"}, {"AddressLine1": "435 S Market St", "City": "MC ARTHUR", "PostalCode": "45651", "State": "OH"}, {"AddressLine1": "1004 E 16th Ave", "City": "COLUMBUS", "PostalCode": "43211", "State": "OH"}, {"AddressLine1": "5010 Birch Grove Dr", "City": "GROVEPORT", "PostalCode": "43125", "State": "OH"}, {"AddressLine1": "5 Elliott St", "City": "MOUNT VERNON", "PostalCode": "43050", "State": "OH"}, {"AddressLine1": "1137 Efts Ln", "City": "WINTERSVILLE", "PostalCode": "43953", "State": "OH"}, {"AddressLine1": "4956 Eshelman St", "City": "LOUISVILLE", "PostalCode": "44641", "State": "OH"}, {"AddressLine1": "1446 Pennelwood Dr", "City": "TOLEDO", "PostalCode": "43614", "State": "OH"}, {"AddressLine1": "4509 W 147TH ST", "City": "CLEVELAND", "PostalCode": "44135", "State": "OH"}, {"AddressLine1": "PO Box 542", "City": "AKRON", "PostalCode": "44309", "State": "OH"}, {"AddressLine1": "1306 W 18TH ST", "City": "LORAIN", "PostalCode": "44052", "State": "OH"}, {"AddressLine1": "115 BENNINGTON DRAPT  3", "City": "DAYTON", "PostalCode": "45405", "State": "OH"}, {"AddressLine1": "920 18th Ave", "City": "MIDDLETOWN", "PostalCode": "45044", "State": "OH"}, {"AddressLine1": "195 PARK LN", "City": "SPRINGBORO", "PostalCode": "45066", "State": "OH"}, {"AddressLine1": "5157 WINTON RD", "City": "FAIRFIELD", "PostalCode": "45014", "State": "OH"}, {"AddressLine1": "1705 MEADOWLAWN WAY", "City": "FAIRFIELD", "PostalCode": "45014", "State": "OH"}, {"AddressLine1": "5641 Navigator Dr", "City": "COLUMBUS", "PostalCode": "43228", "State": "OH"}, {"AddressLine1": "3781 HIGBY RD", "City": "CHILLICOTHE", "PostalCode": "45601", "State": "OH"}, {"AddressLine1": "4041 Carlton Ct", "City": "HILLIARD", "PostalCode": "43026", "State": "OH"}, {"AddressLine1": "608 LUMINATION AVE APT B", "City": "COLUMBUS", "PostalCode": "43240", "State": "OH"}, {"AddressLine1": "930 Adams Ave", "City": "CHILLICOTHE", "PostalCode": "45601", "State": "OH"}, {"AddressLine1": "1478 Yates Dr", "City": "COLUMBUS", "PostalCode": "43207", "State": "OH"}, {"AddressLine1": "12761 OLD MANSFIELD RD", "City": "MOUNT VERNON", "PostalCode": "43050", "State": "OH"}, {"AddressLine1": "1145 WALNUT DOWLER RD TRLR", "City": "LOGAN", "PostalCode": "43138", "State": "OH"}, {"AddressLine1": "3639 Mesmer Ave", "City": "DAYTON", "PostalCode": "45410", "State": "OH"}, {"AddressLine1": "7902 Dorothy Ave", "City": "PARMA", "PostalCode": "44129", "State": "OH"}, {"AddressLine1": "8752 Wild Flower Way", "City": "MENTOR", "PostalCode": "44060", "State": "OH"}, {"AddressLine1": "11645 Maplewood Rd", "City": "CHARDON", "PostalCode": "44024", "State": "OH"}, {"AddressLine1": "5551 Wolff Rd", "City": "MEDINA", "PostalCode": "44256", "State": "OH"}, {"AddressLine1": "1630 Bonnie Brae Ave NE", "City": "WARREN", "PostalCode": "44483", "State": "OH"}, {"AddressLine1": "811 S LUNDY AVE", "City": "SALEM", "PostalCode": "44460", "State": "OH"}, {"AddressLine1": "6555 US Highway 68 S", "City": "WEST LIBERTY", "PostalCode": "43357", "State": "OH"}, {"AddressLine1": "1149 Chelsea Ave", "City": "DAYTON", "PostalCode": "45420", "State": "OH"}, {"AddressLine1": "121 CALHOUN ST", "City": "CINCINNATI", "PostalCode": "45219", "State": "OH"}, {"AddressLine1": "956 DUBOIS RD", "City": "FRANKLIN", "PostalCode": "45005", "State": "OH"}, {"AddressLine1": "541 Laurelwood Dr", "City": "CLEVES", "PostalCode": "45002", "State": "OH"}, {"AddressLine1": "3739 BORDEN ST", "City": "CINCINNATI", "PostalCode": "45223", "State": "OH"}, {"AddressLine1": "9873 KENDALL RD", "City": "WINCHESTER", "PostalCode": "45697", "State": "OH"}, {"AddressLine1": "8007 Pinetree Cir", "City": "WEST CHESTER", "PostalCode": "45069", "State": "OH"}, {"AddressLine1": "02706 BREEZY WY", "City": "CINCINNATI", "PostalCode": "45239", "State": "OH"}, {"AddressLine1": "1973 Sutter Pkwy", "City": "DUBLIN", "PostalCode": "43016", "State": "OH"}, {"AddressLine1": "265 Owens Rd", "City": "WEST UNION", "PostalCode": "45693", "State": "OH"}, {"AddressLine1": "1000 W Main St Lot 29", "City": "WEST JEFFERSON", "PostalCode": "43162", "State": "OH"}, {"AddressLine1": "237 Mayfair Blvd Apt B", "City": "COLUMBUS", "PostalCode": "43213", "State": "OH"}, {"AddressLine1": "1646 26th St NW Apt 1", "City": " CANTON", "PostalCode": "44709", "State": "OH"}, {"AddressLine1": "1341 Rose Anna Dr", "City": "DELPHOS", "PostalCode": "45833", "State": "OH"}, {"AddressLine1": "205 SELHORST DR APT B6", "City": "OTTAWA", "PostalCode": "45875", "State": "OH"}, {"AddressLine1": "5628 County Road 35", "City": "ADA", "PostalCode": "45810", "State": "OH"}, {"AddressLine1": "1815 Trinity Pl NW Apt 5", "City": " CANTON", "PostalCode": "44709", "State": "OH"}, {"AddressLine1": "673 Willow St", "City": "COSHOCTON", "PostalCode": "43812", "State": "OH"}, {"AddressLine1": "1939 S Limestone St", "City": "SPRINGFIELD", "PostalCode": "45505", "State": "OH"}, {"AddressLine1": "5563 Vail Ave", "City": "TOLEDO", "PostalCode": "43623", "State": "OH"}, {"AddressLine1": "4232 E 119th St", "City": "CLEVELAND", "PostalCode": "44105", "State": "OH"}, {"AddressLine1": "369 Deep Creek Cir", "City": "NORTHFIELD", "PostalCode": "44067", "State": "OH"}, {"AddressLine1": "3218 STATE ROUTE 82", "City": "MANTUA", "PostalCode": "44255", "State": "OH"}, {"AddressLine1": "579 Ripley Ave", "City": "AKRON", "PostalCode": "44312", "State": "OH"}, {"AddressLine1": "6885 Saint Regis Blvd", "City": "HUDSON", "PostalCode": "44236", "State": "OH"}, {"AddressLine1": "631 IREY AVE", "City": "MARION", "PostalCode": "43302", "State": "OH"}, {"AddressLine1": "9926 State Route 305", "City": "GARRETTSVILLE", "PostalCode": "44231", "State": "OH"}, {"AddressLine1": "8289 Park Ave", "City": "GARRETTSVILLE", "PostalCode": "44231", "State": "OH"}, {"AddressLine1": "431 Briarwood Dr", "City": "AKRON", "PostalCode": "44320", "State": "OH"}, {"AddressLine1": "641 Fries St SE", "City": "MASSILLON", "PostalCode": "44646", "State": "OH"}, {"AddressLine1": "385 1/2 SPAULDING ST", "City": "AKRON", "PostalCode": "44310", "State": "OH"}, {"AddressLine1": "654 Highpoint Dr", "City": "SPRINGBORO", "PostalCode": "45066", "State": "OH"}, {"AddressLine1": "855 GORHAM DR", "City": "CINCINNATI", "PostalCode": "45245", "State": "OH"}, {"AddressLine1": "8438 BRADFORD PEAR DR", "City": "MASON", "PostalCode": "45040", "State": "OH"}, {"AddressLine1": "1817 FORESTER DR", "City": "CINCINNATI", "PostalCode": "45240", "State": "OH"}, {"AddressLine1": "5300 HAMILTON AVE", "City": "CINCINNATI", "PostalCode": "45224", "State": "OH"}, {"AddressLine1": "3141 WOODSIDE DR", "City": "FAIRFIELD", "PostalCode": "45014", "State": "OH"}, {"AddressLine1": "2899 WALNUT TREE DR UNIT 203", "City": "GROVE CITY", "PostalCode": "43123", "State": "OH"}, {"AddressLine1": "3037 Woodloop Ln", "City": "COLUMBUS", "PostalCode": "43204", "State": "OH"}, {"AddressLine1": "10152 STATE ROUTE 93 SE", "City": "NEW STRAITSVILLE", "PostalCode": "43766", "State": "OH"}, {"AddressLine1": "8034 N Township Road 72B", "City": "TIFFIN", "PostalCode": "44883", "State": "OH"}, {"AddressLine1": "242 Wagner Ave", "City": "BELLAIRE", "PostalCode": "43906", "State": "OH"}, {"AddressLine1": "59 Hall St", "City": "TIFFIN", "PostalCode": "44883", "State": "OH"}, {"AddressLine1": "475 N Meilke Rd", "City": "HOLLAND", "PostalCode": "43528", "State": "OH"}, {"AddressLine1": "219 W 7TH ST", "City": "MC DONALD", "PostalCode": "44437", "State": "OH"}, {"AddressLine1": "569 Miller St", "City": "YOUNGSTOWN", "PostalCode": "44502", "State": "OH"}, {"AddressLine1": "132 LOWELLVILLE ST", "City": "STRUTHERS", "PostalCode": "44471", "State": "OH"}, {"AddressLine1": "6729 Taylorsville Rd", "City": "HUBER HTS", "PostalCode": "45424", "State": "OH"}, {"AddressLine1": "3828 Adair Ave", "City": "DAYTON", "PostalCode": "45405", "State": "OH"}, {"AddressLine1": "6822 Salem Ave", "City": "CLAYTON", "PostalCode": "45315", "State": "OH"}, {"AddressLine1": "409 N Woodview Dr", "City": "COLDWATER", "PostalCode": "45828", "State": "OH"}, {"AddressLine1": "9071 Ambercreek Dr", "City": "CINCINNATI", "PostalCode": "45236", "State": "OH"}, {"AddressLine1": "8852 DALY RD", "City": "CINCINNATI", "PostalCode": "45231", "State": "OH"}, {"AddressLine1": "3510 Townsley Dr", "City": "LOVELAND", "PostalCode": "45140", "State": "OH"}, {"AddressLine1": "7301 CANNON CT", "City": "WEST CHESTER", "PostalCode": "45069", "State": "OH"}, {"AddressLine1": "926 MORRIS ST", "City": "CINCINNATI", "PostalCode": "45206", "State": "OH"}, {"AddressLine1": "11758 OLYMPIA WAY", "City": "CINCINNATI", "PostalCode": "45240", "State": "OH"}, {"AddressLine1": "6170 Vista Point Dr", "City": "CINCINNATI", "PostalCode": "45247", "State": "OH"}, {"AddressLine1": "7939 RAMBLER PL", "City": "CINCINNATI", "PostalCode": "45231", "State": "OH"}, {"AddressLine1": "12761 Road K", "City": "OTTAWA", "PostalCode": "45875", "State": "OH"}, {"AddressLine1": "870 MURRAY-HILL DR", "City": "XENIA", "PostalCode": "45385", "State": "OH"}, {"AddressLine1": "2645 MAYWOOD RD", "City": "COLUMBUS", "PostalCode": "43232", "State": "OH"}, {"AddressLine1": "122 CORNELIA AVE NE", "City": "CANTON", "PostalCode": "44704", "State": "OH"}, {"AddressLine1": "841 S Main St", "City": "KENTON", "PostalCode": "43326", "State": "OH"}, {"AddressLine1": "3155 E Highland Dr", "City": "ZANESVILLE", "PostalCode": "43701", "State": "OH"}, {"AddressLine1": "7037 Hillridge Ave NE", "City": " CANTON", "PostalCode": "44721", "State": "OH"}, {"AddressLine1": "271 S Walnut St", "City": "ST HENRY", "PostalCode": "45883", "State": "OH"}, {"AddressLine1": "5721 Sandy Hook Dr", "City": "PARMA", "PostalCode": "44134", "State": "OH"}, {"AddressLine1": "7355 HILLSIDE LN", "City": "SOLON", "PostalCode": "44139", "State": "OH"}, {"AddressLine1": "478 W Garfield Rd", "City": "COLUMBIANA", "PostalCode": "44408", "State": "OH"}, {"AddressLine1": "15 River Ridge Ln", "City": "MUNROE FALLS", "PostalCode": "44262", "State": "OH"}, {"AddressLine1": "11701 Tonsing Dr", "City": "GARFIELD HEIGHTS", "PostalCode": "44125", "State": "OH"}, {"AddressLine1": "73 E Philadelphia Ave", "City": "YOUNGSTOWN", "PostalCode": "44507", "State": "OH"}, {"AddressLine1": "921 WILLIAM HOWARD TAFT RD", "City": "CINCINNATI", "PostalCode": "45206", "State": "OH"}, {"AddressLine1": "1570 ELIZABETH PL", "City": "CINCINNATI", "PostalCode": "45237", "State": "OH"}, {"AddressLine1": "1410 Kenova Ave", "City": "CINCINNATI", "PostalCode": "45237", "State": "OH"}, {"AddressLine1": "5796 Parkside Xing", "City": "DUBLIN", "PostalCode": "43016", "State": "OH"}, {"AddressLine1": "3083 Halesworth Rd", "City": "COLUMBUS", "PostalCode": "43221", "State": "OH"}, {"AddressLine1": "4222 Vineshire Ln", "City": "COLUMBUS", "PostalCode": "43227", "State": "OH"}, {"AddressLine1": "8969 Canoe Dr", "City": "GALLOWAY", "PostalCode": "43119", "State": "OH"}, {"AddressLine1": "4017 Vernon Ave NW", "City": "CANTON", "PostalCode": "44709", "State": "OH"}, {"AddressLine1": "505 N Broadway St Apt 1", "City": "NEW PHILADELPHIA", "PostalCode": "44663", "State": "OH"}, {"AddressLine1": "2425 S 10th St", "City": "IRONTON", "PostalCode": "45638", "State": "OH"}, {"AddressLine1": "345 Stonecreek Rd SW", "City": "NEW PHILADELPHIA", "PostalCode": "44663", "State": "OH"}, {"AddressLine1": "17350 TALL TREE TRL", "City": "CHAGRIN FALLS", "PostalCode": "44023", "State": "OH"}, {"AddressLine1": "2938 Lampson Rd", "City": "AUSTINBURG", "PostalCode": "44010", "State": "OH"}, {"AddressLine1": "82 18th St SW", "City": "BARBERTON", "PostalCode": "44203", "State": "OH"}, {"AddressLine1": "1 Robert St", "City": "VIENNA", "PostalCode": "44473", "State": "OH"}, {"AddressLine1": "4430 N Holland Sylvania Rd Apt 2305", "City": "TOLEDO", "PostalCode": "43623", "State": "OH"}, {"AddressLine1": "12246 Mantua Center Rd", "City": "MANTUA", "PostalCode": "44255", "State": "OH"}, {"AddressLine1": "04725 MATHIS", "City": "CINCINNATI", "PostalCode": "45227", "State": "OH"}, {"AddressLine1": "1013H N MAIN STAPT  B", "City": "BELLEFONTN", "PostalCode": "43311", "State": "OH"}, {"AddressLine1": "4355 LONG LAKE DR", "City": "BATAVIA", "PostalCode": "45103", "State": "OH"}, {"AddressLine1": "4820 DUGGER RDAPT  H", "City": "DAYTON", "PostalCode": "45417", "State": "OH"}, {"AddressLine1": "977 Gilmore St", "City": "CHILLICOTHE", "PostalCode": "45601", "State": "OH"}]
