[{"AddressLine1": "55 WAMSUTTA ST 218", "City": "NEW BEDFRD", "PostalCode": "02740", "State": "MA"}, {"AddressLine1": "320 ROOSEVELT DR LOT 41  COGEN", "City": "NORTHBRIDGE", "PostalCode": "01534", "State": "MA"}, {"AddressLine1": "196 Plain St", "City": "STOUGHTON", "PostalCode": "02072", "State": "MA"}, {"AddressLine1": "58 FITZPATRICK ST    SOLAR", "City": "STOUGHTON", "PostalCode": "02072", "State": "MA"}, {"AddressLine1": "11 Balcomb St", "City": "SALEM", "PostalCode": "01970", "State": "MA"}, {"AddressLine1": "174 Ponakin Rd", "City": "LANCASTER", "PostalCode": "01523", "State": "MA"}, {"AddressLine1": "12 SHAMROCK ST POLE 6 04", "City": "STOCKBRIDGE", "PostalCode": "01262", "State": "MA"}, {"AddressLine1": "415 Main St Apt E", "City": "ATHOL", "PostalCode": "01331", "State": "MA"}, {"AddressLine1": "104 DUNN BROOK RDLOT 5 L5 POLE 2 2", "City": "E BROOKFIELD", "PostalCode": "01515", "State": "MA"}, {"AddressLine1": "1 Sumac Ln", "City": "MANCHESTER", "PostalCode": "01944", "State": "MA"}, {"AddressLine1": "250 Broadway Apt 616", "City": "REVERE", "PostalCode": "02151", "State": "MA"}, {"AddressLine1": "39 SECOND ST", "City": "MEDFORD", "PostalCode": "02155", "State": "MA"}, {"AddressLine1": "25 WEBSTER ST APT  2", "City": "MALDEN", "PostalCode": "02148", "State": "MA"}, {"AddressLine1": "12 Chancery Ct Apt 210", "City": "LYNN", "PostalCode": "01902", "State": "MA"}, {"AddressLine1": "11 CHICKERING ST", "City": "LAWRENCE", "PostalCode": "01843", "State": "MA"}, {"AddressLine1": "40 Dundee Dr", "City": "BRIDGEWATER", "PostalCode": "02324", "State": "MA"}, {"AddressLine1": "30 Abbie Ln", "City": "ATTLEBORO", "PostalCode": "02703", "State": "MA"}, {"AddressLine1": "73 Sewall St", "City": "REVERE", "PostalCode": "02151", "State": "MA"}, {"AddressLine1": "187 Mill St", "City": "HAVERHILL", "PostalCode": "01830", "State": "MA"}, {"AddressLine1": "17 BROADLEAF CIR LOT 111", "City": "E LONGMEADOW", "PostalCode": "01028", "State": "MA"}, {"AddressLine1": "161 Sumner St", "City": "STOUGHTON", "PostalCode": "02072", "State": "MA"}, {"AddressLine1": "195 CENTRAL ST APT 2R", "City": "SAUGUS", "PostalCode": "01906", "State": "MA"}, {"AddressLine1": "54 Lorenzo Cir", "City": "METHUEN", "PostalCode": "01844", "State": "MA"}, {"AddressLine1": "134 PROSPECT ST APT 2", "City": "LAWRENCE", "PostalCode": "01841", "State": "MA"}, {"AddressLine1": "34 Echo Ave", "City": "BEVERLY", "PostalCode": "01915", "State": "MA"}, {"AddressLine1": "375 Washington St", "City": "MELROSE", "PostalCode": "02176", "State": "MA"}, {"AddressLine1": "21 HANCOCK ST", "City": "MELROSE", "PostalCode": "02176", "State": "MA"}, {"AddressLine1": "SHARON CT POLE 8A1", "City": "BRIDGEWATER", "PostalCode": "02324", "State": "MA"}, {"AddressLine1": "132 LYNNFIELD ST APT  2", "City": "LYNN", "PostalCode": "01904", "State": "MA"}, {"AddressLine1": "1072 Johnson St", "City": "NORTH ANDOVER", "PostalCode": "01845", "State": "MA"}, {"AddressLine1": "102  AMBROSE STAPT LEFT", "City": "SPRINGFIELD", "PostalCode": "01109", "State": "MA"}, {"AddressLine1": "855  BELMONT AVEFL 1", "City": "SPRINGFIELD", "PostalCode": "01108", "State": "MA"}, {"AddressLine1": "265  BELMONT AVEFL 2", "City": "SPRINGFIELD", "PostalCode": "01108", "State": "MA"}, {"AddressLine1": "42 Euclid Ave", "City": "SPRINGFIELD", "PostalCode": "01108", "State": "MA"}, {"AddressLine1": "56  SUMMER DR", "City": "SOUTHWICK", "PostalCode": "01077", "State": "MA"}, {"AddressLine1": "34  EMERSON ST", "City": "SPRINGFIELD", "PostalCode": "01118", "State": "MA"}, {"AddressLine1": "18  KEITH ST", "City": "SPRINGFIELD", "PostalCode": "01108", "State": "MA"}, {"AddressLine1": "59 Mountain Dr", "City": "PITTSFIELD", "PostalCode": "01201", "State": "MA"}, {"AddressLine1": "20  SACCO DR", "City": "AMHERST", "PostalCode": "01002", "State": "MA"}, {"AddressLine1": "4 Jillian Way", "City": "ANDOVER", "PostalCode": "01810", "State": "MA"}, {"AddressLine1": "21 Northern Ave", "City": "NORTHAMPTON", "PostalCode": "01060", "State": "MA"}, {"AddressLine1": "75 HUNTOON MEM HWYAPT 11 B5 POLE TR5", "City": "LEICESTER", "PostalCode": "01524", "State": "MA"}, {"AddressLine1": "22 NINTH ST APT  102 B2", "City": "MEDFORD", "PostalCode": "02155", "State": "MA"}, {"AddressLine1": "33 Johnson St", "City": "NEWBURYPORT", "PostalCode": "01950", "State": "MA"}, {"AddressLine1": "15 Vine St", "City": "LEOMINSTER", "PostalCode": "01453", "State": "MA"}, {"AddressLine1": "6 Frances St", "City": "TEWKSBURY", "PostalCode": "01876", "State": "MA"}, {"AddressLine1": "21 Swan St", "City": "LAWRENCE", "PostalCode": "01841", "State": "MA"}, {"AddressLine1": "64 DODGE ST", "City": "BEVERLY", "PostalCode": "01915", "State": "MA"}, {"AddressLine1": "120 Cataract St", "City": "WORCESTER", "PostalCode": "01602", "State": "MA"}, {"AddressLine1": "19 Williamsburg Ln Lot 3", "City": "ATTLEBORO", "PostalCode": "02703", "State": "MA"}, {"AddressLine1": "30 BEVERLY ST APT A  COGEN", "City": "REVERE", "PostalCode": "02151", "State": "MA"}, {"AddressLine1": "144 Old Westboro Rd", "City": "NORTH GRAFTON", "PostalCode": "01536", "State": "MA"}, {"AddressLine1": "196 Bishop St", "City": "BROCKTON", "PostalCode": "02302", "State": "MA"}, {"AddressLine1": "6 Supreme Ct", "City": "SWAMPSCOTT", "PostalCode": "01907", "State": "MA"}, {"AddressLine1": "36 Cottage Rd", "City": "NEWBURY", "PostalCode": "01951", "State": "MA"}, {"AddressLine1": "32 MARION ST    COGEN", "City": "RANDOLPH", "PostalCode": "02368", "State": "MA"}, {"AddressLine1": "74 Cambo St", "City": "BROCKTON", "PostalCode": "02301", "State": "MA"}, {"AddressLine1": "177 Hatherly Rd", "City": "SCITUATE", "PostalCode": "02066", "State": "MA"}, {"AddressLine1": "1 Old South Ln", "City": "ANDOVER", "PostalCode": "01810", "State": "MA"}, {"AddressLine1": "93 Eagle Rd", "City": "WORCESTER", "PostalCode": "01605", "State": "MA"}, {"AddressLine1": "258 WINTHROP ST", "City": "MEDFORD", "PostalCode": "02155", "State": "MA"}, {"AddressLine1": "45 Bicknell St", "City": "ATTLEBORO", "PostalCode": "02703", "State": "MA"}, {"AddressLine1": "216 ANDOVER ST", "City": "LAWRENCE", "PostalCode": "01843", "State": "MA"}, {"AddressLine1": "4 DESROSIERS LAND", "City": "SOUTH GRAFTON", "PostalCode": "01560", "State": "MA"}, {"AddressLine1": "64 Raymond Dr", "City": "HAMPDEN", "PostalCode": "01036", "State": "MA"}, {"AddressLine1": "21 BALDWIN ST APT 2", "City": "MALDEN", "PostalCode": "02148", "State": "MA"}, {"AddressLine1": "796 MAIN ST FL 1", "City": "HAVERHILL", "PostalCode": "01830", "State": "MA"}, {"AddressLine1": "235 Hilldale Ave", "City": "HAVERHILL", "PostalCode": "01832", "State": "MA"}, {"AddressLine1": "45 North St", "City": "METHUEN", "PostalCode": "01844", "State": "MA"}, {"AddressLine1": "8 Enon Rd", "City": "WENHAM", "PostalCode": "01984", "State": "MA"}, {"AddressLine1": "45 BELLE ISLE AVE APT 33", "City": "REVERE", "PostalCode": "02151", "State": "MA"}, {"AddressLine1": "154 LONG HILL RD", "City": "FRANKLIN", "PostalCode": "02038", "State": "MA"}, {"AddressLine1": "54 ACUSHNET AVE", "City": "WORCESTER", "PostalCode": "01606", "State": "MA"}, {"AddressLine1": "1100 Essex St", "City": "LAWRENCE", "PostalCode": "01841", "State": "MA"}, {"AddressLine1": "59 Steeplechase Ct", "City": "HAVERHILL", "PostalCode": "01832", "State": "MA"}, {"AddressLine1": "15 Germain Ave", "City": "BRADFORD", "PostalCode": "01835", "State": "MA"}, {"AddressLine1": "17 Stacy Dr", "City": "NORTH ANDOVER", "PostalCode": "01845", "State": "MA"}, {"AddressLine1": "70 WEATHERLY DR APT 103", "City": "SALEM", "PostalCode": "01970", "State": "MA"}, {"AddressLine1": "121 LAUREL ST    COGEN", "City": "MELROSE", "PostalCode": "02176", "State": "MA"}, {"AddressLine1": "563 LYNN ST APT  2", "City": "MALDEN", "PostalCode": "02148", "State": "MA"}, {"AddressLine1": "40 HERRICK RD", "City": "BOXFORD", "PostalCode": "01921", "State": "MA"}, {"AddressLine1": "15 ARDMORE RD", "City": "WORCESTER", "PostalCode": "01609", "State": "MA"}, {"AddressLine1": "13 Main St", "City": "ACUSHNET", "PostalCode": "02743", "State": "MA"}, {"AddressLine1": "14 Pine St", "City": "TOPSFIELD", "PostalCode": "01983", "State": "MA"}, {"AddressLine1": "569 STATE RD A2", "City": "PLYMOUTH", "PostalCode": "02360", "State": "MA"}, {"AddressLine1": "25 Mohican Ave", "City": "MASHPEE", "PostalCode": "02649", "State": "MA"}, {"AddressLine1": "148 METACOMET ST LOT 7 L7", "City": "BELCHERTOWN", "PostalCode": "01007", "State": "MA"}, {"AddressLine1": "85 PLYMOUTH ST UNIT  A", "City": "E BRIDGEWATER", "PostalCode": "02333", "State": "MA"}, {"AddressLine1": "77 Crown St", "City": "MILTON", "PostalCode": "02186", "State": "MA"}, {"AddressLine1": "5 BREWSTER RD 1", "City": "FRAMINGHAM", "PostalCode": "01702", "State": "MA"}, {"AddressLine1": "235 CHESTNUT ST 3", "City": "CHELSEA", "PostalCode": "02150", "State": "MA"}, {"AddressLine1": "8 Sky Top Dr", "City": "MANCHESTER", "PostalCode": "01944", "State": "MA"}, {"AddressLine1": "22 Woodcrest Rd", "City": "MANCHESTER", "PostalCode": "01944", "State": "MA"}, {"AddressLine1": "57 Russell St", "City": "METHUEN", "PostalCode": "01844", "State": "MA"}, {"AddressLine1": "69 N END BLVD", "City": "SALISBURY", "PostalCode": "01952", "State": "MA"}, {"AddressLine1": "4 Dennison Rd", "City": "N CHELMSFORD", "PostalCode": "01863", "State": "MA"}, {"AddressLine1": "31 Reynolds Ave", "City": "EVERETT", "PostalCode": "02149", "State": "MA"}, {"AddressLine1": "2 RAGGED HILL RD  POLE 79", "City": "WARE", "PostalCode": "01082", "State": "MA"}, {"AddressLine1": "168 River Rd Apt 225", "City": "ANDOVER", "PostalCode": "01810", "State": "MA"}, {"AddressLine1": "494 NOTCH RD POLE 4401", "City": "NORTH ADAMS", "PostalCode": "01247", "State": "MA"}, {"AddressLine1": "190 Davis Rd", "City": "WESTMINSTER", "PostalCode": "01473", "State": "MA"}, {"AddressLine1": "20 Tyler St", "City": "METHUEN", "PostalCode": "01844", "State": "MA"}, {"AddressLine1": "10 LINWOOD ST APT C 3 S209", "City": "MALDEN", "PostalCode": "02148", "State": "MA"}, {"AddressLine1": "26 Jefferson St", "City": "BILLERICA", "PostalCode": "01821", "State": "MA"}, {"AddressLine1": "54 Coolidge Ave", "City": "HAVERHILL", "PostalCode": "01832", "State": "MA"}, {"AddressLine1": "21 Bacon Sq", "City": "PLAINVILLE", "PostalCode": "02762", "State": "MA"}, {"AddressLine1": "68 Goodrich St", "City": "WINCHENDON", "PostalCode": "01475", "State": "MA"}, {"AddressLine1": "31 Windemere Ln", "City": "CHELMSFORD", "PostalCode": "01824", "State": "MA"}, {"AddressLine1": "679 Bourne Rd", "City": "PLYMOUTH", "PostalCode": "02360", "State": "MA"}, {"AddressLine1": "14 Arnold St", "City": "HOLBROOK", "PostalCode": "02343", "State": "MA"}, {"AddressLine1": "30 FRANKLIN AVE", "City": "METHUEN", "PostalCode": "01844", "State": "MA"}, {"AddressLine1": "6 WINDSOR RD", "City": "BLACKSTONE", "PostalCode": "01504", "State": "MA"}, {"AddressLine1": "290 Essex St", "City": "BEVERLY", "PostalCode": "01915", "State": "MA"}, {"AddressLine1": "12 LIBERTY ST", "City": "BEVERLY", "PostalCode": "01915", "State": "MA"}, {"AddressLine1": "120 Thissell Ave Apt 100", "City": "DRACUT", "PostalCode": "01826", "State": "MA"}, {"AddressLine1": "28 Abbott Pl", "City": "BROCKTON", "PostalCode": "02301", "State": "MA"}, {"AddressLine1": "131 Columbian Ave", "City": "ATHOL", "PostalCode": "01331", "State": "MA"}, {"AddressLine1": "13 PARK ST", "City": "HARWICH", "PostalCode": "02645", "State": "MA"}, {"AddressLine1": "60 JEFFERSON ST APT  1", "City": "LYNN", "PostalCode": "01902", "State": "MA"}, {"AddressLine1": "22 Endicott St", "City": "BROCKTON", "PostalCode": "02302", "State": "MA"}, {"AddressLine1": "1474 TREMONT ST", "City": "ROXBRY XNG", "PostalCode": "02120", "State": "MA"}, {"AddressLine1": "285 CRAFTS ST", "City": "NEWTONVLLE", "PostalCode": "02460", "State": "MA"}, {"AddressLine1": "4 Oak Knoll St", "City": "BURLINGTON", "PostalCode": "01803", "State": "MA"}, {"AddressLine1": "1 Strawberry Ln", "City": "WOBURN", "PostalCode": "01801", "State": "MA"}, {"AddressLine1": "596 Tremont St Apt 5", "City": "BOSTON", "PostalCode": "02118", "State": "MA"}, {"AddressLine1": "9 GARDEN-GATE WAY", "City": "MARSHFIELD", "PostalCode": "02050", "State": "MA"}, {"AddressLine1": "200 RIVERSIDE AVE 326", "City": "NEW BEDFRD", "PostalCode": "02746", "State": "MA"}, {"AddressLine1": "14 Candlewood Dr", "City": "TOPSFIELD", "PostalCode": "01983", "State": "MA"}, {"AddressLine1": "17 Notre Dame St", "City": "LEOMINSTER", "PostalCode": "01453", "State": "MA"}, {"AddressLine1": "55 SCHOOL ST APT  2", "City": "LYNN", "PostalCode": "01902", "State": "MA"}, {"AddressLine1": "14 Swan St", "City": "EVERETT", "PostalCode": "02149", "State": "MA"}, {"AddressLine1": "22 Mary Lou Ln", "City": "ANDOVER", "PostalCode": "01810", "State": "MA"}, {"AddressLine1": "76 Old Colony Dr", "City": "WEYMOUTH", "PostalCode": "02188", "State": "MA"}, {"AddressLine1": "77 SHERMAN ST    COGEN", "City": "BROCKTON", "PostalCode": "02302", "State": "MA"}, {"AddressLine1": "52 Coolidge St", "City": "LAWRENCE", "PostalCode": "01843", "State": "MA"}, {"AddressLine1": "35 HAZEN RDAPT A5", "City": "SHIRLEY", "PostalCode": "01464", "State": "MA"}, {"AddressLine1": "32 Harvard Rd Apt 1G", "City": "SHIRLEY", "PostalCode": "01464", "State": "MA"}, {"AddressLine1": "307 Prospect St", "City": "SOMERSET", "PostalCode": "02726", "State": "MA"}, {"AddressLine1": "351 Forest Ave", "City": "COHASSET", "PostalCode": "02025", "State": "MA"}, {"AddressLine1": "32 Elizabeth St", "City": "FEEDING HILLS", "PostalCode": "01030", "State": "MA"}, {"AddressLine1": "139  SECOND ST", "City": "PITTSFIELD", "PostalCode": "01201", "State": "MA"}, {"AddressLine1": "162  JASON ST", "City": "PITTSFIELD", "PostalCode": "01201", "State": "MA"}, {"AddressLine1": "4 Vernon Ct", "City": "NEWBURYPORT", "PostalCode": "01950", "State": "MA"}, {"AddressLine1": "58 ALANA DR LOT 24", "City": "NORTHBRIDGE", "PostalCode": "01534", "State": "MA"}, {"AddressLine1": "25 COLGATE RD    COGEN", "City": "BEVERLY", "PostalCode": "01915", "State": "MA"}, {"AddressLine1": "27 Cynthia Ln Lot 8", "City": "ATTLEBORO", "PostalCode": "02703", "State": "MA"}, {"AddressLine1": "90 Riley Switch Rd", "City": "PHILLIPSTON", "PostalCode": "01331", "State": "MA"}, {"AddressLine1": "43 Broadway", "City": "ROCKPORT", "PostalCode": "01966", "State": "MA"}, {"AddressLine1": "77 ROBERT RD LOT 46", "City": "MARLBOROUGH", "PostalCode": "01752", "State": "MA"}, {"AddressLine1": "21 ROBERT ST APT   3", "City": "LOWELL", "PostalCode": "01854", "State": "MA"}, {"AddressLine1": "39 Munroe St", "City": "NORTHAMPTON", "PostalCode": "01060", "State": "MA"}, {"AddressLine1": "93 HILL ST", "City": "TOPSFIELD", "PostalCode": "01983", "State": "MA"}, {"AddressLine1": "287 LAKE SHORE DR", "City": "BELLINGHAM", "PostalCode": "02019", "State": "MA"}, {"AddressLine1": "322 E CENTER ST UNIT 203BUILDING 3", "City": "W BRIDGEWATER", "PostalCode": "02379", "State": "MA"}, {"AddressLine1": "20 Cleverly St Apt B6", "City": "ABINGTON", "PostalCode": "02351", "State": "MA"}, {"AddressLine1": "65 Buckland St", "City": "PALMER", "PostalCode": "01069", "State": "MA"}, {"AddressLine1": "52 Otis St", "City": "MEDFORD", "PostalCode": "02155", "State": "MA"}, {"AddressLine1": "93 Merrill Ave", "City": "HAVERHILL", "PostalCode": "01830", "State": "MA"}, {"AddressLine1": "298 LEICESTER ST", "City": "AUBURN", "PostalCode": "01501", "State": "MA"}, {"AddressLine1": "365 Mill Valley Rd", "City": "BELCHERTOWN", "PostalCode": "01007", "State": "MA"}, {"AddressLine1": "453 Turnpike St Apt 6", "City": "SOUTH EASTON", "PostalCode": "02375", "State": "MA"}, {"AddressLine1": "18 WARREN RDLOT 166", "City": "WILBRAHAM", "PostalCode": "01095", "State": "MA"}, {"AddressLine1": "12 FAIRWAY DR", "City": "ACUSHNET", "PostalCode": "02743", "State": "MA"}, {"AddressLine1": "792 EAST ST", "City": "LENOX", "PostalCode": "01240", "State": "MA"}, {"AddressLine1": "39 Wildes Rd", "City": "TOPSFIELD", "PostalCode": "01983", "State": "MA"}, {"AddressLine1": "191 MAIN ST 308", "City": "WAREHAM", "PostalCode": "02571", "State": "MA"}, {"AddressLine1": "176 McCarthy Way", "City": "TEWKSBURY", "PostalCode": "01876", "State": "MA"}, {"AddressLine1": "67 Raymond Rd", "City": "PLYMOUTH", "PostalCode": "02360", "State": "MA"}, {"AddressLine1": "28 MINOT ST APT  3", "City": "LYNN", "PostalCode": "01905", "State": "MA"}, {"AddressLine1": "54 Briggs Ave", "City": "PLYMOUTH", "PostalCode": "02360", "State": "MA"}, {"AddressLine1": "2 PEPPERMILL LN LOT 1", "City": "FRANKLIN", "PostalCode": "02038", "State": "MA"}, {"AddressLine1": "743 UNION ST APT 1 POLE 75", "City": "ROCKLAND", "PostalCode": "02370", "State": "MA"}, {"AddressLine1": "16 Cottonwood Ln", "City": "CENTERVIL", "PostalCode": "02632", "State": "MA"}, {"AddressLine1": "1029 RTE-132  5A", "City": "HYANNIS", "PostalCode": "02601", "State": "MA"}, {"AddressLine1": "131 FRANKLIN ST    COGEN", "City": "WHITMAN", "PostalCode": "02382", "State": "MA"}, {"AddressLine1": "476 Oakland Rd", "City": "HYANNIS", "PostalCode": "02601", "State": "MA"}, {"AddressLine1": "40 RTE-130", "City": "FORESTDALE", "PostalCode": "02644", "State": "MA"}, {"AddressLine1": "23 Barling Ave", "City": "OAK BLUFFS", "PostalCode": "02557", "State": "MA"}, {"AddressLine1": "314 EDGARTOWN-VH RD", "City": "EDGARTOWN", "PostalCode": "02539", "State": "MA"}, {"AddressLine1": "56 JEREMIAH WAY EH", "City": "EDGARTOWN", "PostalCode": "02539", "State": "MA"}, {"AddressLine1": "300 Steere St", "City": "ATTLEBORO", "PostalCode": "02703", "State": "MA"}, {"AddressLine1": "5 Church St Apt 1", "City": "MILLBURY", "PostalCode": "01527", "State": "MA"}, {"AddressLine1": "8 Farnsworth Ct Apt C", "City": "MILLBURY", "PostalCode": "01527", "State": "MA"}, {"AddressLine1": "26 Mustang Ave", "City": "MARLBOROUGH", "PostalCode": "01752", "State": "MA"}, {"AddressLine1": "39 Pleasant St", "City": "GRAFTON", "PostalCode": "01519", "State": "MA"}, {"AddressLine1": "99 GREAT-PLAINS RD", "City": "W TISBURY", "PostalCode": "02575", "State": "MA"}, {"AddressLine1": "4 Vincent St", "City": "AUBURN", "PostalCode": "01501", "State": "MA"}, {"AddressLine1": "86 HOWE RD POLE 12", "City": "COHASSET", "PostalCode": "02025", "State": "MA"}, {"AddressLine1": "1 MEADOW LN", "City": "MAYNARD", "PostalCode": "01754", "State": "MA"}, {"AddressLine1": "8 BLUEBERRY-HL RD", "City": "NATICK", "PostalCode": "01760", "State": "MA"}, {"AddressLine1": "53 NEWBURY ST 2", "City": "W SOMERVIL", "PostalCode": "02144", "State": "MA"}, {"AddressLine1": "138 D St", "City": "BOSTON", "PostalCode": "02127", "State": "MA"}, {"AddressLine1": "1878 BEACON ST 3", "City": "BROOKLINE", "PostalCode": "02445", "State": "MA"}, {"AddressLine1": "1 MIKAILA WAY", "City": "WOBURN", "PostalCode": "01801", "State": "MA"}, {"AddressLine1": "29 Village Rd", "City": "SUDBURY", "PostalCode": "01776", "State": "MA"}, {"AddressLine1": "125 Buckskin Dr", "City": "WESTON", "PostalCode": "02493", "State": "MA"}, {"AddressLine1": "10 Vaillencourt Dr", "City": "FRAMINGHAM", "PostalCode": "01701", "State": "MA"}, {"AddressLine1": "12 Butch Songin Cir", "City": "SOUTH WALPOLE", "PostalCode": "02071", "State": "MA"}, {"AddressLine1": "12 New Castle Rd", "City": "ASHLAND", "PostalCode": "01721", "State": "MA"}, {"AddressLine1": "136 Dorset Rd", "City": "HOLLISTON", "PostalCode": "01746", "State": "MA"}, {"AddressLine1": "102 Hunt Dr", "City": "STOUGHTON", "PostalCode": "02072", "State": "MA"}, {"AddressLine1": "32 Crane St Apt 2", "City": "WORCESTER", "PostalCode": "01604", "State": "MA"}, {"AddressLine1": "248 HARRISON AVE B-306", "City": "BOSTON", "PostalCode": "02111", "State": "MA"}, {"AddressLine1": "215 W Main St", "City": "W BROOKFIELD", "PostalCode": "01585", "State": "MA"}, {"AddressLine1": "5 S ELIZABETH ST    COGEN", "City": "TEWKSBURY", "PostalCode": "01876", "State": "MA"}, {"AddressLine1": "62 Marlborough Rd", "City": "SALEM", "PostalCode": "01970", "State": "MA"}, {"AddressLine1": "300 COMMERCIAL ST 613", "City": "BOSTON", "PostalCode": "02109", "State": "MA"}, {"AddressLine1": "40 HOUGHTON ST APT  1", "City": "LYNN", "PostalCode": "01905", "State": "MA"}, {"AddressLine1": "1 NOYES PL S-5", "City": "BOSTON", "PostalCode": "02113", "State": "MA"}, {"AddressLine1": "520 MAIN ST 18", "City": "WALTHAM", "PostalCode": "02452", "State": "MA"}, {"AddressLine1": "56C Marshall St", "City": "SOMERVILLE", "PostalCode": "02145", "State": "MA"}, {"AddressLine1": "8 Thistle Rd", "City": "BURLINGTON", "PostalCode": "01803", "State": "MA"}, {"AddressLine1": "694 MASS AVE 2", "City": "BOSTON", "PostalCode": "02118", "State": "MA"}, {"AddressLine1": "97 Keith Ave", "City": "BROCKTON", "PostalCode": "02301", "State": "MA"}, {"AddressLine1": "63 WINDSOR CT APT 1", "City": "SWANSEA", "PostalCode": "02777", "State": "MA"}, {"AddressLine1": "40 Boston St", "City": "MALDEN", "PostalCode": "02148", "State": "MA"}, {"AddressLine1": "104 Townsend Farm Rd", "City": "BOXFORD", "PostalCode": "01921", "State": "MA"}, {"AddressLine1": "15 Elizabeth St Apt 1", "City": "ATTLEBORO", "PostalCode": "02703", "State": "MA"}, {"AddressLine1": "21 MAPLE ST A", "City": " CANTON", "PostalCode": "02021", "State": "MA"}, {"AddressLine1": "492 CHATHAM ST APT S1", "City": "LYNN", "PostalCode": "01902", "State": "MA"}, {"AddressLine1": "19 Mount Vernon St", "City": "LAWRENCE", "PostalCode": "01843", "State": "MA"}, {"AddressLine1": "6 TELEGRAPH-HILL", "City": "PROVNCTOWN", "PostalCode": "02657", "State": "MA"}, {"AddressLine1": "20 Regency Dr Lot 145", "City": "DRACUT", "PostalCode": "01826", "State": "MA"}, {"AddressLine1": "113 SHANDON RD 103", "City": "DORCHESTER", "PostalCode": "02124", "State": "MA"}, {"AddressLine1": "155 ORCHARD HILL RDPOLE 10    COGEN", "City": "WARD HILL", "PostalCode": "01835", "State": "MA"}, {"AddressLine1": "73 OLD YANKEE RD LOT 3", "City": "HAVERHILL", "PostalCode": "01832", "State": "MA"}, {"AddressLine1": "40 KRISTEN WAY", "City": "SOUTH EASTON", "PostalCode": "02375", "State": "MA"}, {"AddressLine1": "91 WOODSTOCK ST", "City": "NORTH ANDOVER", "PostalCode": "01845", "State": "MA"}, {"AddressLine1": "178 Stonecleave Rd", "City": "NORTH ANDOVER", "PostalCode": "01845", "State": "MA"}, {"AddressLine1": "364 Main St", "City": "NORTH ANDOVER", "PostalCode": "01845", "State": "MA"}, {"AddressLine1": "350 GREENE STUNIT 405 POLE 129300", "City": "NORTH ANDOVER", "PostalCode": "01845", "State": "MA"}, {"AddressLine1": "16 Valley Lane", "City": "CHILMARK", "PostalCode": "02535", "State": "MA"}, {"AddressLine1": "567 EDGARTOWN-VH RD", "City": "EDGARTOWN", "PostalCode": "02539", "State": "MA"}, {"AddressLine1": "206 NEPONSET AVE PUB", "City": "DORCHESTER", "PostalCode": "02122", "State": "MA"}, {"AddressLine1": "9 SPRING ST    COGEN", "City": "SALISBURY", "PostalCode": "01952", "State": "MA"}, {"AddressLine1": "18 STATION ST POLE 6", "City": "PEMBROKE", "PostalCode": "02359", "State": "MA"}, {"AddressLine1": "322 Main St", "City": "GLOUCESTER", "PostalCode": "01930", "State": "MA"}, {"AddressLine1": "35 STEVENS LAKE RDPOLE 126 01", "City": "MONTEREY", "PostalCode": "01245", "State": "MA"}, {"AddressLine1": "4 Pilgrim Hts", "City": "BEVERLY", "PostalCode": "01915", "State": "MA"}, {"AddressLine1": "90 West St", "City": "FOXBORO", "PostalCode": "02035", "State": "MA"}, {"AddressLine1": "63 Oak Ter", "City": "DRACUT", "PostalCode": "01826", "State": "MA"}, {"AddressLine1": "43 ISLAND POND RD", "City": "DRACUT", "PostalCode": "01826", "State": "MA"}, {"AddressLine1": "14 Sprague St", "City": "REVERE", "PostalCode": "02151", "State": "MA"}, {"AddressLine1": "144 Methuen St", "City": "LOWELL", "PostalCode": "01850", "State": "MA"}, {"AddressLine1": "6 Porter Ave", "City": "LYNN", "PostalCode": "01904", "State": "MA"}, {"AddressLine1": "58 PENDEXTER ST APT  2", "City": "LYNN", "PostalCode": "01904", "State": "MA"}, {"AddressLine1": "130 PINE AVE POLE 1 9", "City": "STURBRIDGE", "PostalCode": "01566", "State": "MA"}, {"AddressLine1": "5 Ladd Rd", "City": "STURBRIDGE", "PostalCode": "01566", "State": "MA"}, {"AddressLine1": "3 Christian Way", "City": "W BRIDGEWATER", "PostalCode": "02379", "State": "MA"}, {"AddressLine1": "160 WHITEHALL RDPOLE 948 48   COGEN", "City": "AMESBURY", "PostalCode": "01913", "State": "MA"}, {"AddressLine1": "33 Aspen St Apt 1", "City": "WARE", "PostalCode": "01082", "State": "MA"}, {"AddressLine1": "1 Clarence St", "City": "BILLERICA", "PostalCode": "01821", "State": "MA"}, {"AddressLine1": "73 HIGHWOOD DR BLDG 9", "City": "FRANKLIN", "PostalCode": "02038", "State": "MA"}, {"AddressLine1": "14 Woodland Ave", "City": "MEDFORD", "PostalCode": "02155", "State": "MA"}, {"AddressLine1": "129 Elderberry Cir", "City": "ABINGTON", "PostalCode": "02351", "State": "MA"}, {"AddressLine1": "16 Campground Rd", "City": "BOXFORD", "PostalCode": "01921", "State": "MA"}, {"AddressLine1": "172 Berwick Rd", "City": "ATTLEBORO", "PostalCode": "02703", "State": "MA"}, {"AddressLine1": "223 Laurel St", "City": "E BRIDGEWATER", "PostalCode": "02333", "State": "MA"}, {"AddressLine1": "58 Sunny Ave", "City": "WEBSTER", "PostalCode": "01570", "State": "MA"}, {"AddressLine1": "325 Den Quarry Rd", "City": "LYNN", "PostalCode": "01904", "State": "MA"}, {"AddressLine1": "105 Cornell Rd Apt 1", "City": "WESTPORT", "PostalCode": "02790", "State": "MA"}, {"AddressLine1": "15 Cliff St", "City": "NAHANT", "PostalCode": "01908", "State": "MA"}, {"AddressLine1": "55 Russell Rd", "City": "HUNTINGTON", "PostalCode": "01050", "State": "MA"}, {"AddressLine1": "49  PLYMOUTH RD", "City": "LONGMEADOW", "PostalCode": "01106", "State": "MA"}, {"AddressLine1": "229  MILLER STLOT D2", "City": "LUDLOW", "PostalCode": "01056", "State": "MA"}, {"AddressLine1": "65  OLMSTED DRFL 1", "City": "SPRINGFIELD", "PostalCode": "01108", "State": "MA"}, {"AddressLine1": "8  WEDGEWOOD DRDUPL RIGHT", "City": "LUDLOW", "PostalCode": "01056", "State": "MA"}, {"AddressLine1": "103  COES HILL RD", "City": "SOUTHWICK", "PostalCode": "01077", "State": "MA"}, {"AddressLine1": "66  FEDERAL ST", "City": "MILLERS FALLS", "PostalCode": "01349", "State": "MA"}, {"AddressLine1": "44  APRICOT HILL LN", "City": "WEST SPRINGFIELD", "PostalCode": "01089", "State": "MA"}, {"AddressLine1": "25  MAPLEWOOD TER", "City": "SPRINGFIELD", "PostalCode": "01108", "State": "MA"}, {"AddressLine1": "25 Garfield Ter", "City": "LYNN", "PostalCode": "01905", "State": "MA"}, {"AddressLine1": "61 PULASKI BLVD APT 1", "City": "BELLINGHAM", "PostalCode": "02019", "State": "MA"}, {"AddressLine1": "301 Lincoln Ave Unit 4", "City": "SAUGUS", "PostalCode": "01906", "State": "MA"}, {"AddressLine1": "7 Hitching Hill Rd", "City": "SAUGUS", "PostalCode": "01906", "State": "MA"}, {"AddressLine1": "20 S Pond St", "City": "NEWBURY", "PostalCode": "01951", "State": "MA"}, {"AddressLine1": "393 Essex St Apt 212", "City": "BEVERLY", "PostalCode": "01915", "State": "MA"}, {"AddressLine1": "21 BASSETT RD    COGEN", "City": "HEATH", "PostalCode": "01346", "State": "MA"}, {"AddressLine1": "117 N MAIN ST FL 2", "City": "ANDOVER", "PostalCode": "01810", "State": "MA"}, {"AddressLine1": "6 RICHARDSON PATH LOT 23", "City": "NEWBURYPORT", "PostalCode": "01950", "State": "MA"}, {"AddressLine1": "12 Sea Ave", "City": "QUINCY", "PostalCode": "02169", "State": "MA"}, {"AddressLine1": "30 HICKORY RD POLE 7", "City": "HALIFAX", "PostalCode": "02338", "State": "MA"}, {"AddressLine1": "311 Winter St", "City": "BRIDGEWATER", "PostalCode": "02324", "State": "MA"}, {"AddressLine1": "15 SAINT CLAIR RDLOT 2", "City": "BRIMFIELD", "PostalCode": "01010", "State": "MA"}, {"AddressLine1": "2 ADAM CIR", "City": "MEDFORD", "PostalCode": "02155", "State": "MA"}, {"AddressLine1": "8 Messina Cir", "City": "METHUEN", "PostalCode": "01844", "State": "MA"}, {"AddressLine1": "70 BRAEMOOR RD", "City": "BROCKTON", "PostalCode": "02301", "State": "MA"}, {"AddressLine1": "240 Canal St Unit 103", "City": "LAWRENCE", "PostalCode": "01840", "State": "MA"}, {"AddressLine1": "7 Crystal Cir", "City": "ANDOVER", "PostalCode": "01810", "State": "MA"}, {"AddressLine1": "2 Heritage Way", "City": "BELLINGHAM", "PostalCode": "02019", "State": "MA"}, {"AddressLine1": "21 Vine St", "City": "RANDOLPH", "PostalCode": "02368", "State": "MA"}, {"AddressLine1": "164 MARTHA ST APT 1", "City": "FALL RIVER", "PostalCode": "02720", "State": "MA"}, {"AddressLine1": "346 TURNPIKE RD UNIT 4209BLDG 4000", "City": "WESTBOROUGH", "PostalCode": "01581", "State": "MA"}, {"AddressLine1": "388 S Barre Rd", "City": "BARRE", "PostalCode": "01005", "State": "MA"}, {"AddressLine1": "140 Stoney Hill Rd Apt 1", "City": "SWANSEA", "PostalCode": "02777", "State": "MA"}, {"AddressLine1": "105 Estes St", "City": "EVERETT", "PostalCode": "02149", "State": "MA"}, {"AddressLine1": "33 Maplewood Ave Apt 111", "City": "GLOUCESTER", "PostalCode": "01930", "State": "MA"}, {"AddressLine1": "33 TWIN OAKS DR POLE 4", "City": "BROCKTON", "PostalCode": "02302", "State": "MA"}, {"AddressLine1": "43 George St", "City": "MENDON", "PostalCode": "01756", "State": "MA"}, {"AddressLine1": "28 Park St", "City": "REHOBOTH", "PostalCode": "02769", "State": "MA"}]
