[{"AddressLine1": "703 Blooming Glen Rd", "City": "PERKASIE", "PostalCode": "18944", "State": "PA"}, {"AddressLine1": "660 Veterans Way", "City": "ELLIOTTSBURG", "PostalCode": "17024", "State": "PA"}, {"AddressLine1": "839 N Graham St", "City": "ALLENTOWN", "PostalCode": "18109", "State": "PA"}, {"AddressLine1": "3194 Kestner Ave", "City": "PITTSBURGH", "PostalCode": "15227", "State": "PA"}, {"AddressLine1": "8048 FISHING CREEK VALLEY RD", "City": "HARRISBURG", "PostalCode": "17112", "State": "PA"}, {"AddressLine1": "123 RHEDWOOD", "City": "SUGARLOAF", "PostalCode": "18249", "State": "PA"}, {"AddressLine1": "725 Franklin St", "City": "CARLISLE", "PostalCode": "17013", "State": "PA"}, {"AddressLine1": "141 Arbor Trail Dr", "City": "MC KEES ROCKS", "PostalCode": "15136", "State": "PA"}, {"AddressLine1": "57 N Green Acres Cir", "City": "AKRON", "PostalCode": "17501", "State": "PA"}, {"AddressLine1": "PO Box 114", "City": "GRATZ", "PostalCode": "17030", "State": "PA"}, {"AddressLine1": "355 Tower Rd", "City": "SUGARLOAF", "PostalCode": "18249", "State": "PA"}, {"AddressLine1": "2225 Wisteria Rd", "City": "MACUNGIE", "PostalCode": "18062", "State": "PA"}, {"AddressLine1": "12 Bradbury Dr", "City": "SOUTH HEIGHTS", "PostalCode": "15081", "State": "PA"}, {"AddressLine1": "1000 E 16th St", "City": "BERWICK", "PostalCode": "18603", "State": "PA"}, {"AddressLine1": "115 N 5TH ST RM 3", "City": "ALLENTOWN", "PostalCode": "18102", "State": "PA"}, {"AddressLine1": "75 Eagle Dr", "City": "EPHRATA", "PostalCode": "17522", "State": "PA"}, {"AddressLine1": "141 W Cottage Ave Apt C", "City": "MILLERSVILLE", "PostalCode": "17551", "State": "PA"}, {"AddressLine1": "4314 N 6th St", "City": "HARRISBURG", "PostalCode": "17110", "State": "PA"}, {"AddressLine1": "34 Grow Ave", "City": "MONTROSE", "PostalCode": "18801", "State": "PA"}, {"AddressLine1": "2500 Admire Springs Dr", "City": "DOVER", "PostalCode": "17315", "State": "PA"}, {"AddressLine1": "211 S Barry Rd", "City": "GREENVILLE", "PostalCode": "16125", "State": "PA"}, {"AddressLine1": "848 SHADYLANE RD", "City": "PULASKI", "PostalCode": "16143", "State": "PA"}, {"AddressLine1": "1806 Martin Dr", "City": "LEBANON", "PostalCode": "17046", "State": "PA"}, {"AddressLine1": "122 SHORT DR", "City": "GRANTVILLE", "PostalCode": "17028", "State": "PA"}, {"AddressLine1": "3251 W 26th St", "City": "ERIE", "PostalCode": "16506", "State": "PA"}, {"AddressLine1": "112 Delason Ave", "City": "BUTLER", "PostalCode": "16001", "State": "PA"}, {"AddressLine1": "315 PAINTER AVE", "City": "GREENSBURG", "PostalCode": "15601", "State": "PA"}, {"AddressLine1": "179 Heritage Rd", "City": "CHAMBERSBURG", "PostalCode": "17202", "State": "PA"}, {"AddressLine1": "37 E RIDGE ST APT, 1ST FL", "City": "LANSFORD", "PostalCode": "18232", "State": "PA"}, {"AddressLine1": "2240 Spring Grove Dr", "City": "WILLIAMSPORT", "PostalCode": "17701", "State": "PA"}, {"AddressLine1": "123 OLD FIELD DR", "City": "BLOOMSBURG", "PostalCode": "17815", "State": "PA"}, {"AddressLine1": "421 W Washington St", "City": "WERNERSVILLE", "PostalCode": "19565", "State": "PA"}, {"AddressLine1": "5500 SUSCON RD", "City": "BEAR CREEK", "PostalCode": "18602", "State": "PA"}, {"AddressLine1": "1016 Corbett Ave", "City": "SCRANTON", "PostalCode": "18504", "State": "PA"}, {"AddressLine1": "261 Emerson St", "City": "PITTSBURGH", "PostalCode": "15206", "State": "PA"}, {"AddressLine1": "1123 E Centre St", "City": "MAHANOY CITY", "PostalCode": "17948", "State": "PA"}, {"AddressLine1": "44 Church Ln", "City": "PINE GROVE", "PostalCode": "17963", "State": "PA"}, {"AddressLine1": "612 N 12th St", "City": "ALLENTOWN", "PostalCode": "18102", "State": "PA"}, {"AddressLine1": "3229 PLEASANT VLY RD RR 1", "City": "COGAN STATION", "PostalCode": "17728", "State": "PA"}, {"AddressLine1": "108 Oak St", "City": "DONALDSON", "PostalCode": "17981", "State": "PA"}, {"AddressLine1": "322 W Main St", "City": "THOMPSONTOWN", "PostalCode": "17094", "State": "PA"}, {"AddressLine1": "123 E North St", "City": "CARLISLE", "PostalCode": "17013", "State": "PA"}, {"AddressLine1": "305ORCHARD DR", "City": "PITTSBURGH", "PostalCode": "15228", "State": "PA"}, {"AddressLine1": "199 BETHESDA CH RD W", "City": "HOLTWOOD", "PostalCode": "17532", "State": "PA"}, {"AddressLine1": "16 PICNIC WOOD CIR", "City": "LITITZ", "PostalCode": "17543", "State": "PA"}, {"AddressLine1": "1135 E Orange St Apt J2", "City": "LANCASTER", "PostalCode": "17602", "State": "PA"}, {"AddressLine1": "806 MAULE LA", "City": "WEST CHESTER", "PostalCode": "19382", "State": "PA"}, {"AddressLine1": "6051 Fairway Ln", "City": "ALLENTOWN", "PostalCode": "18106", "State": "PA"}, {"AddressLine1": "105 Clearview Dr", "City": "STRASBURG", "PostalCode": "17579", "State": "PA"}, {"AddressLine1": "1905 Wright St", "City": "PITTSBURGH", "PostalCode": "15221", "State": "PA"}, {"AddressLine1": "109 Park Pl Apt 24", "City": "MUNCY", "PostalCode": "17756", "State": "PA"}, {"AddressLine1": "134 Home St", "City": "PITTSBURGH", "PostalCode": "15201", "State": "PA"}, {"AddressLine1": "617 Darby Ct", "City": "HUMMELSTOWN", "PostalCode": "17036", "State": "PA"}, {"AddressLine1": "5826 N Camac St", "City": " PHILADELPHIA", "PostalCode": "19141", "State": "PA"}, {"AddressLine1": "491 Fox Ridge Ln", "City": "WINFIELD", "PostalCode": "17889", "State": "PA"}, {"AddressLine1": "929 Remington Dr", "City": "JOHNSTOWN", "PostalCode": "15902", "State": "PA"}, {"AddressLine1": "12 CLARKSVILLE ST", "City": "GREENVILLE", "PostalCode": "16125", "State": "PA"}, {"AddressLine1": "843 E 41st St", "City": "ERIE", "PostalCode": "16504", "State": "PA"}, {"AddressLine1": "217 POPLAR ST", "City": "ERIE", "PostalCode": "16507", "State": "PA"}, {"AddressLine1": "21389 BEVERLY DR", "City": "MEADVILLE", "PostalCode": "16335", "State": "PA"}, {"AddressLine1": "340 Thornhill Dr", "City": "HANOVER", "PostalCode": "17331", "State": "PA"}, {"AddressLine1": "110 Alan Way", "City": "NEW CASTLE", "PostalCode": "16101", "State": "PA"}, {"AddressLine1": "238 Carroll St", "City": "READING", "PostalCode": "19611", "State": "PA"}, {"AddressLine1": "409 W Main St", "City": "PALMYRA", "PostalCode": "17078", "State": "PA"}, {"AddressLine1": "520 COLLEEN DR", "City": "ERIE", "PostalCode": "16505", "State": "PA"}, {"AddressLine1": "217 Old Airport Rd", "City": "EMLENTON", "PostalCode": "16373", "State": "PA"}, {"AddressLine1": "329 Metz St", "City": "ERIE", "PostalCode": "16508", "State": "PA"}, {"AddressLine1": "155 BIRCH ST", "City": "SPRING CHURCH", "PostalCode": "15686", "State": "PA"}, {"AddressLine1": "219 Columbia Ct", "City": "JEANNETTE", "PostalCode": "15644", "State": "PA"}, {"AddressLine1": "400 N JEFFERSON ST", "City": "KITTANNING", "PostalCode": "16201", "State": "PA"}, {"AddressLine1": "1109 Johnson St", "City": "VANDERGRIFT", "PostalCode": "15690", "State": "PA"}, {"AddressLine1": "235 W CHESTNUT ST", "City": " WASHINGTON", "PostalCode": "15301", "State": "PA"}, {"AddressLine1": "903 Pine Valley Dr", "City": "IMPERIAL", "PostalCode": "15126", "State": "PA"}, {"AddressLine1": "519 UPPER GRIMES RDTAN TRLR", "City": "PORT ALLEGANY", "PostalCode": "16743", "State": "PA"}, {"AddressLine1": "324 Palma St", "City": "NORTH VERSAILLES", "PostalCode": "15137", "State": "PA"}, {"AddressLine1": "324 Shields Ln", "City": "SEWICKLEY", "PostalCode": "15143", "State": "PA"}, {"AddressLine1": "28 Acorn Blvd", "City": "LANCASTER", "PostalCode": "17602", "State": "PA"}, {"AddressLine1": "306 Chaucer Ct N", "City": "SEWICKLEY", "PostalCode": "15143", "State": "PA"}, {"AddressLine1": "796 MOHN ST APT B", "City": "HARRISBURG", "PostalCode": "17113", "State": "PA"}, {"AddressLine1": "531 W Lloyd St", "City": "SHENANDOAH", "PostalCode": "17976", "State": "PA"}, {"AddressLine1": "1911 FRANKLIN ST", "City": "HARRISBURG", "PostalCode": "17109", "State": "PA"}, {"AddressLine1": "825 LINDEN ST APT 3FL", "City": "ALLENTOWN", "PostalCode": "18101", "State": "PA"}, {"AddressLine1": "192 Louise Ave", "City": "MONTGOMERY", "PostalCode": "17752", "State": "PA"}, {"AddressLine1": "610 North St", "City": "FREELAND", "PostalCode": "18224", "State": "PA"}, {"AddressLine1": "1030 Francis Rd", "City": "PITTSBURGH", "PostalCode": "15234", "State": "PA"}, {"AddressLine1": "52 Fox Hill Rd", "City": "ALBRIGHTSVILLE", "PostalCode": "18210", "State": "PA"}, {"AddressLine1": "349 N 2nd St", "City": "WORMLEYSBURG", "PostalCode": "17043", "State": "PA"}, {"AddressLine1": "1026 Moore Ln", "City": "CLINTON", "PostalCode": "15026", "State": "PA"}, {"AddressLine1": "UNIT 308     1301 PETERSON ST", "City": "CHESTER", "PostalCode": "19013", "State": "PA"}, {"AddressLine1": "441 MAIN ST, 2ND FLR", "City": "STEELTON", "PostalCode": "17113", "State": "PA"}, {"AddressLine1": "533 1ST AVE APT 3,1ST FL REAR", "City": "BETHLEHEM", "PostalCode": "18018", "State": "PA"}, {"AddressLine1": "988 Mount Joy Rd", "City": "MANHEIM", "PostalCode": "17545", "State": "PA"}, {"AddressLine1": "6376 Burchfield Ave", "City": "PITTSBURGH", "PostalCode": "15217", "State": "PA"}, {"AddressLine1": "720 S Front St", "City": "SUNBURY", "PostalCode": "17801", "State": "PA"}, {"AddressLine1": "2195 Cloverton Dr", "City": "COLUMBIA", "PostalCode": "17512", "State": "PA"}, {"AddressLine1": "515 Cherry Dr", "City": "EXETER", "PostalCode": "18643", "State": "PA"}, {"AddressLine1": "125 New Galilee Rd", "City": "DARLINGTON", "PostalCode": "16115", "State": "PA"}, {"AddressLine1": "RTE 49", "City": "MILLS", "PostalCode": "16937", "State": "PA"}, {"AddressLine1": "106 Stephens St", "City": "CASSANDRA", "PostalCode": "15925", "State": "PA"}, {"AddressLine1": "901 Beach St", "City": "READING", "PostalCode": "19605", "State": "PA"}, {"AddressLine1": "710 Emerson Ave", "City": "LAURELDALE", "PostalCode": "19605", "State": "PA"}, {"AddressLine1": "2429 Schaffer Rd", "City": "POTTSTOWN", "PostalCode": "19464", "State": "PA"}, {"AddressLine1": "7528 Yellow Church Rd", "City": "SEVEN VALLEYS", "PostalCode": "17360", "State": "PA"}, {"AddressLine1": "13899 Fox Run Ct", "City": "STEWARTSTOWN", "PostalCode": "17363", "State": "PA"}, {"AddressLine1": "494 Hollow Rd", "City": "DARLINGTON", "PostalCode": "16115", "State": "PA"}, {"AddressLine1": "288 Clintonville Rd", "City": "MERCER", "PostalCode": "16137", "State": "PA"}, {"AddressLine1": "120 E Mill St", "City": "PORT ALLEGANY", "PostalCode": "16743", "State": "PA"}, {"AddressLine1": "41434 Walnut St", "City": "TITUSVILLE", "PostalCode": "16354", "State": "PA"}, {"AddressLine1": "148 DESMOND ST", "City": "SAYRE", "PostalCode": "18840", "State": "PA"}, {"AddressLine1": "1007 N Beech St", "City": "BURNHAM", "PostalCode": "17009", "State": "PA"}, {"AddressLine1": "723 Constitution Ave", "City": "DOUGLASSVILLE", "PostalCode": "19518", "State": "PA"}, {"AddressLine1": "148 Hill Ave", "City": "BIRDSBORO", "PostalCode": "19508", "State": "PA"}, {"AddressLine1": "126 Post Oak Dr", "City": "BEAVER FALLS", "PostalCode": "15010", "State": "PA"}, {"AddressLine1": "335 Water Dam Rd", "City": "WAYNESBURG", "PostalCode": "15370", "State": "PA"}, {"AddressLine1": "206 Wallis Ave", "City": "FARRELL", "PostalCode": "16121", "State": "PA"}, {"AddressLine1": "203 Blackwood Dr", "City": "GREENSBURG", "PostalCode": "15601", "State": "PA"}, {"AddressLine1": "415 Chestnut Ln", "City": "APOLLO", "PostalCode": "15613", "State": "PA"}, {"AddressLine1": "153 Penrose Ave", "City": "BLANDON", "PostalCode": "19510", "State": "PA"}, {"AddressLine1": "1317 N George St Apt 4", "City": "YORK", "PostalCode": "17404", "State": "PA"}, {"AddressLine1": "4015 Jordan St", "City": "SOUTH HEIGHTS", "PostalCode": "15081", "State": "PA"}, {"AddressLine1": "5321 COLUMBINE CIRCLE", "City": "SCHNECKSVILLE", "PostalCode": "18078", "State": "PA"}, {"AddressLine1": "365 MILLERS RD", "City": "ZION GROVE", "PostalCode": "17985", "State": "PA"}, {"AddressLine1": "12 MANN AVE", "City": "MILL HALL", "PostalCode": "17751", "State": "PA"}, {"AddressLine1": "329 Bower Hill Rd", "City": "PITTSBURGH", "PostalCode": "15228", "State": "PA"}, {"AddressLine1": "5252 2nd Ave", "City": "PITTSBURGH", "PostalCode": "15207", "State": "PA"}, {"AddressLine1": "70 GETZ DR", "City": "MC ALISTERVILLE", "PostalCode": "17049", "State": "PA"}, {"AddressLine1": "4833 Criss Rd", "City": "BETHEL PARK", "PostalCode": "15102", "State": "PA"}, {"AddressLine1": "78 Charles St", "City": "WHITE MILLS", "PostalCode": "18473", "State": "PA"}, {"AddressLine1": "5328 BROWNS WAY", "City": "PITTSBURGH", "PostalCode": "15224", "State": "PA"}, {"AddressLine1": "1019 Bayridge Ave", "City": "PITTSBURGH", "PostalCode": "15226", "State": "PA"}, {"AddressLine1": "2732 Tillia St", "City": "ALLISON PARK", "PostalCode": "15101", "State": "PA"}, {"AddressLine1": "641 Collins Ave Apt 3A", "City": "PITTSBURGH", "PostalCode": "15206", "State": "PA"}, {"AddressLine1": "7551 Penn Bridge Ct", "City": "PITTSBURGH", "PostalCode": "15221", "State": "PA"}, {"AddressLine1": "205 Duck lane", "City": "KRESGEVILLE", "PostalCode": "18333", "State": "PA"}, {"AddressLine1": "2609 Standardbred Dr", "City": "LANCASTER", "PostalCode": "17603", "State": "PA"}, {"AddressLine1": "139 E 8th St", "City": "BLOOMSBURG", "PostalCode": "17815", "State": "PA"}, {"AddressLine1": "417 ORCHARD AVE FLR 2", "City": "PITTSBURGH", "PostalCode": "15202", "State": "PA"}, {"AddressLine1": "5776 Haddington St", "City": "PHILADELPHIA", "PostalCode": "19131", "State": "PA"}, {"AddressLine1": "6122 HASBROOK AV", "City": " PHILADELPHIA", "PostalCode": "19111", "State": "PA"}, {"AddressLine1": "413 Cherry St", "City": "LITITZ", "PostalCode": "17543", "State": "PA"}, {"AddressLine1": "2161 Royal Ave", "City": "WILLIAMSPORT", "PostalCode": "17701", "State": "PA"}, {"AddressLine1": "2003 S 6th St", "City": "ALLENTOWN", "PostalCode": "18103", "State": "PA"}, {"AddressLine1": "FL 1ST     1637 N 33RD ST", "City": " PHILADELPHIA", "PostalCode": "19121", "State": "PA"}, {"AddressLine1": "137 W Saylor St", "City": "MOUNT CARMEL", "PostalCode": "17851", "State": "PA"}, {"AddressLine1": "42 Midland Hts Apt A", "City": "MIDLAND", "PostalCode": "15059", "State": "PA"}, {"AddressLine1": "140 Ross Dr", "City": "NEW BRIGHTON", "PostalCode": "15066", "State": "PA"}, {"AddressLine1": "1328 Laketon Rd", "City": "PITTSBURGH", "PostalCode": "15221", "State": "PA"}, {"AddressLine1": "161 E 2ND ST", "City": "ALBURTIS", "PostalCode": "18011", "State": "PA"}, {"AddressLine1": "305 Tresckow Rd", "City": "MCADOO", "PostalCode": "18237", "State": "PA"}, {"AddressLine1": "534 Ott Rd", "City": "BALA CYNWYD", "PostalCode": "19004", "State": "PA"}, {"AddressLine1": "705 Spring St", "City": "MOOSIC", "PostalCode": "18507", "State": "PA"}, {"AddressLine1": "484 Deer Run Dr", "City": "MCALISTERVILLE", "PostalCode": "17049", "State": "PA"}, {"AddressLine1": "420 Rochelle St", "City": "PITTSBURGH", "PostalCode": "15210", "State": "PA"}, {"AddressLine1": "1063 E 11TH ST", "City": "PENNSBURG", "PostalCode": "18073", "State": "PA"}, {"AddressLine1": "5173 Tamarack Dr", "City": "SHARPSVILLE", "PostalCode": "16150", "State": "PA"}, {"AddressLine1": "364 Welsh Rd", "City": "EVANS CITY", "PostalCode": "16033", "State": "PA"}, {"AddressLine1": "1006 CENTERVILLE RD", "City": "NEWVILLE", "PostalCode": "17241", "State": "PA"}, {"AddressLine1": "121 Crescent St", "City": "EVANS CITY", "PostalCode": "16033", "State": "PA"}, {"AddressLine1": "617 Evergreen St", "City": "JOHNSTOWN", "PostalCode": "15904", "State": "PA"}, {"AddressLine1": "436 Lake Ave", "City": "MONTROSE", "PostalCode": "18801", "State": "PA"}, {"AddressLine1": "86 Millburn Rd Lot 9", "City": "MERCER", "PostalCode": "16137", "State": "PA"}, {"AddressLine1": "112 Castle Creek Dr", "City": "SEVEN FIELDS", "PostalCode": "16046", "State": "PA"}, {"AddressLine1": "505 Stoney Run Rd", "City": "PITTSFIELD", "PostalCode": "16340", "State": "PA"}, {"AddressLine1": "417 BOYLES AVE", "City": "NEW CASTLE", "PostalCode": "16101", "State": "PA"}, {"AddressLine1": "147 Zehner School Rd", "City": "ZELIENOPLE", "PostalCode": "16063", "State": "PA"}, {"AddressLine1": "509 Spring St", "City": "SAXTON", "PostalCode": "16678", "State": "PA"}, {"AddressLine1": "18 Lakeview Dr", "City": "READING", "PostalCode": "19605", "State": "PA"}, {"AddressLine1": "148 Downieville Rd", "City": "VALENCIA", "PostalCode": "16059", "State": "PA"}, {"AddressLine1": "9 Bel Aire Dr", "City": "DELMONT", "PostalCode": "15626", "State": "PA"}, {"AddressLine1": "1005 LAUREL OAK DR", "City": "VALENCIA", "PostalCode": "16059", "State": "PA"}, {"AddressLine1": "143 Andlers Ln", "City": "RENFREW", "PostalCode": "16053", "State": "PA"}, {"AddressLine1": "516 Center St", "City": "KNOX", "PostalCode": "16232", "State": "PA"}, {"AddressLine1": "1138 Buffalo Rd", "City": "ERIE", "PostalCode": "16503", "State": "PA"}, {"AddressLine1": "986 Groff Ave", "City": "ELIZABETHTOWN", "PostalCode": "17022", "State": "PA"}, {"AddressLine1": "1003 Thorn Run Rd", "City": "CORAOPOLIS", "PostalCode": "15108", "State": "PA"}, {"AddressLine1": "708 Overlook Pl", "City": "MCKEES ROCKS", "PostalCode": "15136", "State": "PA"}, {"AddressLine1": "1516 SAND HILL RD", "City": "SELINSGROVE", "PostalCode": "17870", "State": "PA"}, {"AddressLine1": "123 Shepard Dr", "City": "PITTSBURGH", "PostalCode": "15239", "State": "PA"}, {"AddressLine1": "1038 Center St", "City": "MCKEESPORT", "PostalCode": "15132", "State": "PA"}, {"AddressLine1": "10076 Renovo Rd", "City": "NORTH BEND", "PostalCode": "17760", "State": "PA"}, {"AddressLine1": "518 Cherry Hill Rd", "City": "NAZARETH", "PostalCode": "18064", "State": "PA"}, {"AddressLine1": "5024 Painted Sky Rd", "City": "READING", "PostalCode": "19606", "State": "PA"}, {"AddressLine1": "447 MAIN ST", "City": "OLEY", "PostalCode": "19547", "State": "PA"}, {"AddressLine1": "2550 Mill Creek Rd", "City": "DOVER", "PostalCode": "17315", "State": "PA"}, {"AddressLine1": "704 Sycamore Rd", "City": "MOHNTON", "PostalCode": "19540", "State": "PA"}, {"AddressLine1": "10 Charles Ct", "City": "EASTON", "PostalCode": "18045", "State": "PA"}, {"AddressLine1": "2982 OREBED RD", "City": "MANSFIELD", "PostalCode": "16933", "State": "PA"}, {"AddressLine1": "2323 Blue Jay Dr", "City": "NAZARETH", "PostalCode": "18064", "State": "PA"}, {"AddressLine1": "860 Baer Ave", "City": "HANOVER", "PostalCode": "17331", "State": "PA"}, {"AddressLine1": "301 Forest Edge Ct", "City": "WEXFORD", "PostalCode": "15090", "State": "PA"}, {"AddressLine1": "413 Perry Cir", "City": "CRANBERRY TWP", "PostalCode": "16066", "State": "PA"}, {"AddressLine1": "201 Terrace St", "City": "WARREN", "PostalCode": "16365", "State": "PA"}, {"AddressLine1": "100 Brobeck Dr", "City": "ALIQUIPPA", "PostalCode": "15001", "State": "PA"}, {"AddressLine1": "8C UNIVERSITY AVE", "City": "SELINSGROVE", "PostalCode": "17870", "State": "PA"}, {"AddressLine1": "1465 Country Club Dr", "City": "LANCASTER", "PostalCode": "17601", "State": "PA"}, {"AddressLine1": "940 4th St", "City": "BEAVER", "PostalCode": "15009", "State": "PA"}, {"AddressLine1": "3685 Logans Ferry Rd", "City": "MONROEVILLE", "PostalCode": "15146", "State": "PA"}, {"AddressLine1": "125 LONGUE VUE DR", "City": "PITTSBURGH", "PostalCode": "15228", "State": "PA"}, {"AddressLine1": "112 Rushbrook Rd", "City": "SCOTT TOWNSHIP", "PostalCode": "18433", "State": "PA"}, {"AddressLine1": "PO Box 1111", "City": "MILFORD", "PostalCode": "18337", "State": "PA"}, {"AddressLine1": "80 Old Berwick Rd", "City": "DRUMS", "PostalCode": "18222", "State": "PA"}, {"AddressLine1": "145 Heatherbrooke Est", "City": "MUNCY", "PostalCode": "17756", "State": "PA"}, {"AddressLine1": "1005 Chapin Dr", "City": "CLARKS SUMMIT", "PostalCode": "18411", "State": "PA"}, {"AddressLine1": "4405A UNION DEPOSIT RD", "City": "HARRISBURG", "PostalCode": "17111", "State": "PA"}, {"AddressLine1": "218 10th Ave", "City": "SCRANTON", "PostalCode": "18504", "State": "PA"}, {"AddressLine1": "1144 E Susquehanna St", "City": "ALLENTOWN", "PostalCode": "18103", "State": "PA"}, {"AddressLine1": "168 W Beil Ave", "City": "NAZARETH", "PostalCode": "18064", "State": "PA"}, {"AddressLine1": "333 Candlewood Rd", "City": "BROOMALL", "PostalCode": "19008", "State": "PA"}, {"AddressLine1": "49 Winding Brook Dr", "City": "SINKING SPRING", "PostalCode": "19608", "State": "PA"}, {"AddressLine1": "1611 SWATARA ST, 2FL", "City": "HARRISBURG", "PostalCode": "17104", "State": "PA"}, {"AddressLine1": "383 STACEY LN, 42046232", "City": "MIDDLEBURG", "PostalCode": "17842", "State": "PA"}, {"AddressLine1": "481 Shurs Ln", "City": "PHILADELPHIA", "PostalCode": "19128", "State": "PA"}, {"AddressLine1": "900 Shady Grove Rd", "City": "NEW FLORENCE", "PostalCode": "15944", "State": "PA"}, {"AddressLine1": "17 W Wayne St", "City": "WARREN", "PostalCode": "16365", "State": "PA"}, {"AddressLine1": "63 Iron Mine Rd", "City": " TROY ", "PostalCode": "16947", "State": "PA"}, {"AddressLine1": "916 N 8th St", "City": "WYOMISSING", "PostalCode": "19610", "State": "PA"}, {"AddressLine1": "131 Crestview Dr", "City": "SALIX", "PostalCode": "15952", "State": "PA"}, {"AddressLine1": "700 S Keel Ridge Rd", "City": "HERMITAGE", "PostalCode": "16148", "State": "PA"}, {"AddressLine1": "462 Kenny Dr", "City": "READING", "PostalCode": "19608", "State": "PA"}, {"AddressLine1": "2465 Mountain View Dr", "City": "OTTSVILLE", "PostalCode": "18942", "State": "PA"}, {"AddressLine1": "404 N Temple Blvd", "City": "TEMPLE", "PostalCode": "19560", "State": "PA"}, {"AddressLine1": "40 Cardinal Dr", "City": "BIRDSBORO", "PostalCode": "19508", "State": "PA"}, {"AddressLine1": "4832 Shearsburg Rd", "City": "NEW KENSINGTON", "PostalCode": "15068", "State": "PA"}, {"AddressLine1": "15 Meadow Ln", "City": "UNIONTOWN", "PostalCode": "15401", "State": "PA"}, {"AddressLine1": "1500 WHITECLOUD RD", "City": "LEECHBURG", "PostalCode": "15656", "State": "PA"}, {"AddressLine1": "247 N Michael St Apt 1", "City": "SAINT MARYS", "PostalCode": "15857", "State": "PA"}, {"AddressLine1": "17 Mooredale Rd", "City": "CARLISLE", "PostalCode": "17015", "State": "PA"}, {"AddressLine1": "2793 Johnson St", "City": "ALIQUIPPA", "PostalCode": "15001", "State": "PA"}, {"AddressLine1": "523 Coolidge St", "City": "NEW CUMBERLAND", "PostalCode": "17070", "State": "PA"}, {"AddressLine1": "8 WOLF HOLLOW RD", "City": "LAKE HARMONY", "PostalCode": "18624", "State": "PA"}, {"AddressLine1": "140 Queneshaukney Rd", "City": "LINDEN", "PostalCode": "17744", "State": "PA"}, {"AddressLine1": "440 WERTZ RUN RD", "City": "CARLISLE", "PostalCode": "17013", "State": "PA"}, {"AddressLine1": "311 Hoch Rd", "City": "FLEETWOOD", "PostalCode": "19522", "State": "PA"}, {"AddressLine1": "1007 Milford Rd", "City": "DINGMANS FERRY", "PostalCode": "18328", "State": "PA"}, {"AddressLine1": "105 Mushroom Ct", "City": "MILFORD", "PostalCode": "18337", "State": "PA"}, {"AddressLine1": "2712 RT 259", "City": "BOLIVAR", "PostalCode": "15923", "State": "PA"}, {"AddressLine1": "1111 N Liberty St", "City": "NEW CASTLE", "PostalCode": "16102", "State": "PA"}, {"AddressLine1": "415 Fox Meadow Dr", "City": "WEXFORD", "PostalCode": "15090", "State": "PA"}, {"AddressLine1": "10 Ridge Ct", "City": "MOHNTON", "PostalCode": "19540", "State": "PA"}, {"AddressLine1": "1131 Hamilton Ave", "City": "FARRELL", "PostalCode": "16121", "State": "PA"}, {"AddressLine1": "136 TAYLOR AVE", "City": "BEAVER FALLS", "PostalCode": "15010", "State": "PA"}, {"AddressLine1": "159 JESSUP ST", "City": "MONTROSE", "PostalCode": "18801", "State": "PA"}, {"AddressLine1": "52B N Carlisle St", "City": "GREENCASTLE", "PostalCode": "17225", "State": "PA"}, {"AddressLine1": "116 Windswept Dr", "City": "LATROBE", "PostalCode": "15650", "State": "PA"}, {"AddressLine1": "53 Linden Ave", "City": "MERCERSBURG", "PostalCode": "17236", "State": "PA"}, {"AddressLine1": "364 S 1ST ST", "City": "BANGOR", "PostalCode": "18013", "State": "PA"}, {"AddressLine1": "1017 Ruths Ct", "City": "HANOVER", "PostalCode": "17331", "State": "PA"}, {"AddressLine1": "4610 Stricker Rd", "City": "HARRISBURG", "PostalCode": "17111", "State": "PA"}, {"AddressLine1": "0 RR 2", "City": "FACTORYVILLE", "PostalCode": "18419", "State": "PA"}, {"AddressLine1": "113 Berrys Rd", "City": "ALIQUIPPA", "PostalCode": "15001", "State": "PA"}, {"AddressLine1": "765 Garfield Ave", "City": "GLENSIDE", "PostalCode": "19038", "State": "PA"}, {"AddressLine1": "45 Mayberry Ln # 9.29", "City": "MECHANICSBURG", "PostalCode": "17050", "State": "PA"}, {"AddressLine1": "1327 Island Ave", "City": "PITTSBURGH", "PostalCode": "15212", "State": "PA"}, {"AddressLine1": "16 VALLEY RD     APT 5", "City": "DREXEL HILL", "PostalCode": "19026", "State": "PA"}, {"AddressLine1": "2018 Noble St Apt 2B", "City": "PITTSBURGH", "PostalCode": "15218", "State": "PA"}, {"AddressLine1": "528 Pine St", "City": "WILLIAMSPORT", "PostalCode": "17701", "State": "PA"}, {"AddressLine1": "38 Rocky Rd", "City": "AUBURN", "PostalCode": "17922", "State": "PA"}, {"AddressLine1": "40 GENERAL PULASKI, LOT 72", "City": "MOUNTAIN TOP", "PostalCode": "18707", "State": "PA"}, {"AddressLine1": "542 Caboose Dr", "City": "QUAKERTOWN", "PostalCode": "18951", "State": "PA"}, {"AddressLine1": "1505 CRUMS MILL RD", "City": "HARRISBURG", "PostalCode": "17110", "State": "PA"}, {"AddressLine1": "2015 Redwood Ave", "City": "WYOMISSING", "PostalCode": "19610", "State": "PA"}, {"AddressLine1": "62 Oak Glen Dr", "City": "PEQUEA", "PostalCode": "17565", "State": "PA"}, {"AddressLine1": "252 Shaw Ave", "City": "LEWISTOWN", "PostalCode": "17044", "State": "PA"}, {"AddressLine1": "1834 Mountain Rd", "City": "HAMBURG", "PostalCode": "19526", "State": "PA"}, {"AddressLine1": "1112 S Pine St", "City": "YORK", "PostalCode": "17403", "State": "PA"}, {"AddressLine1": "171 Shady Ln", "City": "WEXFORD", "PostalCode": "15090", "State": "PA"}, {"AddressLine1": "163 Pinehurst Dr", "City": "CRANBERRY TOWNSHIP", "PostalCode": "16066", "State": "PA"}, {"AddressLine1": "20 Ward Ln", "City": "MACUNGIE", "PostalCode": "18062", "State": "PA"}, {"AddressLine1": "220 Moul Ave", "City": "HANOVER", "PostalCode": "17331", "State": "PA"}, {"AddressLine1": "171 Betty Cir", "City": "REEDSVILLE", "PostalCode": "17084", "State": "PA"}, {"AddressLine1": "15722 AIRPORT RD", "City": "LINESVILLE", "PostalCode": "16424", "State": "PA"}, {"AddressLine1": "717 COSGROVE RD", "City": "NEW GALILEE", "PostalCode": "16141", "State": "PA"}, {"AddressLine1": "62 Doe Run Ln", "City": "POTTSTOWN", "PostalCode": "19464", "State": "PA"}, {"AddressLine1": "84 Euclid Ave", "City": "UNIONTOWN", "PostalCode": "15401", "State": "PA"}, {"AddressLine1": "299 Fishing Creek Rd", "City": "MILL HALL", "PostalCode": "17751", "State": "PA"}, {"AddressLine1": "901 Washington St", "City": "BENTLEYVILLE", "PostalCode": "15314", "State": "PA"}, {"AddressLine1": "445 Summit St", "City": "NEW KENSINGTON", "PostalCode": "15068", "State": "PA"}, {"AddressLine1": "650 Pettigrew Rd", "City": "NORTH HUNTINGDON", "PostalCode": "15642", "State": "PA"}, {"AddressLine1": "234 S Mill St", "City": "LOGANTON", "PostalCode": "17747", "State": "PA"}, {"AddressLine1": "1441 S Carlisle St", "City": "PHILADELPHIA", "PostalCode": "19146", "State": "PA"}, {"AddressLine1": "806 Allaire Ave", "City": "MONACA", "PostalCode": "15061", "State": "PA"}, {"AddressLine1": "681 Newport Rd", "City": "DUNCANNON", "PostalCode": "17020", "State": "PA"}, {"AddressLine1": "701 S MAIN AVE APT 1FL,REAR", "City": "SCRANTON", "PostalCode": "18504", "State": "PA"}, {"AddressLine1": "1335 Akehurst Rd", "City": "PITTSBURGH", "PostalCode": "15220", "State": "PA"}, {"AddressLine1": "701 WOOD ST", "City": "BETHLEHEM", "PostalCode": "18018", "State": "PA"}, {"AddressLine1": "1226 E Chestnut St", "City": "HAZLETON", "PostalCode": "18201", "State": "PA"}, {"AddressLine1": "93 Persun Ln", "City": "WATSONTOWN", "PostalCode": "17777", "State": "PA"}, {"AddressLine1": "36 LINDA LANE", "City": "CARBONDALE", "PostalCode": "18407", "State": "PA"}, {"AddressLine1": "75 Clay Rd", "City": "CARLISLE", "PostalCode": "17015", "State": "PA"}, {"AddressLine1": "619 S 25th St", "City": "HARRISBURG", "PostalCode": "17104", "State": "PA"}, {"AddressLine1": "1345 Walnut St Apt 214", "City": "NORTH VERSAILLES", "PostalCode": "15137", "State": "PA"}, {"AddressLine1": "5115 Lake Dr", "City": "EAST STROUDSBURG", "PostalCode": "18301", "State": "PA"}, {"AddressLine1": "1020 Valonia St", "City": "PITTSBURGH", "PostalCode": "15220", "State": "PA"}, {"AddressLine1": "4052 Schaeffer Dr", "City": "WALNUTPORT", "PostalCode": "18088", "State": "PA"}, {"AddressLine1": "3182 Bradbury Dr", "City": "ALIQUIPPA", "PostalCode": "15001", "State": "PA"}, {"AddressLine1": "430 Black Rock Rd", "City": "HANOVER", "PostalCode": "17331", "State": "PA"}, {"AddressLine1": "318 GOOSE POND RD, BLDG B", "City": "LAKE ARIEL", "PostalCode": "18436", "State": "PA"}, {"AddressLine1": "167 Country Inn Rd", "City": "SOUTH FORK", "PostalCode": "15956", "State": "PA"}, {"AddressLine1": "5292 Waterhouse Dr", "City": "ERIE", "PostalCode": "16510", "State": "PA"}, {"AddressLine1": "PO Box 145", "City": "SABINSVILLE", "PostalCode": "16943", "State": "PA"}]
